station,valid,tmpf,dwpf,relh,drct,sknt,p01i,alti,mslp,vsby,gust,skyc1,skyc2,skyc3,skyc4,skyl1,skyl2,skyl3,skyl4,wxcodes,ice_accretion_1hr,ice_accretion_3hr,ice_accretion_6hr,peak_wind_gust,peak_wind_drct,peak_wind_time,feel,metar,snowdepth
CIC,1996-12-20 00:51,M,M,M,140.00,9.00,M,30.20,M,3.00,M,BKN,   ,   ,   ,20000.00,M,M,M,HZ,M,M,M,M,M,M,M,KCIC 200051Z 14009KT 3SM HZ BKN200 A3020,M
CIC,1996-12-20 01:45,M,M,M,140.00,10.00,M,30.21,M,2.00,M,BKN,   ,   ,   ,10000.00,M,M,M,BR,M,M,M,M,M,M,M,KCIC 200145Z 14010KT 2SM BR BKN100 A3021,M
CIC,1996-12-20 02:45,M,M,M,120.00,8.00,M,30.21,M,0.20,M,   ,   ,   ,   ,M,M,M,M,M,M,M,M,M,M,M,M,KCIC 200245Z 12008KT 3/16 FG VV005 A3021 RMK LAST,M
CIC,1996-12-20 14:53,M,M,M,0.00,0.00,M,30.17,M,1.00,M,VV ,   ,   ,   ,400.00,M,M,M,BR,M,M,M,M,M,M,M,KCIC 201453Z 00000KT 1SM BR VV004 A3017,M
CIC,1996-12-20 15:54,M,M,M,0.00,0.00,M,30.18,M,0.75,M,VV ,   ,   ,   ,400.00,M,M,M,BR,M,M,M,M,M,M,M,KCIC 201554Z 00000KT 3/4SM BR VV004 A3018,M
CIC,1996-12-20 17:48,M,M,M,130.00,9.04,M,30.15,M,0.80,M,   ,   ,   ,   ,M,M,M,M,M,M,M,M,M,M,M,M,KCIC 201748Z 13009KT 3/4SM BG VV003 A3015,M
CIC,1996-12-20 18:47,M,M,M,140.00,11.00,M,30.15,M,0.75,M,VV ,   ,   ,   ,300.00,M,M,M,BR,M,M,M,M,M,M,M,KCIC 201847Z 14011KT 3/4SM BR VV003 A3015,M
CIC,1996-12-20 19:47,M,M,M,140.00,10.00,M,30.12,M,0.75,M,VV ,   ,   ,   ,300.00,M,M,M,BR,M,M,M,M,M,M,M,KCIC 201947Z 14010KT 3/4SM BR VV003 A3012,M
CIC,1996-12-20 20:56,M,M,M,130.00,10.00,M,30.06,M,1.00,M,VV ,   ,   ,   ,300.00,M,M,M,BR,M,M,M,M,M,M,M,KCIC 202056Z 13010KT 1SM BR VV003 A3006,M
CIC,1996-12-20 21:48,M,M,M,170.00,7.00,M,30.04,M,1.50,M,VV ,   ,   ,   ,300.00,M,M,M,BR,M,M,M,M,M,M,M,KCIC 202148Z 17007KT 1 1/2SM BR VV003 A3004,M
CIC,1996-12-20 22:51,M,M,M,140.00,12.00,M,30.00,M,2.00,M,VV ,   ,   ,   ,400.00,M,M,M,BR,M,M,M,M,M,M,M,KCIC 202251Z 14012KT 2SM BR VV004 A3000,M
CIC,1996-12-21 01:45,M,M,M,100.00,5.00,M,29.96,M,3.00,M,VV ,   ,   ,   ,600.00,M,M,M,-RA BR,M,M,M,M,M,M,M,KCIC 210145Z 10005KT 3SM -RA BR VV006 A2996,M
CIC,1996-12-21 02:45,M,M,M,0.00,0.00,M,29.94,M,3.00,M,OVC,   ,   ,   ,1000.00,M,M,M,-RA BR,M,M,M,M,M,M,M,KCIC 210245Z 00000KT 3SM -RA BR OVC010 A2994 RMK CIG RGD LAST,M
CIC,1996-12-21 14:52,M,M,M,330.00,5.00,M,29.67,M,0.12,M,VV ,   ,   ,   ,0.00,M,M,M,-RA FG,M,M,M,M,M,M,M,KCIC 211452Z 33005KT 1/8SM -RA FG VV000 A2967,M
CIC,1996-12-21 15:58,M,M,M,280.00,6.00,M,29.68,M,0.25,M,VV ,   ,   ,   ,100.00,M,M,M,FG,M,M,M,M,M,M,M,KCIC 211558Z 28006KT 1/4SM FG VV001 A2968,M
CIC,1996-12-21 16:52,M,M,M,300.00,7.00,M,29.69,M,0.25,M,VV ,   ,   ,   ,0.00,M,M,M,FG,M,M,M,M,M,M,M,KCIC 211652Z 30007KT 1/4SM FG VV000 2969,M
CIC,1996-12-21 17:49,M,M,M,0.00,0.00,M,29.69,M,0.12,M,VV ,   ,   ,   ,100.00,M,M,M,FG,M,M,M,M,M,M,M,KCIC 211749Z 00000KT 2/16SM FG VV001 A2969,M
CIC,1996-12-21 18:49,M,M,M,0.00,0.00,M,29.69,M,0.38,M,VV ,   ,   ,   ,100.00,M,M,M,FG,M,M,M,M,M,M,M,KCIC 211849Z 00000KT 3/8SM FG VV001 A2969,M
CIC,1996-12-21 19:47,M,M,M,120.00,9.00,M,29.66,M,0.19,M,VV ,   ,   ,   ,100.00,M,M,M,FG,M,M,M,M,M,M,M,KCIC 211947Z 12009KT 3/16SM FG VV001 A2966,M
CIC,1996-12-21 20:51,M,M,M,100.00,7.00,M,29.62,M,0.19,M,VV ,   ,   ,   ,100.00,M,M,M,FG,M,M,M,M,M,M,M,KCIC 212051Z 10007KT 3/16SM FG VV001 A2962,M
CIC,1996-12-21 21:45,M,M,M,130.00,14.00,M,29.59,M,5.00,M,SCT,BKN,OVC,   ,400.00,1000.00,4000.00,M,BR,M,M,M,M,M,M,M,KCIC 212145Z 13014KT 5SM BR SCT004 BKN010 OVC040 A2959 RMK CIG RGD,M
CIC,1996-12-21 22:45,M,M,M,130.00,11.00,M,29.60,M,9.00,M,SCT,BKN,OVC,   ,600.00,2200.00,7000.00,M,M,M,M,M,M,M,M,M,KCIC 212245Z 13011KT 9SM SCT006 BKN022 OVC070 A2960 RMK CIG RGD,M
CIC,1996-12-21 23:45,M,M,M,120.00,15.00,M,29.60,M,15.00,M,SCT,OVC,   ,   ,600.00,2200.00,M,M,M,M,M,M,M,M,M,M,KCIC 212345Z 12015KT 15SM SCT006 OVC022 A2960 RMK CIG RGD,M
CIC,1996-12-22 01:45,M,M,M,120.00,12.00,M,29.60,M,15.00,M,BKN,OVC,   ,   ,2200.00,7000.00,M,M,M,M,M,M,M,M,M,M,KCIC 220145Z 12012KT 15SM BKN022 OVC070 A2960 RMK CIG RGD,M
CIC,1996-12-22 14:54,M,M,M,130.00,18.00,M,29.62,M,7.00,M,OVC,   ,   ,   ,3000.00,M,M,M,M,M,M,M,M,M,M,M,KCIC 221454Z 13018KT 7SM OVC030 A2962 RMK CIG RGD,M
CIC,1996-12-22 15:49,M,M,M,120.00,15.00,M,29.63,M,4.00,M,OVC,   ,   ,   ,2000.00,M,M,M,BR,M,M,M,M,M,M,M,KCIC 221549Z 12015KT 4SM BR OVC020 A2963 RMK CIG RGD,M
CIC,1996-12-22 16:45,M,M,M,130.00,34.99,M,29.63,M,7.00,46.65,OVC,   ,   ,   ,800.00,M,M,M,-RA,M,M,M,M,M,M,M,KCIC 221645Z 13018G24 7SM -RA OVC008 A2963 RMK CIG RGD,M
CIC,1996-12-22 17:45,M,M,M,130.00,16.00,M,29.62,M,4.00,22.00,SCT,OVC,   ,   ,400.00,800.00,M,M,-RA BR,M,M,M,M,M,M,M,KCIC 221745Z 13016G22KT 4SM -RA BR SCT004 OVC008 A2962,M
CIC,1996-12-22 18:45,M,M,M,140.00,22.00,M,29.62,M,10.00,30.00,BKN,OVC,   ,   ,600.00,5000.00,M,M,-RA,M,M,M,M,M,M,M,KCIC 221845Z 14022G30KT 10SM -RA BKN006 OVC050 A2962,M
CIC,1996-12-22 19:46,M,M,M,150.00,15.00,M,29.66,M,10.00,M,BKN,OVC,   ,   ,800.00,5000.00,M,M,-RA,M,M,M,M,M,M,M,KCIC 221946Z 15015KT 10SM -RA BKN008 OVC050 A2966 RMK CIG RGD,M
CIC,1996-12-22 20:47,M,M,M,140.00,12.00,M,29.65,M,40.00,M,SCT,BKN,   ,   ,800.00,5000.00,M,M,M,M,M,M,M,M,M,M,KCIC 222047Z 14012KT 40SM SCT008 BKN050 A2965,M
CIC,1996-12-22 21:53,M,M,M,150.00,13.00,M,29.69,M,40.00,M,BKN,   ,   ,   ,2000.00,M,M,M,M,M,M,M,M,M,M,M,KCIC 222153Z 15013KT 40SM BKN020 A2969 RMK CIG RMK,M
CIC,1996-12-22 22:46,M,M,M,180.00,14.00,M,29.76,M,40.00,M,BKN,   ,   ,   ,2000.00,M,M,M,M,M,M,M,M,M,M,M,KCIC 222246Z 18014KT 40SM BKN020 A2976 RMK CIG RGD,M
CIC,1996-12-22 23:51,M,M,M,150.00,10.00,M,29.79,M,40.00,M,SCT,   ,   ,   ,2000.00,M,M,M,M,M,M,M,M,M,M,M,KCIC 222351Z 15010KT 40SM SCT020 A2979,M
CIC,1996-12-23 00:46,M,M,M,180.00,11.00,M,29.84,M,40.00,M,SCT,   ,   ,   ,2000.00,M,M,M,M,M,M,M,M,M,M,M,KCIC 230046Z 18011KT 40SM SCT020 A2984,M
CIC,1996-12-23 01:46,M,M,M,110.00,8.00,M,29.88,M,40.00,M,SCT,   ,   ,   ,2000.00,M,M,M,M,M,M,M,M,M,M,M,KCIC 230146Z 11008KT 40SM SCT020 A2988,M
CIC,1996-12-23 02:46,M,M,M,100.00,6.00,M,29.90,M,40.00,M,SCT,   ,   ,   ,2000.00,M,M,M,M,M,M,M,M,M,M,M,KCIC 230246Z 10006KT 40SM SCT020 A2990 RMK LAST,M
CIC,1996-12-23 14:49,M,M,M,130.00,16.00,M,30.27,M,20.00,M,BKN,OVC,   ,   ,4000.00,8000.00,M,M,M,M,M,M,M,M,M,M,KCIC 231449Z 13016KT 20SM BKN040 OVC080 A3027,M
CIC,1996-12-23 15:59,M,M,M,120.00,13.00,M,30.32,M,15.00,M,SCT,OVC,   ,   ,3000.00,8000.00,M,M,M,M,M,M,M,M,M,M,KCIC 231559Z 12013KT 15SM SCT030 OVC080 A3032,M
CIC,1996-12-23 16:45,M,M,M,120.00,13.00,M,30.35,M,15.00,M,SCT,OVC,   ,   ,3000.00,8000.00,M,M,M,M,M,M,M,M,M,M,KCIC 231645Z 12013KT 15SM SCT030 OVC080 A3035,M
CIC,1996-12-23 17:45,M,M,M,120.00,15.00,M,30.39,M,30.00,M,SCT,BKN,   ,   ,3000.00,8000.00,M,M,M,M,M,M,M,M,M,M,KCIC 231745Z 12015KT 30SM SCT030 BKN080 A3039,M
CIC,1996-12-23 18:47,M,M,M,130.00,15.00,M,30.41,M,20.00,M,SCT,BKN,   ,   ,3000.00,8000.00,M,M,M,M,M,M,M,M,M,M,KCIC 231847Z 13015KT 20SM SCT030 BKN080 A3041,M
CIC,1996-12-23 19:47,M,M,M,120.00,14.00,M,30.41,M,20.00,M,BKN,BKN,   ,   ,2500.00,10000.00,M,M,M,M,M,M,M,M,M,M,KCIC 231947Z 12014KT 20SM BKN025 BKN100 A3041,M
CIC,1996-12-23 20:49,M,M,M,110.00,10.00,M,30.41,M,30.00,M,SCT,BKN,   ,   ,2500.00,15000.00,M,M,M,M,M,M,M,M,M,M,KCIC 232049Z 11010KT 30SM SCT025 BKN150 A3041,M
CIC,1996-12-23 21:49,M,M,M,120.00,11.00,M,30.39,M,30.00,M,FEW,FEW,OVC,   ,2500.00,4000.00,25000.00,M,M,M,M,M,M,M,M,M,KCIC 232149Z 12011KT 30SM FEW025 FEW040 OVC250 A3039,M
CIC,1996-12-23 22:53,M,M,M,130.00,11.00,M,30.41,M,M,M,FEW,BKN,   ,   ,2500.00,25000.00,M,M,M,M,M,M,M,M,M,M,KCIC 232253Z 13011KT FEW025 BKN250 A3041,M
CIC,1996-12-23 23:49,M,M,M,150.00,10.00,M,30.42,M,29.00,M,FEW,SCT,   ,   ,2500.00,25000.00,M,M,M,M,M,M,M,M,M,M,KCIC 232349Z 15010KT 29SM FEW025 SCT250 A3042,M
CIC,1996-12-24 00:48,M,M,M,130.00,5.00,M,30.42,M,20.00,M,FEW,SCT,   ,   ,3000.00,25000.00,M,M,M,M,M,M,M,M,M,M,KCIC 240048Z 13005KT 20SM FEW030 SCT250 A3042,M
CIC,1996-12-24 01:46,M,M,M,0.00,0.00,M,30.43,M,20.00,M,FEW,SCT,   ,   ,3000.00,25000.00,M,M,M,M,M,M,M,M,M,M,KCIC 240146Z 00000KT 20SM FEW030 SCT250 A3043,M
CIC,1996-12-24 02:46,M,M,M,0.00,0.00,M,30.44,M,20.00,M,FEW,SCT,   ,   ,3000.00,25000.00,M,M,M,M,M,M,M,M,M,M,KCIC 240246Z 00000KT 20SM FEW030 SCT250 A3044,M
CIC,1996-12-24 14:53,M,M,M,0.00,0.00,M,30.41,M,10.00,M,BKN,   ,   ,   ,20000.00,M,M,M,M,M,M,M,M,M,M,M,KCIC 241453Z 00000KT 10SM BKN200 A3041,M
CIC,1996-12-24 16:59,M,M,M,0.00,0.00,M,30.40,M,M,M,BKN,   ,   ,   ,20000.00,M,M,M,M,M,M,M,M,M,M,M,KCIC 241659Z 00000KT BKN200 A3040,M
CIC,1996-12-24 18:46,M,M,M,0.00,0.00,M,30.39,M,20.00,M,BKN,   ,   ,   ,20000.00,M,M,M,M,M,M,M,M,M,M,M,KCIC 241846Z 00000KT 20SM BKN200 A3039,M
CIC,1996-12-24 19:52,M,M,M,300.00,8.00,M,30.35,M,80.00,M,OVC,   ,   ,   ,20000.00,M,M,M,M,M,M,M,M,M,M,M,KCIC 241952Z 30008KT 80SM OVC200 A3035,M
CIC,1996-12-24 20:50,M,M,M,120.00,4.00,M,30.31,M,80.00,M,OVC,   ,   ,   ,20000.00,M,M,M,M,M,M,M,M,M,M,M,KCIC 242050Z 12004KT 80SM OVC200 A3031,M
CIC,1996-12-24 21:55,M,M,M,280.00,9.00,M,30.30,M,80.00,M,OVC,   ,   ,   ,20000.00,M,M,M,M,M,M,M,M,M,M,M,KCIC 242155Z 28009KT 80SM OVC200 A3030,M
CIC,1996-12-24 23:54,M,M,M,30.00,M,M,30.27,M,80.00,M,OVC,   ,   ,   ,20000.00,M,M,M,M,M,M,M,M,M,M,M,KCIC 242354Z 030304KT 80SM OVC200 A3027,M
CIC,1996-12-25 01:53,M,M,M,30.00,6.00,M,30.26,M,80.00,M,OVC,   ,   ,   ,20000.00,M,M,M,M,M,M,M,M,M,M,M,KCIC 250153Z 03006KT 80SM OVC200 A3026,M
CIC,1996-12-25 02:46,M,M,M,0.00,0.00,M,30.26,M,80.00,M,OVC,   ,   ,   ,20000.00,M,M,M,M,M,M,M,M,M,M,M,KCIC 250246Z 00000KT 80SM OVC200 A3026,M
CIC,1996-12-25 14:46,M,M,M,0.00,0.00,M,30.16,M,40.00,M,SCT,   ,   ,   ,8000.00,M,M,M,M,M,M,M,M,M,M,M,KCIC 251446Z 00000KT 40SM SCT080 A3016,M
CIC,1996-12-25 15:55,M,M,M,0.00,0.00,M,30.15,M,60.00,M,SCT,   ,   ,   ,8000.00,M,M,M,M,M,M,M,M,M,M,M,KCIC 251555Z 00000KT 60SM SCT080 A3015,M
CIC,1996-12-25 16:47,M,M,M,0.00,0.00,M,30.14,M,60.00,M,SCT,SCT,   ,   ,8000.00,20000.00,M,M,M,M,M,M,M,M,M,M,KCIC 251647Z 00000KT 60SM SCT080 SCT200 A3014,M
CIC,1996-12-25 17:47,M,M,M,300.00,7.00,M,30.16,M,60.00,M,SCT,SCT,   ,   ,8000.00,20000.00,M,M,M,M,M,M,M,M,M,M,KCIC 251747Z 30007KT 60SM SCT080 SCT200 A3016,M
CIC,1996-12-25 18:52,M,M,M,270.00,5.00,M,30.14,M,60.00,M,SCT,SCT,   ,   ,8000.00,20000.00,M,M,M,M,M,M,M,M,M,M,KCIC 251852Z 27005KT 60SM SCT080 SCT200 A3014,M
CIC,1996-12-25 19:51,M,M,M,180.00,5.00,M,30.10,M,60.00,M,FEW,SCT,   ,   ,8000.00,20000.00,M,M,M,M,M,M,M,M,M,M,KCIC 251951Z 18005KT 60SM FEW080 SCT200 A3010,M
CIC,1996-12-25 20:47,M,M,M,0.00,0.00,M,30.08,M,60.00,M,FEW,SCT,   ,   ,8000.00,20000.00,M,M,M,M,M,M,M,M,M,M,KCIC 252047Z 00000KT 60SM FEW080 SCT200 A3008,M
CIC,1996-12-25 21:56,M,M,M,0.00,0.00,M,30.04,M,20.00,M,FEW,BKN,   ,   ,8000.00,20000.00,M,M,M,M,M,M,M,M,M,M,KCIC 252156Z 00000KT 20SM FEW080 BKN200 A3004,M
CIC,1996-12-25 22:47,M,M,M,230.00,7.00,M,30.02,M,20.00,M,FEW,BKN,   ,   ,8000.00,20000.00,M,M,M,M,M,M,M,M,M,M,KCIC 252247Z 23007KT 20SM FEW080 BKN200 A3002,M
CIC,1996-12-25 23:47,M,M,M,250.00,6.00,M,30.02,M,20.00,M,FEW,BKN,   ,   ,8000.00,20000.00,M,M,M,M,M,M,M,M,M,M,KCIC 252347Z 25006KT 20SM FEW080 BKN200 A3002,M
CIC,1996-12-26 00:46,M,M,M,210.00,6.00,M,30.00,M,40.00,M,FEW,OVC,   ,   ,8000.00,15000.00,M,M,M,M,M,M,M,M,M,M,KCIC 260046Z 21006KT 40SM FEW080 OVC150 A3000,M
CIC,1996-12-26 01:57,M,M,M,0.00,0.00,M,29.99,M,20.00,M,FEW,OVC,   ,   ,8000.00,15000.00,M,M,M,M,M,M,M,M,M,M,KCIC 260157Z 00000KT 20SM FEW080 OVC150 A2999,M
CIC,1996-12-26 14:52,M,M,M,120.00,12.00,M,29.85,M,7.00,M,OVC,   ,   ,   ,1500.00,M,M,M,-RA,M,M,M,M,M,M,M,KCIC 261452Z 12012KT 7SM -RA OVC015 A2985,M
CIC,1996-12-26 15:46,M,M,M,120.00,10.00,M,29.85,M,4.00,M,SCT,BKN,OVC,   ,1500.00,2000.00,3000.00,M,-RA,M,M,M,M,M,M,M,KCIC 261546Z 12010KT 4SM -RA SCT015 BKN020 OVC030 A2985,M
CIC,1996-12-26 16:48,M,M,M,130.00,12.00,M,29.85,M,4.00,M,SCT,BKN,OVC,   ,1500.00,2000.00,3000.00,M,-RA,M,M,M,M,M,M,M,KCIC 261648Z 13012KT 4SM -RA SCT015 BKN020 OVC030 A2985,M
CIC,1996-12-26 20:47,M,M,M,140.00,11.00,M,29.75,M,1.00,M,OVC,   ,   ,   ,4000.00,M,M,M,-RA BR,M,M,M,M,M,M,M,KCIC 262047Z 14011KT 1SM -RA BR OVC040 A2975,M
CIC,1996-12-26 21:49,M,M,M,120.00,10.00,M,29.72,M,1.00,M,OVC,   ,   ,   ,400.00,M,M,M,-RA BR,M,M,M,M,M,M,M,KCIC 262149Z 12010KT 1SM -RA BR OVC004 A2972,M
CIC,1996-12-26 23:48,M,M,M,130.00,9.00,M,29.71,M,3.00,M,OVC,   ,   ,   ,600.00,M,M,M,-RA BR,M,M,M,M,M,M,M,KCIC 262348Z 13009KT 3SM -RA BR OVC006 A2971,M
CIC,1996-12-27 00:50,M,M,M,150.00,8.00,M,29.70,M,2.50,M,OVC,   ,   ,   ,600.00,M,M,M,-RA BR,M,M,M,M,M,M,M,KCIC 270050Z 15008KT 21/2SM -RA BR OVC006 A2970,M
CIC,1996-12-27 01:48,M,M,M,0.00,0.00,M,29.70,M,3.00,M,OVC,   ,   ,   ,600.00,M,M,M,RA BR,M,M,M,M,M,M,M,KCIC 270148Z 00000KT 3SM RA BR OVC006 A2970,M
CIC,1996-12-27 02:49,M,M,M,0.00,0.00,M,29.73,M,3.00,M,OVC,   ,   ,   ,500.00,M,M,M,RA BR,M,M,M,M,M,M,M,KCIC 270249Z 00000KT 3SM RA BR OVC005 A2973 RMK LAST,M
CIC,1996-12-27 14:55,M,M,M,130.00,20.00,M,29.78,M,7.00,M,OVC,   ,   ,   ,1000.00,M,M,M,M,M,M,M,M,M,M,M,KCIC 271455Z 13020KT 7SM OVC010 A2978,M
CIC,1996-12-27 15:58,M,M,M,120.00,20.00,M,29.79,M,5.00,M,OVC,   ,   ,   ,800.00,M,M,M,BR,M,M,M,M,M,M,M,KCIC 271558Z 12020KT 5SM BR OVC008 A2979,M
CIC,1996-12-27 16:47,M,M,M,120.00,20.00,M,29.81,M,5.00,M,OVC,   ,   ,   ,800.00,M,M,M,BR,M,M,M,M,M,M,M,KCIC 271647Z 12020KT 5SM BR OVC008 A2981,M
CIC,1996-12-27 17:47,M,M,M,120.00,23.00,M,29.83,M,5.00,M,OVC,   ,   ,   ,1100.00,M,M,M,-RA BR,M,M,M,M,M,M,M,KCIC 271747Z 12023KT 5SM -RA BR OVC011 A2983,M
CIC,1996-12-27 18:49,M,M,M,120.00,23.00,M,29.95,M,5.00,M,BKN,OVC,   ,   ,1100.00,9000.00,M,M,-RA,M,M,M,M,M,M,M,KCIC 271849Z 12023KT 5SM -RA BKN011 OVC090 A2995,M
CIC,1996-12-27 19:48,M,M,M,130.00,18.00,M,29.85,M,15.00,25.00,BKN,OVC,   ,   ,1500.00,7000.00,M,M,-RA,M,M,M,M,M,M,M,KCIC 271948Z 13018G25KT 15SM -RA BKN015 OVC070 A2985,M
CIC,1996-12-27 20:45,M,M,M,130.00,18.00,M,29.84,M,15.00,25.00,BKN,OVC,   ,   ,1500.00,7000.00,M,M,M,M,M,M,M,M,M,M,KCIC 272045Z 13018G25KT 15SM BKN015 OVC070 A2984,M
CIC,1996-12-27 21:45,M,M,M,130.00,20.00,M,29.84,M,15.00,25.00,BKN,OVC,   ,   ,1500.00,7000.00,M,M,M,M,M,M,M,M,M,M,KCIC 272145Z 13020G25KT 15SM BKN015 OVC070 A2984,M
CIC,1996-12-27 22:47,M,M,M,130.00,21.00,M,29.85,M,15.00,M,BKN,OVC,   ,   ,1500.00,8000.00,M,M,M,M,M,M,M,M,M,M,KCIC 272247Z 13021KT 15SM BKN015 OVC080 A2985,M
CIC,1996-12-27 23:47,M,M,M,130.00,20.00,M,29.87,M,15.00,M,BKN,OVC,   ,   ,1500.00,8000.00,M,M,M,M,M,M,M,M,M,M,KCIC 272347Z 13020KT 15SM BKN015 OVC080 A2987,M
CIC,1996-12-28 00:53,M,M,M,130.00,25.00,M,29.87,M,10.00,M,BKN,OVC,   ,   ,1500.00,8000.00,M,M,M,M,M,M,M,M,M,M,KCIC 280053Z 13025KT 10SM BKN015 OVC080 A2987,M
CIC,1996-12-28 01:46,M,M,M,130.00,20.00,M,29.89,M,15.00,M,SCT,BKN,   ,   ,1500.00,8000.00,M,M,M,M,M,M,M,M,M,M,KCIC 280146Z 13020KT 15SM SCT015 BKN080 A2989,M
CIC,1996-12-28 02:45,M,M,M,120.00,20.00,M,29.90,M,15.00,M,SCT,BKN,   ,   ,1500.00,8000.00,M,M,M,M,M,M,M,M,M,M,KCIC 280245Z 12020KT 15SM SCT015 BKN080 A2990 RMK LAST,M
CIC,1996-12-28 14:50,M,M,M,110.00,20.00,M,30.00,M,M,M,BKN,OVC,   ,   ,1500.00,2500.00,M,M,M,M,M,M,M,M,M,M,KCIC 281450Z 11020KT BKN015 OVC025 A3000,M
CIC,1996-12-28 17:46,M,M,M,130.00,23.00,M,30.05,M,10.00,M,OVC,   ,   ,   ,3000.00,M,M,M,M,M,M,M,M,M,M,M,KCIC 281746Z 130023KT 10SM OVC030 A3005,M
CIC,1996-12-28 19:57,M,M,M,120.00,20.00,M,30.02,M,15.00,M,FEW,SCT,OVC,   ,1000.00,3000.00,8000.00,M,M,M,M,M,M,M,M,M,KCIC 281957Z 12020KT 15SM FEW010 SCT030 OVC080 A3002,M
CIC,1996-12-28 21:49,M,M,M,120.00,16.00,M,30.02,M,10.00,M,FEW,SCT,OVC,   ,1000.00,3000.00,8000.00,M,M,M,M,M,M,M,M,M,KCIC 282149Z 12016KT 10SM FEW010 SCT030 OVC080 A3002,M
CIC,1996-12-29 00:45,M,M,M,120.00,21.00,M,30.03,M,5.00,M,FEW,OVC,   ,   ,1000.00,4000.00,M,M,-RABR,M,M,M,M,M,M,M,KCIC 290045Z 12021KT 5SM -RABR FEW010 OVC040 A3003,M
CIC,1996-12-29 01:45,M,M,M,120.00,20.00,M,30.03,M,15.00,M,OVC,   ,   ,   ,4000.00,M,M,M,RA,M,M,M,M,M,M,M,KCIC 290145Z 12020KT 15SM RA OVC040 A3003,M
CIC,1996-12-29 02:45,M,M,M,120.00,18.00,M,30.06,M,7.00,M,OVC,   ,   ,   ,4000.00,M,M,M,RA,M,M,M,M,M,M,M,KCIC 290245Z 12018KT 7SM RA OVC040 A3006 RMK LAST,M
CIC,1996-12-29 14:53,M,M,M,120.00,22.00,M,29.88,M,15.00,M,OVC,   ,   ,   ,7000.00,M,M,M,M,M,M,M,M,M,M,M,KCIC 291453Z 12022KT 15SM OVC070 A2988,M
CIC,1996-12-29 15:45,M,M,M,120.00,33.00,M,29.83,M,40.00,46.00,OVC,   ,   ,   ,3000.00,M,M,M,M,M,M,M,M,M,M,M,KCIC 291545Z 12033G46KT 40SM OVC030 A2983,M
CIC,1996-12-29 16:46,M,M,M,130.00,24.00,M,29.84,M,3.00,31.00,OVC,   ,   ,   ,3000.00,M,M,M,RA,M,M,M,M,M,M,M,KCIC 291646Z 13024G31KT 3SM RA OVC030 A2984,M
CIC,1996-12-29 17:45,M,M,M,120.00,25.00,M,29.86,M,3.00,33.00,OVC,   ,   ,   ,1500.00,M,M,M,RA,M,M,M,M,M,M,M,KCIC 291745Z 12025G33KT 3SM RA OVC015 A2986,M
CIC,1996-12-29 18:45,M,M,M,120.00,20.00,M,29.87,M,7.00,26.00,SCT,OVC,   ,   ,1500.00,3000.00,M,M,RA,M,M,M,M,M,M,M,KCIC 291845Z 12020G26KT 7SM RA SCT015 OVC030 A2987,M
CIC,1996-12-29 19:54,M,M,M,130.00,22.00,M,29.87,M,3.00,M,SCT,OVC,   ,   ,1500.00,3000.00,M,M,RA,M,M,M,M,M,M,M,KCIC 291954Z 13022KT 3SM RA SCT015 OVC030 A2987,M
CIC,1996-12-29 20:46,M,M,M,120.00,26.00,M,29.87,M,1.50,M,OVC,   ,   ,   ,1500.00,M,M,M,RABR,M,M,M,M,M,M,M,KCIC 292046Z 12026KT 1 1/2SM RABR OVC015 A2987,M
CIC,1996-12-29 21:45,M,M,M,130.00,26.00,M,29.86,M,15.00,35.00,OVC,   ,   ,   ,1200.00,M,M,M,RA,M,M,M,M,M,M,M,KCIC 292145Z 13026G35KT 15SM RA OVC012 A2986,M
CIC,1996-12-29 22:46,M,M,M,130.00,25.00,M,29.87,M,10.00,35.00,OVC,   ,   ,   ,1200.00,M,M,M,M,M,M,M,M,M,M,M,KCIC 292246Z 13025G35KT 10SM OVC012 A2987,M
CIC,1996-12-29 23:46,M,M,M,130.00,26.00,M,29.88,M,10.00,35.00,OVC,   ,   ,   ,1200.00,M,M,M,RA,M,M,M,M,M,M,M,KCIC 292346Z 13026G35KT 10SM RA OVC012 A2988,M
CIC,1996-12-30 00:54,M,M,M,130.00,26.00,M,29.93,M,10.00,35.00,OVC,   ,   ,   ,2000.00,M,M,M,M,M,M,M,M,M,M,M,KCIC 300054Z 13026G35KT 10SM OVC020 A2993,M
CIC,1996-12-30 01:48,M,M,M,130.00,26.00,M,29.94,M,10.00,35.00,OVC,   ,   ,   ,2000.00,M,M,M,M,M,M,M,M,M,M,M,KCIC 300148Z 13026G35KT 10SM OVC020 A2994,M
CIC,1996-12-30 02:46,M,M,M,130.00,20.00,M,29.94,M,10.00,35.00,OVC,   ,   ,   ,2000.00,M,M,M,M,M,M,M,M,M,M,M,KCIC 300246Z 13020G35KT 10SM OVC020 A2994,M
CIC,1996-12-30 14:53,M,M,M,150.00,13.00,M,29.87,M,3.00,M,OVC,   ,   ,   ,3000.00,M,M,M,RABR,M,M,M,M,M,M,M,KCIC 301453 15013KT 3SM RABR OVC030 A2987 RMK FIRST,M
CIC,1996-12-30 15:45,M,M,M,140.00,22.00,M,29.86,M,1.50,30.00,OVC,   ,   ,   ,1100.00,M,M,M,RABR,M,M,M,M,M,M,M,KCIC 301545Z 14022G30KT 1 1/2SM RABR OVC011 A2986 RMK CIG RGD,M
CIC,1996-12-30 16:50,M,M,M,120.00,24.00,M,29.85,M,10.00,30.00,OVC,   ,   ,   ,1000.00,M,M,M,RA,M,M,M,M,M,M,M,KCIC 301650Z 12024G30KT 10SM RA OVC010 A2985,M
CIC,1996-12-30 17:47,M,M,M,120.00,26.00,M,29.85,M,5.00,M,OVC,   ,   ,   ,500.00,M,M,M,RA BR,M,M,M,M,M,M,M,KCIC 301747Z 12026KT 5SM RA BR OVC005 A2985 RMK CIG RGD,M
CIC,1996-12-30 18:45,M,M,M,130.00,25.00,M,29.84,M,10.00,35.00,OVC,   ,   ,   ,1000.00,M,M,M,RA,M,M,M,M,M,M,M,KCIC 301845Z 13025G35KT 10SM RA OVC010 A2984,M
CIC,1996-12-30 19:48,M,M,M,130.00,25.00,M,29.81,M,2.00,M,OVC,   ,   ,   ,1000.00,M,M,M,RA,M,M,M,M,M,M,M,KCIC 301948Z 13025KT 2SM RA OVC010 A2981,M
CIC,1996-12-30 20:46,M,M,M,130.00,25.00,M,29.79,M,9.00,35.00,OVC,   ,   ,   ,1000.00,M,M,M,RA,M,M,M,M,M,M,M,KCIC 302046Z 13025G35KT 9SM RA OVC010 A2979,M
CIC,1996-12-30 21:47,M,M,M,130.00,25.00,M,29.76,M,9.00,38.00,OVC,   ,   ,   ,1000.00,M,M,M,RA,M,M,M,M,M,M,M,KCIC 302147Z 13025G38KT 9SM RA OVC010 A2976,M
CIC,1996-12-30 22:49,M,M,M,130.00,29.00,M,29.77,M,9.00,M,OVC,   ,   ,   ,1000.00,M,M,M,RA,M,M,M,M,M,M,M,KCIC 302249Z 13029KT 9SM RA OVC010 A2977,M
CIC,1996-12-30 23:46,M,M,M,130.00,25.00,M,29.97,M,9.00,36.00,OVC,   ,   ,   ,1000.00,M,M,M,RA,M,M,M,M,M,M,M,KCIC 302346Z 13025G36KT 9SM RA OVC010 A2997 RMK CIG RGD,M
CIC,1996-12-31 01:54,M,M,M,130.00,26.00,M,29.74,M,10.00,35.00,OVC,   ,   ,   ,900.00,M,M,M,RA,M,M,M,M,M,M,M,KCIC 310154Z 13026G35KT 10SM RA OVC009 A2974 RMK CIG RGD,M
CIC,1996-12-31 02:46,M,M,M,130.00,25.00,M,29.73,M,10.00,35.00,OVC,   ,   ,   ,900.00,M,M,M,RA,M,M,M,M,M,M,M,KCIC 310246Z 13025G35KT 10SM RA OVC009 A2973 RMK CIG RGD LAST,M
CIC,1996-12-31 14:55,M,M,M,130.00,15.00,M,29.84,M,4.00,M,OVC,   ,   ,   ,1000.00,M,M,M,RA,M,M,M,M,M,M,M,KCIC 311455Z 13015KT 4SM RA OVC010 A2984,M
CIC,1996-12-31 15:49,M,M,M,120.00,17.00,M,29.86,M,7.00,M,BKN,OVC,   ,   ,1200.00,4000.00,M,M,-RA,M,M,M,M,M,M,M,KCIC 311549Z 12017KT 7SM -RA BKN012 OVC040 A2986,M
CIC,1996-12-31 16:50,M,M,M,120.00,22.00,M,29.87,M,10.00,M,BKN,OVC,   ,   ,1200.00,4000.00,M,M,M,M,M,M,M,M,M,M,KCIC 311650Z 12022KT 10SM BKN012 OVC040 A2987,M
CIC,1996-12-31 17:46,M,M,M,120.00,21.00,M,29.87,M,10.00,32.00,BKN,OVC,   ,   ,1400.00,4000.00,M,M,M,M,M,M,M,M,M,M,KCIC 311746Z 12021G32KT 10SM BKN014 OVC040 A2987 RMK CIG RGD,M
CIC,1996-12-31 18:46,M,M,M,120.00,20.00,M,29.88,M,10.00,31.00,OVC,   ,   ,   ,1400.00,M,M,M,M,M,M,M,M,M,M,M,KCIC 311846Z 12020G31KT 10SM OVC014 A2988 RMK CIG RGD,M
CIC,1996-12-31 19:41,M,M,M,130.00,25.00,M,29.87,M,1.50,30.00,SCT,OVC,   ,   ,0.00,1000.00,M,M,RA BR,M,M,M,M,M,M,M,KCIC 311941Z 13025G30KT 11/2SM RA BR SCT000 OVC010 A2987 RMK BR SCT000,M
CIC,1996-12-31 19:55,M,M,M,140.00,25.00,M,29.86,M,1.50,M,SCT,OVC,   ,   ,0.00,1000.00,M,M,RA BR,M,M,M,M,M,M,M,KCIC 311955Z 140025KT 11/2SM RA BR SCT000 OVC010 A2986 RMK BR SCT000,M
CIC,1996-12-31 20:06,M,M,M,140.00,25.00,M,29.86,M,5.00,M,FEW,OVC,   ,   ,0.00,800.00,M,M,RA BR,M,M,M,M,M,M,M,KCIC 312006Z 14025KT 5SM RA BR FEW000 OVC008 A2986 RMK VSBY NW-NE 2SM BR FEW000,M
CIC,1996-12-31 20:45,M,M,M,130.00,25.04,M,29.85,M,10.00,M,   ,   ,   ,   ,M,M,M,M,M,M,M,M,M,M,M,M,KCIC 312045Z 13025KT 10SM -RASH OVC007 A2985,M
CIC,1996-12-31 21:40,M,M,M,130.00,24.00,M,29.83,M,2.00,M,OVC,   ,   ,   ,1000.00,M,M,M,RA,M,M,M,M,M,M,M,KCIC 312140Z 13024KT 2SM RA OVC010 A2983 RMK CIC RGD,M
CIC,1996-12-31 21:53,M,M,M,130.00,21.00,M,29.84,M,2.00,31.00,OVC,   ,   ,   ,1000.00,M,M,M,RA,M,M,M,M,M,M,M,KCIC 312153Z 13021G31KT 2SM RA OVC010 A2984 RMK CIC RGD,M
CIC,1996-12-31 22:47,M,M,M,130.00,20.00,M,29.86,M,2.00,33.00,OVC,   ,   ,   ,1000.00,M,M,M,RA,M,M,M,M,M,M,M,KCIC 312247 13020G33KT 2SM RA OVC010 A2986 RMK CIG RGD,M
CIC,1996-12-31 23:59,M,M,M,130.00,28.00,M,29.87,M,5.00,M,BKN,OVC,   ,   ,600.00,800.00,M,M,RABR,M,M,M,M,M,M,M,KCIC 312359Z 13028KT 5SM RABR BKN006 OVC008 A2987 RMK CIG RGD,M
CIC,1997-01-01 00:47,M,M,M,130.00,29.00,M,29.88,M,7.00,M,OVC,   ,   ,   ,1000.00,M,M,M,M,M,M,M,M,M,M,M,KCIC 010047Z 13029KT 7SM OVC010 A2988 RMK CIG RGD,M
CIC,1997-01-01 01:45,M,M,M,150.00,26.00,M,29.84,M,10.00,M,OVC,   ,   ,   ,1000.00,M,M,M,M,M,M,M,M,M,M,M,KCIC 010145Z 15026KT 10SM OVC010 A2984,M
CIC,1997-01-01 02:47,M,M,M,130.00,27.00,M,29.83,M,10.00,M,OVC,   ,   ,   ,1000.00,M,M,M,M,M,M,M,M,M,M,M,KCIC 010247Z 13027KT 10SM -SHRA OVC010 A2983 RMK LAST,M
CIC,1997-01-01 14:52,M,M,M,130.00,25.00,M,29.81,M,9.00,35.00,OVC,   ,   ,   ,1000.00,M,M,M,RA,M,M,M,M,M,M,M,KCIC 011452Z 13025G35KT 9SM RA OVC010 A2981,M
CIC,1997-01-01 15:54,M,M,M,130.00,25.00,M,29.81,M,9.00,35.00,OVC,   ,   ,   ,1000.00,M,M,M,RA,M,M,M,M,M,M,M,KCIC 011554Z 13025G35KT 9SM RA OVC010 A2981,M
CIC,1997-01-01 16:46,M,M,M,130.00,22.00,M,29.83,M,9.00,35.00,OVC,   ,   ,   ,1000.00,M,M,M,RA,M,M,M,M,M,M,M,KCIC 011646Z 13022G35KT 9SM RA OVC010 A2983,M
CIC,1997-01-01 18:52,M,M,M,130.00,25.00,M,29.84,M,9.00,35.00,OVC,   ,   ,   ,1000.00,M,M,M,RA,M,M,M,M,M,M,M,KCIC 011852Z 13025G35KT 9SM RA OVC010 A2984,M
CIC,1997-01-01 19:50,M,M,M,150.00,23.00,M,29.81,M,10.00,30.00,OVC,   ,   ,   ,1000.00,M,M,M,RA,M,M,M,M,M,M,M,KCIC 011950Z 15023G30KT 10SM RA OVC010 A2981,M
CIC,1997-01-01 21:49,M,M,M,130.00,25.00,M,29.78,M,7.00,M,OVC,   ,   ,   ,600.00,M,M,M,RA,M,M,M,M,M,M,M,KCIC 012149Z 13025KT 7SM RA OVC006 A2978,M
CIC,1997-01-01 22:52,M,M,M,140.00,23.00,M,29.75,M,4.00,30.00,OVC,   ,   ,   ,600.00,M,M,M,BR RA,M,M,M,M,M,M,M,KCIC 012252Z 14023G30KT 4SM BR RA OVC006 A2975,M
CIC,1997-01-01 23:46,M,M,M,150.00,20.00,M,29.76,M,10.00,29.00,OVC,   ,   ,   ,600.00,M,M,M,-RA,M,M,M,M,M,M,M,KCIC 012346Z 15020G29KT 10SM RA- OVC006 A2976,M
CIC,1997-01-02 00:51,M,M,M,140.00,22.00,M,29.74,M,7.00,29.00,OVC,   ,   ,   ,600.00,M,M,M,RA,M,M,M,M,M,M,M,KCIC 020051Z 14022G29KT 7SM RA OVC006 A2974,M
CIC,1997-01-02 01:49,M,M,M,140.00,15.00,M,29.76,M,10.00,27.00,OVC,   ,   ,   ,600.00,M,M,M,-SHRA,M,M,M,M,M,M,M,KCIC 020149Z 14015G27KT 10SM -SHRA OVC006 A2976,M
CIC,1997-01-02 02:45,M,M,M,150.00,24.00,M,29.78,M,10.00,30.00,OVC,   ,   ,   ,700.00,M,M,M,-SHRA,M,M,M,M,M,M,M,KCIC 020245Z 15024G30KT 10SM -SHRA OVC007 A2978 RMK LAST,M
CIC,1997-01-02 14:58,M,M,M,140.00,12.00,M,29.85,M,20.00,M,   ,   ,   ,   ,M,M,M,M,M,M,M,M,M,M,M,M,KCIC 021458Z 14012KT 20SM -RASH FEW015 BKN050 A2985,M
CIC,1997-01-02 15:48,M,M,M,360.00,M,M,29.87,M,25.00,M,   ,   ,   ,   ,M,M,M,M,M,M,M,M,M,M,M,M,KCIC 021548Z 14013G18SM 25SM -SHRA FEW010 BKN070 A2987,M
CIC,1997-01-02 16:45,M,M,M,140.00,13.00,M,29.88,M,40.00,M,FEW,BKN,OVC,   ,1000.00,7000.00,15000.00,M,M,M,M,M,M,M,M,M,KCIC 021645Z 14013KT 40SM FEW010 BKN070 OVC150 A2988,M
CIC,1997-01-02 17:45,M,M,M,130.00,12.00,M,29.90,M,40.00,M,   ,   ,   ,   ,M,M,M,M,M,M,M,M,M,M,M,M,KCIC 021745Z 13012KT 40SM FEW020 BKN070 OVCC 150 A2990,M
CIC,1997-01-02 18:47,M,M,M,120.00,16.00,M,29.90,M,60.00,M,BKN,BKN,   ,   ,2000.00,20000.00,M,M,M,M,M,M,M,M,M,M,KCIC 021847Z 12016KT 60SM BKN020 BKN200 A2990,M
CIC,1997-01-02 18:59,M,M,M,120.00,20.00,M,29.90,M,40.00,M,BKN,BKN,   ,   ,500.00,20000.00,M,M,M,M,M,M,M,M,M,M,KCIC 021859Z 12020KT 40SM BKN005 BKN200 A2990,M
CIC,1997-01-02 19:16,M,M,M,120.00,18.00,M,29.89,M,40.00,M,SCT,BKN,   ,   ,500.00,20000.00,M,M,M,M,M,M,M,M,M,M,KCIC 021916Z 12018KT 40SM SCT005 BKN200 A2989,M
CIC,1997-01-02 19:47,M,M,M,120.00,20.00,M,29.87,M,40.00,M,SCT,BKN,   ,   ,500.00,20000.00,M,M,M,M,M,M,M,M,M,M,KCIC 021947Z 12020KT 40SM SCT005 BKN200 A2987,M
CIC,1997-01-02 20:18,M,M,M,120.00,19.00,M,29.86,M,40.00,M,BKN,OVC,   ,   ,1200.00,20000.00,M,M,M,M,M,M,M,M,M,M,KCIC 022018Z 12019KT 40SM BKN012 OVC200 A2986,M
CIC,1997-01-02 20:55,M,M,M,120.00,22.00,M,29.86,M,40.00,M,BKN,OVC,   ,   ,1200.00,20000.00,M,M,M,M,M,M,M,M,M,M,KCIC 022055Z 12022KT 40SM BKN012 OVC200 A2986,M
CIC,1997-01-02 21:51,M,M,M,130.00,18.00,M,29.83,M,25.00,M,SCT,BKN,OVC,   ,1200.00,1600.00,15000.00,M,M,M,M,M,M,M,M,M,KCIC 022151Z 13018KT 25SM SCT012 BKN016 OVC150 A2983,M
CIC,1997-01-02 22:50,M,M,M,130.00,22.00,M,29.85,M,20.00,M,SCT,BKN,OVC,   ,1200.00,2000.00,15000.00,M,M,M,M,M,M,M,M,M,KCIC 022250Z 13022KT 20SM SCT012 BKN020 OVC150 A2985,M
CIC,1997-01-03 00:49,M,M,M,130.00,20.00,M,29.83,M,20.00,M,BKN,BKN,   ,   ,1000.00,20000.00,M,M,M,M,M,M,M,M,M,M,KCIC 030049Z 13020KT 20SM BKN010 BKN200 A2983 RMK CIG RGD,M
CIC,1997-01-03 01:48,M,M,M,120.00,22.00,M,29.82,M,15.00,M,BKN,BKN,   ,   ,1200.00,2000.00,M,M,-RA,M,M,M,M,M,M,M,KCIC 030148Z 12022KT 15SM -RA BKN012 BKN020 A2982 RMK CIG RGD,M
CIC,1997-01-03 02:45,M,M,M,120.00,20.00,M,29.83,M,15.00,M,BKN,BKN,   ,   ,1200.00,20000.00,M,M,-SHRA,M,M,M,M,M,M,M,KCIC 030245Z 12020KT 15SM -SHRA BKN012 BKN200 A2983 RMK CIG RGD LAST,M
CIC,1997-01-03 14:48,M,M,M,50.00,4.00,M,30.04,M,40.00,M,SCT,   ,   ,   ,2500.00,M,M,M,M,M,M,M,M,M,M,M,KCIC 031448Z 05004KT 40SM SCT025 A3004,M
CIC,1997-01-03 15:46,M,M,M,360.00,6.00,M,30.07,M,60.00,M,FEW,   ,   ,   ,1500.00,M,M,M,M,M,M,M,M,M,M,M,KCIC 031546Z 36006KT 60SM FEW015 A3007,M
CIC,1997-01-03 16:49,M,M,M,350.00,11.00,M,30.11,M,80.00,M,FEW,   ,   ,   ,1500.00,M,M,M,M,M,M,M,M,M,M,M,KCIC 031649Z 35011KT 80SM FEW015 A3011,M
CIC,1997-01-03 19:00,M,M,M,300.00,13.04,M,30.15,M,80.00,M,   ,   ,   ,   ,M,M,M,M,M,M,M,M,M,M,M,M,KCIC 031900Z 031855ZZ 30013KT 80SM FEW020 A3015,M
CIC,1997-01-03 19:47,M,M,M,300.00,14.00,M,30.14,M,80.00,M,FEW,   ,   ,   ,2000.00,M,M,M,M,M,M,M,M,M,M,M,KCIC 031947Z 30014KT 80SM FEW020 A3014,M
CIC,1997-01-03 20:47,M,M,M,300.00,13.00,M,30.12,M,80.00,M,FEW,   ,   ,   ,3000.00,M,M,M,M,M,M,M,M,M,M,M,KCIC 032047Z 30013KT 80SM FEW030 A3012,M
CIC,1997-01-03 21:45,M,M,M,310.00,10.00,M,31.10,M,80.00,M,FEW,   ,   ,   ,4500.00,M,M,M,M,M,M,M,M,M,M,M,KCIC 032145Z 31010KT 80SM FEW045 A3110,M
CIC,1997-01-03 23:45,M,M,M,310.00,9.00,M,30.11,M,80.00,M,FEW,   ,   ,   ,5000.00,M,M,M,M,M,M,M,M,M,M,M,KCIC 032345Z 31009KT 80SM FEW050 A3011,M
CIC,1997-01-04 00:49,M,M,M,310.00,8.00,M,30.11,M,80.00,M,FEW,   ,   ,   ,5000.00,M,M,M,M,M,M,M,M,M,M,M,KCIC 040049Z 31008KT 80SM FEW050 A3011,M
CIC,1997-01-04 01:45,M,M,M,310.00,6.00,M,30.11,M,60.00,M,FEW,   ,   ,   ,5000.00,M,M,M,M,M,M,M,M,M,M,M,KCIC 040145Z 31006KT 60SM FEW050 A3011,M
CIC,1997-01-04 02:45,M,M,M,10.00,5.00,M,30.13,M,30.00,M,FEW,   ,   ,   ,5000.00,M,M,M,M,M,M,M,M,M,M,M,KCIC 040245Z 01005KT 30SM FEW050 A3013 RMK LAST,M
CIC,1997-01-04 14:53,M,M,M,310.00,5.00,M,30.16,M,30.00,M,SCT,BKN,   ,   ,15000.00,20000.00,M,M,M,M,M,M,M,M,M,M,KCIC 041453Z 31005KT 30SM SCT150 BKN200 A3016,M
CIC,1997-01-04 15:49,M,M,M,0.00,0.00,M,30.16,M,80.00,M,SCT,OVC,   ,   ,15000.00,20000.00,M,M,M,M,M,M,M,M,M,M,KCIC 041549Z 00000KT 80SM SCT150 OVC200 A3016,M
CIC,1997-01-04 16:45,M,M,M,0.00,0.00,M,30.17,M,80.00,M,SCT,OVC,   ,   ,15000.00,20000.00,M,M,M,M,M,M,M,M,M,M,KCIC 041645Z 00000KT 80SM SCT150 OVC200 A3017,M
CIC,1997-01-04 18:51,M,M,M,0.00,0.00,M,30.20,M,80.00,M,FEW,OVC,   ,   ,4000.00,15000.00,M,M,M,M,M,M,M,M,M,M,KCIC 041851Z 00000KT 80SM FEW040 OVC150 A3020,M
CIC,1997-01-04 19:45,M,M,M,0.00,0.00,M,30.18,M,85.00,M,FEW,OVC,   ,   ,4000.00,15000.00,M,M,M,M,M,M,M,M,M,M,KCIC 041945Z 00000KT 85SM FEW040 OVC150 A3018,M
CIC,1997-01-04 21:48,M,M,M,0.00,0.00,M,30.13,M,80.00,M,FEW,OVC,   ,   ,4000.00,15000.00,M,M,M,M,M,M,M,M,M,M,KCIC 042148Z 00000KT 80SM FEW040 OVC150 A3013,M
CIC,1997-01-04 23:53,M,M,M,300.00,5.00,M,30.12,M,80.00,M,FEW,OVC,   ,   ,3000.00,10000.00,M,M,M,M,M,M,M,M,M,M,KCIC 042353Z 30005KT 80SM FEW030 OVC100 A3012,M
CIC,1997-01-05 00:45,M,M,M,300.00,6.00,M,30.12,M,80.00,M,FEW,OVC,   ,   ,3000.00,9000.00,M,M,M,M,M,M,M,M,M,M,KCIC 050045Z 30006KT 80SM FEW030 OVC090 A3012,M
CIC,1997-01-05 02:45,M,M,M,0.00,0.00,M,30.12,M,30.00,M,OVC,   ,   ,   ,9000.00,M,M,M,M,M,M,M,M,M,M,M,KCIC 050245Z 00000KT 30SM OVC090 A3012,M
CIC,1997-01-05 14:50,M,M,M,310.00,7.00,M,30.16,M,40.00,M,FEW,   ,   ,   ,5000.00,M,M,M,M,M,M,M,M,M,M,M,KCIC 051450Z 31007KT 40SM FEW050 A3016,M
CIC,1997-01-05 15:45,M,M,M,330.00,7.00,M,30.18,M,80.00,M,FEW,   ,   ,   ,3000.00,M,M,M,M,M,M,M,M,M,M,M,KCIC 051545Z 33007KT 80SM FEW030 A3018,M
CIC,1997-01-05 16:45,M,M,M,330.00,10.00,M,30.19,M,80.00,M,FEW,   ,   ,   ,3000.00,M,M,M,M,M,M,M,M,M,M,M,KCIC 051645Z 33010KT 80SM FEW030 A3019,M
CIC,1997-01-05 17:47,M,M,M,310.00,17.00,M,30.20,M,80.00,M,CLR,   ,   ,   ,M,M,M,M,M,M,M,M,M,M,M,M,KCIC 051747Z 31017KT 80SM SKC A3020,M
CIC,1997-01-05 18:49,M,M,M,300.00,23.00,M,30.21,M,80.00,M,CLR,   ,   ,   ,M,M,M,M,M,M,M,M,M,M,M,M,KCIC 051849Z 30023KT 80SM SKC A3021,M
CIC,1997-01-05 19:46,M,M,M,300.00,24.00,M,30.19,M,80.00,M,CLR,   ,   ,   ,M,M,M,M,M,M,M,M,M,M,M,M,KCIC 051946Z 30024KT 80SM SKC A3019,M
CIC,1997-01-05 20:46,M,M,M,300.00,22.00,M,30.18,M,80.00,M,CLR,   ,   ,   ,M,M,M,M,M,M,M,M,M,M,M,M,KCIC 052046Z 30022KT 80SM SKC A3018,M
CIC,1997-01-05 21:45,M,M,M,310.00,27.00,M,30.18,M,80.00,M,FEW,   ,   ,   ,4000.00,M,M,M,M,M,M,M,M,M,M,M,KCIC 052145Z 31027KT 80SM FEW040 A3018,M
CIC,1997-01-05 22:51,M,M,M,340.00,11.00,M,30.21,M,80.00,M,FEW,   ,   ,   ,4000.00,M,M,M,M,M,M,M,M,M,M,M,KCIC 052251Z 34011KT 80SM FEW040 A3021,M
CIC,1997-01-05 23:46,M,M,M,360.00,11.00,M,30.23,M,80.00,M,FEW,   ,   ,   ,4000.00,M,M,M,M,M,M,M,M,M,M,M,KCIC 052346Z 36011KT 80SM FEW040 A3023,M
CIC,1997-01-06 01:47,M,M,M,330.00,10.00,M,30.29,M,80.00,M,CLR,   ,   ,   ,M,M,M,M,M,M,M,M,M,M,M,M,KCIC 060147Z 33010KT 80SM SKC A3029,M
CIC,1997-01-06 02:46,M,M,M,320.00,10.00,M,30.32,M,80.00,M,CLR,   ,   ,   ,M,M,M,M,M,M,M,M,M,M,M,M,KCIC 060246Z 32010KT 80SM SKC A3032,M
CIC,1997-01-06 14:50,M,M,M,310.00,4.00,M,30.48,M,40.00,M,CLR,   ,   ,   ,M,M,M,M,M,M,M,M,M,M,M,M,KCIC 061450Z 31004KT 40SM SKC A3048,M
CIC,1997-01-06 15:45,M,M,M,0.00,0.00,M,30.48,M,80.00,M,CLR,   ,   ,   ,M,M,M,M,M,M,M,M,M,M,M,M,KCIC 061545Z 00000KT 80SM SKC A3048,M
CIC,1997-01-06 16:46,M,M,M,0.00,0.00,M,30.48,M,80.00,M,CLR,   ,   ,   ,M,M,M,M,M,M,M,M,M,M,M,M,KCIC 061646Z 00000KT 80SM SKC A3048,M
CIC,1997-01-06 17:45,M,M,M,320.00,9.00,M,30.49,M,80.00,M,FEW,   ,   ,   ,10000.00,M,M,M,M,M,M,M,M,M,M,M,KCIC 061745Z 32009KT 80SM FEW100 A3049,M
CIC,1997-01-06 18:45,M,M,M,300.00,13.00,M,30.48,M,80.00,M,FEW,   ,   ,   ,10000.00,M,M,M,M,M,M,M,M,M,M,M,KCIC 061845Z 30013KT 80SM FEW100 A3048,M
CIC,1997-01-06 19:52,M,M,M,300.00,12.00,M,30.45,M,80.00,M,FEW,   ,   ,   ,10000.00,M,M,M,M,M,M,M,M,M,M,M,KCIC 061952Z 30012KT 80SM FEW100 A3045,M
CIC,1997-01-06 20:46,53.60,30.20,40.54,300.00,15.00,M,30.36,M,40.00,M,SCT,   ,   ,   ,20000.00,M,M,M,M,M,M,M,M,M,M,53.60,KCIC 062046Z 30015KT 40SM SCT200 12/-01 A3036,M
CIC,1997-01-06 21:45,M,M,M,310.00,10.00,M,30.39,M,80.00,M,FEW,   ,   ,   ,20000.00,M,M,M,M,M,M,M,M,M,M,M,KCIC 062145Z 31010KT 80SM FEW200 A3039,M
CIC,1997-01-06 22:46,M,M,M,290.00,13.00,M,30.38,M,80.00,M,FEW,   ,   ,   ,20000.00,M,M,M,M,M,M,M,M,M,M,M,KCIC 062246Z 29013KT 80SM FEW200 A3038,M
CIC,1997-01-06 23:48,M,M,M,290.00,7.00,M,30.38,M,80.00,M,FEW,   ,   ,   ,20000.00,M,M,M,M,M,M,M,M,M,M,M,KCIC 062348Z 29007KT 80SM FEW200 A3038,M
CIC,1997-01-07 00:46,M,M,M,310.00,7.00,M,30.38,M,80.00,M,FEW,   ,   ,   ,20000.00,M,M,M,M,M,M,M,M,M,M,M,KCIC 070046Z 31007KT 80SM FEW200 A3038,M
CIC,1997-01-07 01:49,M,M,M,360.00,4.00,M,30.37,M,80.00,M,FEW,   ,   ,   ,20000.00,M,M,M,M,M,M,M,M,M,M,M,KCIC 070149Z 36004KT 80SM FEW200 A3037,M
CIC,1997-01-07 14:50,M,M,M,340.00,4.00,M,30.32,M,40.00,M,SCT,   ,   ,   ,15000.00,M,M,M,M,M,M,M,M,M,M,M,KCIC 071450Z 34004KT 40SM SCT150 A3032,M
CIC,1997-01-07 15:49,M,M,M,320.00,6.00,M,30.33,M,80.00,M,SCT,   ,   ,   ,20000.00,M,M,M,M,M,M,M,M,M,M,M,KCIC 071549Z 32006KT 80SM SCT200 A3033,M
CIC,1997-01-07 18:47,M,M,M,310.00,14.00,M,30.34,M,80.00,M,SCT,   ,   ,   ,20000.00,M,M,M,M,M,M,M,M,M,M,M,KCIC 071847Z 31014KT 80SM SCT200 A3034,M
CIC,1997-01-07 19:48,M,M,M,310.00,12.00,M,30.33,M,80.00,M,SCT,   ,   ,   ,20000.00,M,M,M,M,M,M,M,M,M,M,M,KCIC 071948Z 31012KT 80SM SCT200 A3033,M
CIC,1997-01-07 20:52,M,M,M,310.00,11.00,M,30.28,M,80.00,M,SCT,   ,   ,   ,20000.00,M,M,M,M,M,M,M,M,M,M,M,KCIC 072052Z 31011KT 80SM SCT200 A3028,M
CIC,1997-01-07 21:46,M,M,M,300.00,11.00,M,30.28,M,80.00,M,FEW,   ,   ,   ,20000.00,M,M,M,M,M,M,M,M,M,M,M,KCIC 072146Z 30011KT 80SM FEW200 A3028,M
CIC,1997-01-07 22:48,M,M,M,320.00,10.00,M,30.26,M,80.00,M,CLR,   ,   ,   ,M,M,M,M,M,M,M,M,M,M,M,M,KCIC 072248Z 32010KT 80SM SKC A3026,M
CIC,1997-01-07 23:45,M,M,M,330.00,9.00,M,30.25,M,80.00,M,CLR,   ,   ,   ,M,M,M,M,M,M,M,M,M,M,M,M,KCIC 072345Z 33009KT 80SM SKC A3025,M
CIC,1997-01-08 00:51,M,M,M,330.00,7.00,M,30.25,M,80.00,M,CLR,   ,   ,   ,M,M,M,M,M,M,M,M,M,M,M,M,KCIC 080051Z 33007KT 80SM SKC A3025,M
CIC,1997-01-08 01:46,M,M,M,330.00,4.00,M,30.25,M,60.00,M,CLR,   ,   ,   ,M,M,M,M,M,M,M,M,M,M,M,M,KCIC 080146Z 33004KT 60SM SKC A3025,M
CIC,1997-01-08 02:47,M,M,M,0.00,0.00,M,30.26,M,30.00,M,CLR,   ,   ,   ,M,M,M,M,M,M,M,M,M,M,M,M,KCIC 080247Z 00000KT 30SM SKC A3026 RMK LAST,M
CIC,1997-01-08 14:46,M,M,M,40.00,5.00,M,30.29,M,20.00,M,SCT,   ,   ,   ,20000.00,M,M,M,M,M,M,M,M,M,M,M,KCIC 081446Z 04005KT 20SM SCT200 A3029,M
CIC,1997-01-08 16:46,M,M,M,90.00,70.00,M,30.31,M,20.00,M,OVC,   ,   ,   ,20000.00,M,M,M,M,M,M,M,M,M,M,M,KCIC 081646Z 09070KT 20SM OVC200 A3031,M
CIC,1997-01-08 17:46,M,M,M,120.00,10.00,M,30.33,M,20.00,M,OVC,   ,   ,   ,20000.00,M,M,M,M,M,M,M,M,M,M,M,KCIC 081746Z 12010KT 20SM OVC200 A3033,M
CIC,1997-01-08 18:46,M,M,M,120.00,9.00,M,30.34,M,15.00,M,OVC,   ,   ,   ,20000.00,M,M,M,M,M,M,M,M,M,M,M,KCIC 081846Z 12009KT 15SM OVC200 A3034,M
CIC,1997-01-08 19:49,M,M,M,120.00,7.00,M,30.31,M,10.00,M,OVC,   ,   ,   ,20000.00,M,M,M,M,M,M,M,M,M,M,M,KCIC 081949Z 12007KT 10SM OVC200 3031 RMK HAZY,M
CIC,1997-01-08 20:47,M,M,M,140.00,6.00,M,30.28,M,10.00,M,OVC,   ,   ,   ,20000.00,M,M,M,M,M,M,M,M,M,M,M,KCIC 082047Z 14006KT 10SM OVC200 A3028,M
CIC,1997-01-08 21:47,M,M,M,0.00,0.00,M,30.27,M,10.00,M,OVC,   ,   ,   ,20000.00,M,M,M,M,M,M,M,M,M,M,M,KCIC 082147Z 00000KT 10SM OVC200 A3027 RMK HAZY,M
CIC,1997-01-08 22:45,M,M,M,0.00,0.00,M,30.27,M,10.00,M,OVC,   ,   ,   ,20000.00,M,M,M,M,M,M,M,M,M,M,M,KCIC 082245Z 00000KT 10SM OVC200 A3027 RMK HZ,M
CIC,1997-01-09 00:47,M,M,M,130.00,6.00,M,30.27,M,10.00,M,   ,   ,   ,   ,M,M,M,M,M,M,M,M,M,M,M,M,KCIC 090047Z 13006KT 10SM FEW070 BKN200 A3027 RM HAZY,M
CIC,1997-01-09 01:45,M,M,M,0.00,0.00,M,30.29,M,10.00,M,FEW,   ,   ,   ,7000.00,M,M,M,M,M,M,M,M,M,M,M,KCIC 090145Z 00000KT 10SM FEW070 A3029 RMK HAZY,M
CIC,1997-01-09 02:48,M,M,M,0.00,0.00,M,30.29,M,10.00,M,FEW,   ,   ,   ,7000.00,M,M,M,M,M,M,M,M,M,M,M,KCIC 090248Z 00000KT 10SM FEW070 A3029 RMK HAZY LAST,M
CIC,1997-01-09 14:53,M,M,M,0.00,0.00,M,30.32,M,10.00,M,SCT,   ,   ,   ,15000.00,M,M,M,M,M,M,M,M,M,M,M,KCIC 091453Z 00000KT 10SM SCT150 A3032,M
CIC,1997-01-09 15:47,M,M,M,150.00,4.00,M,30.33,M,7.00,M,SCT,   ,   ,   ,15000.00,M,M,M,M,M,M,M,M,M,M,M,KCIC 091547Z 15004KT 7SM SCT150 A3033,M
CIC,1997-01-09 17:47,M,M,M,150.00,5.00,M,30.35,M,4.00,M,BKN,   ,   ,   ,15000.00,M,M,M,HZ,M,M,M,M,M,M,M,KCIC 091747Z 15005KT 4SM HZ BKN150 A3035,M
CIC,1997-01-09 18:55,M,M,M,130.00,4.00,M,30.36,M,4.00,M,BKN,   ,   ,   ,15000.00,M,M,M,HZ,M,M,M,M,M,M,M,KCIC 091855Z 13004KT 4SM HZ BKN150 A3036,M
CIC,1997-01-09 20:46,M,M,M,240.00,6.00,M,30.30,M,4.00,M,OVC,   ,   ,   ,15000.00,M,M,M,HZ,M,M,M,M,M,M,M,KCIC 092046Z 24006KT 4SM HZ OVC150 A3030,M
CIC,1997-01-09 23:51,M,M,M,190.00,8.00,M,30.28,M,4.00,M,OVC,   ,   ,   ,15000.00,M,M,M,HZ,M,M,M,M,M,M,M,KCIC 092351Z 19008KT 4SM HZ OVC150 A3028,M
