station,valid,tmpf,dwpf,relh,drct,sknt,p01i,alti,mslp,vsby,gust,skyc1,skyc2,skyc3,skyc4,skyl1,skyl2,skyl3,skyl4,wxcodes,ice_accretion_1hr,ice_accretion_3hr,ice_accretion_6hr,peak_wind_gust,peak_wind_drct,peak_wind_time,feel,metar,snowdepth
MYV,1996-12-20 15:47,37.40,37.40,100.00,100.00,6.00,M,30.18,M,0.25,M,VV ,   ,   ,   ,100.00,M,M,M,FG,M,M,M,M,M,M,32.03,KMYV 201547Z 10006KT 1/4SM FG VV001 03/03 A3018 RMK S,M
MYV,1996-12-20 16:48,37.40,37.40,100.00,80.00,6.00,M,30.19,1022.40,0.50,M,VV ,   ,   ,   ,200.00,M,M,M,FG,M,M,M,M,M,M,32.03,KMYV 201648Z COR 08006KT 1/2SM FG VV002 03/03 A3019 RMK SLP224,M
MYV,1996-12-20 17:51,37.40,35.60,93.14,140.00,8.00,M,30.19,1022.40,1.00,M,VV ,   ,   ,   ,400.00,M,M,M,BR,M,M,M,M,M,M,30.76,KMYV 201751Z 14008KT 1SM BR VV004 03/02 A3019 RMK SLP224 50003 20026,M
MYV,1996-12-20 18:48,37.40,35.60,93.14,130.00,8.00,M,30.16,1021.30,0.75,M,VV ,   ,   ,   ,300.00,M,M,M,BR,M,M,M,M,M,M,30.76,KMYV 201848Z 13008KT 3/4SM BR VV003 03/02 A3016 RMK SLP213,M
MYV,1996-12-20 19:47,39.20,37.40,93.19,130.00,6.00,M,30.14,1020.70,1.00,M,VV ,   ,   ,   ,400.00,M,M,M,BR,M,M,M,M,M,M,34.20,KMYV 201947Z 13006KT 1SM BR VV004 04/03 A3014 RMK SLP207,M
MYV,1996-12-20 20:49,39.20,37.40,93.19,130.00,11.00,M,30.09,1019.00,0.50,M,VV ,   ,   ,   ,200.00,M,M,M,FG,M,M,M,M,M,M,31.57,KMYV 202049Z 13011KT 1/2SM FG VV002 04/03 A3009 RMK SLP190 57034,M
MYV,1996-12-20 21:47,39.20,37.40,93.19,120.00,10.00,M,30.05,1017.30,1.00,M,VV ,   ,   ,   ,400.00,M,M,M,BR,M,M,M,M,M,M,32.00,KMYV 202147Z 12010KT 1SM BR VV004 04/03 A3005 RMK SLP173,M
MYV,1996-12-20 22:50,41.00,37.40,86.89,130.00,13.00,M,30.01,1016.30,1.50,M,VV ,   ,   ,   ,400.00,M,M,M,BR,M,M,M,M,M,M,33.10,KMYV 202250Z 13013KT 11/2SM BR VV004 05/03 A3001 RMK SLP163,M
MYV,1996-12-20 23:51,41.00,39.20,93.24,150.00,10.00,M,30.00,1015.80,1.00,M,VV ,   ,   ,   ,400.00,M,M,M,BR,M,M,M,M,M,M,34.25,KMYV 202351Z 15010KT 1SM BR VV004 05/04 A3000 RMK SLP158 57030 10053,M
MYV,1996-12-21 16:48,46.40,44.60,93.40,160.00,17.00,M,29.69,1005.40,3.00,22.00,BKN,OVC,   ,   ,500.00,2000.00,M,M,BR,M,M,M,M,M,M,38.94,KMYV 211648Z 16017G22KT 3SM BR BKN005 OVC020 08/07 A2969 RMK SLP054,M
MYV,1996-12-21 19:46,M,M,M,180.00,9.04,M,M,M,3.00,M,   ,   ,   ,   ,M,M,M,M,M,M,M,M,M,M,M,M,KMYV 211946Z 17009KT 3SM RABR BKN006 BKN0 ?????Y9!??,M
MYV,1996-12-21 23:54,46.40,44.60,93.40,180.00,10.00,M,29.62,1003.10,3.00,M,SCT,OVC,   ,   ,600.00,1000.00,M,M,RABR,M,M,M,M,M,M,41.03,KMYV 212354Z 18010KT 3SM RABR SCT006 OVC010 08/07 A2962 RMK SLP031 55010 10086 70087,M
MYV,1996-12-22 00:52,46.40,44.60,93.40,160.00,8.00,M,29.60,1002.40,3.00,M,SCT,OVC,   ,   ,600.00,1000.00,M,M,RABR,M,M,M,M,M,M,41.85,KMYV 220052Z 16008KT 3SM RABR SCT006 OVC010 08/07 A2960 RMK SLP024 LAST,M
MYV,1996-12-22 15:54,46.40,42.80,87.19,150.00,13.00,M,29.66,1004.40,8.00,M,FEW,SCT,OVC,   ,2000.00,6000.00,15000.00,M,M,M,M,M,M,M,M,40.02,KMYV 221554Z 15013KT 8SM FEW020 SCT060 OVC150 08/06 A2966 RMK SLP044,M
MYV,1996-12-22 16:52,48.20,44.60,87.28,140.00,19.00,M,29.67,1004.70,10.00,M,FEW,SCT,OVC,   ,1000.00,2000.00,6000.00,M,M,M,M,M,M,M,M,40.86,KMYV 221652Z 14019KT 10SM FEW010 SCT020 OVC060 09/07 A2967 RMK SLP047,M
MYV,1996-12-22 17:50,48.20,44.60,87.28,160.00,18.00,M,29.68,1005.10,3.00,23.00,FEW,BKN,OVC,   ,500.00,1000.00,3000.00,M,RABR,M,M,M,M,M,M,41.07,KMYV 221750Z 16018G23KT 3SM RABR FEW005 BKN010 OVC030 09/07 A2968 RMK RAB11 SLP051 51010 20068,M
MYV,1996-12-22 18:48,48.20,44.60,87.28,150.00,24.00,M,29.70,1005.70,15.00,29.00,BKN,OVC,   ,   ,1000.00,3000.00,M,M,M,M,M,M,M,M,M,39.91,KMYV 221848Z 15024G29KT 15SM BKN010 OVC030 09/07 A2970 RMK RAE26 SLP057,M
MYV,1996-12-22 19:57,48.20,44.60,87.28,190.00,19.44,M,29.65,1004.10,10.00,38.88,SCT,BKN,OVC,   ,800.00,1000.00,3000.00,M,RA,M,M,M,M,M,M,40.77,KMYV 221957Z 19010G20 10SM RA SCT008 BKN010 OVC030 09/07 A2965 RMK BINOVC SLP041,M
MYV,1996-12-22 21:48,55.40,41.00,58.27,220.00,20.00,M,29.71,1006.10,35.00,M,FEW,SCT,   ,   ,2500.00,6000.00,M,M,M,M,M,M,M,M,M,55.40,KMYV 222148Z 22020KT 35SM FEW025 SCT060 13/05 A2971 RMK SLP061,M
MYV,1996-12-22 23:52,53.60,41.00,62.23,180.00,10.00,M,29.84,1010.50,40.00,M,SCT,   ,   ,   ,2500.00,M,M,M,M,M,M,M,M,M,M,53.60,KMYV 222352Z 18010KT 40SM SCT025 12/05 A2984 RMK SLP105 53047 10128,M
MYV,1996-12-23 00:48,50.00,39.20,66.27,200.00,9.00,M,29.88,1011.90,40.00,M,FEW,   ,   ,   ,2500.00,M,M,M,M,M,M,M,M,M,M,45.90,KMYV 230048Z 20009KT 40SM FEW025 10/04 A2988 RMK SLP119 LAST,M
MYV,1996-12-23 15:55,46.40,42.80,87.19,140.00,10.00,M,30.33,1027.10,15.00,M,FEW,SCT,OVC,   ,1000.00,5000.00,15000.00,M,M,M,M,M,M,M,M,41.03,KMYV 231555Z 14010KT 15SM FEW010 SCT050 OVC150 08/06 A3033 RMK SLP271,M
MYV,1996-12-23 16:55,48.20,42.80,81.47,140.00,10.00,M,30.36,1028.10,15.00,M,FEW,SCT,BKN,   ,1000.00,2500.00,18000.00,M,M,M,M,M,M,M,M,43.28,KMYV 231655Z 14010KT 15SM FEW010 SCT025 BKN180 09/06 A3036 RMK MTNS OBSCD E SLP281,M
MYV,1996-12-23 17:55,51.80,44.60,76.34,140.00,10.00,M,30.40,1029.50,15.00,M,FEW,SCT,BKN,   ,2000.00,3000.00,20000.00,M,M,M,M,M,M,M,M,51.80,KMYV 231755Z 14010KT 15SM FEW020 SCT030 BKN200 11/07 A3040 RMK MTNS OBSCD E SLP295 520034 20067,M
MYV,1996-12-23 18:54,53.60,44.60,71.45,140.00,12.00,M,30.42,1030.20,15.00,M,FEW,SCT,SCT,   ,2000.00,4000.00,20000.00,M,M,M,M,M,M,M,M,53.60,KMYV 231854Z 14012KT 15SM FEW020 SCT040 SCT200 12/07 A3042 RMK SLP302,M
MYV,1996-12-23 19:51,55.40,44.60,66.91,150.00,10.00,M,30.41,1029.80,25.00,M,FEW,SCT,SCT,   ,2000.00,5000.00,25000.00,M,M,M,M,M,M,M,M,55.40,KMYV 231951Z 15010KT 25SM FEW020 SCT050 SCT250 13/07 A3041 RMK SLP298,M
MYV,1996-12-23 20:52,57.20,46.40,67.12,150.00,10.00,M,30.40,M,25.00,M,   ,   ,   ,   ,M,M,M,M,M,M,M,M,M,M,M,57.20,KMYV 232052Z 15010KT 25SM SCT030 BKN250 14/08 A3040 SLP295 50000,M
MYV,1996-12-23 21:48,59.00,44.60,58.77,M,4.00,M,30.40,1029.50,25.00,M,SCT,BKN,   ,   ,3500.00,25000.00,M,M,M,M,M,M,M,M,M,59.00,KMYV 232148Z VRB04KT 25SM SCT035 BKN250 15/07 A3040 RMK SLP295,M
MYV,1996-12-23 22:55,59.00,42.80,54.86,160.00,7.00,M,30.40,1029.50,25.00,M,SCT,BKN,   ,   ,4000.00,25000.00,M,M,M,M,M,M,M,M,M,59.00,KMYV 232255Z 16007KT 25SM SCT040 BKN250 15/06 A3040 RMK SLP295,M
MYV,1996-12-23 23:50,57.20,41.00,54.60,M,4.00,M,30.40,1029.50,25.00,M,SCT,BKN,   ,   ,5000.00,25000.00,M,M,M,M,M,M,M,M,M,57.20,KMYV 232350Z VRB04KT 25SM SCT050 BKN250 14/05 A3040 RMK SLP295 54000 10156,M
MYV,1996-12-24 00:45,53.60,41.00,62.23,0.00,0.00,M,30.40,1029.50,25.00,M,FEW,SCT,   ,   ,6000.00,25000.00,M,M,M,M,M,M,M,M,M,53.60,KMYV 240045Z 00000KT 25SM FEW060 SCT250 12/05 A3040 RMK SLP295 LAST,M
MYV,1996-12-24 15:53,37.40,37.40,100.00,350.00,5.00,M,30.39,1029.10,35.00,M,SCT,BKN,   ,   ,20000.00,25000.00,M,M,M,M,M,M,M,M,M,32.81,KMYV 241553Z 35005KT 35SM SCT200 BKN250 03/03 A3039 RMK SLP291,M
MYV,1996-12-24 16:58,41.00,39.20,93.24,350.00,5.00,M,30.40,1029.50,35.00,M,SCT,BKN,   ,   ,20000.00,25000.00,M,M,M,M,M,M,M,M,M,37.08,KMYV 241658Z 35005KT 35SM SCT200 BKN250 05/04 A3040 RMK SLP295,M
MYV,1996-12-24 17:55,41.00,39.20,93.24,340.00,7.00,M,30.40,1029.50,35.00,M,SCT,BKN,   ,   ,20000.00,25000.00,M,M,M,M,M,M,M,M,M,35.75,KMYV 241755Z 34007KT 35SM SCT200 BKN250 05/04 A3040 RMK FG BNK E SLP295 54000 20019,M
MYV,1996-12-24 18:55,46.40,39.20,75.84,330.00,5.00,M,30.39,1029.10,35.00,M,SCT,BKN,   ,   ,20000.00,25000.00,M,M,M,M,M,M,M,M,M,43.50,KMYV 241855Z 33005KT 35SM SCT200 BKN250 08/04 A3039 RMK SLP291,M
MYV,1996-12-24 19:52,50.00,37.40,61.76,320.00,5.00,M,30.36,1028.10,65.00,M,SCT,BKN,   ,   ,20000.00,25000.00,M,M,M,M,M,M,M,M,M,47.77,KMYV 241952Z 32005KT 65SM SCT200 BKN250 10/03 A3036 RMK SLP281,M
MYV,1996-12-24 21:50,51.80,39.20,61.99,320.00,5.00,M,30.30,1026.10,65.00,M,OVC,   ,   ,   ,25000.00,M,M,M,M,M,M,M,M,M,M,51.80,KMYV 242150Z 32005KT 65SM OVC250 11/04 A3030 RMK SLP261,M
MYV,1996-12-24 22:55,51.80,39.20,61.99,M,5.00,M,30.29,1025.70,65.00,M,OVC,   ,   ,   ,25000.00,M,M,M,M,M,M,M,M,M,M,51.80,KMYV 242255Z VRB05KT 65SM OVC250 11/04 A3029 RMK SLP257,M
MYV,1996-12-24 23:54,51.80,39.20,61.99,0.00,0.00,M,30.27,1025.00,65.00,M,OVC,   ,   ,   ,25000.00,M,M,M,M,M,M,M,M,M,M,51.80,KMYV 242354Z 00000KT 65SM OVC250 11/04 A3027 RMK SLP250 57017 10120,M
MYV,1996-12-25 00:45,48.20,39.20,70.88,0.00,0.00,M,30.26,1024.70,35.00,M,BKN,   ,   ,   ,25000.00,M,M,M,M,M,M,M,M,M,M,48.20,KMYV 250045Z 00000KT 35SM BKN250 09/04 A3026 RMK SLP247 LAST,M
MYV,1996-12-25 15:03,32.00,32.00,100.00,0.00,0.00,M,30.16,1021.30,15.00,M,CLR,   ,   ,   ,M,M,M,M,M,M,M,M,M,M,M,32.00,KMYV 251503Z 00000KT 15SM SKC 00/00 A3016 RMK SLP213 401200000,M
MYV,1996-12-25 15:49,33.80,32.00,93.03,130.00,5.00,M,30.15,1021.00,40.00,M,CLR,   ,   ,   ,M,M,M,M,M,M,M,M,M,M,M,28.53,KMYV 251549Z 13005KT 40SM SKC 01/00 A3015 RMK SLP210,M
MYV,1996-12-25 16:48,39.20,37.40,93.19,M,4.00,M,30.16,1021.30,40.00,M,CLR,   ,   ,   ,M,M,M,M,M,M,M,M,M,M,M,35.83,KMYV 251648Z VRB04KT 40SM SKC 04/03 A3016 RMK SLP213,M
MYV,1996-12-25 17:51,44.60,39.20,81.20,0.00,0.00,M,30.16,1021.30,40.00,M,FEW,   ,   ,   ,18000.00,M,M,M,M,M,M,M,M,M,M,44.60,KMYV 251751Z 00000KT 40SM FEW180 07/04 A3016 RMK SLP213 50000 20000,M
MYV,1996-12-25 18:48,51.80,39.20,61.99,240.00,7.00,M,30.15,1021.00,40.00,M,SCT,   ,   ,   ,18000.00,M,M,M,M,M,M,M,M,M,M,51.80,KMYV 251848Z 24007KT 40SM SCT180 11/04 A3015 RMK SLP210,M
MYV,1996-12-25 19:47,51.80,41.00,66.48,250.00,5.00,M,30.16,1021.30,M,M,SCT,   ,   ,   ,18000.00,M,M,M,M,M,M,M,M,M,M,51.80,KMYV 251947Z 25005KT SCT180 11/05 A3016 RMK SLP213,M
MYV,1996-12-25 20:51,51.80,39.20,61.99,180.00,4.00,M,30.08,1018.70,M,M,BKN,   ,   ,   ,18000.00,M,M,M,M,M,M,M,M,M,M,51.80,KMYV 252051Z 18004KT BKN180 11/04 A3008 RMK SLP187,M
MYV,1996-12-25 21:47,51.80,41.00,66.48,126.00,5.00,M,30.05,1017.60,M,M,BKN,   ,   ,   ,18000.00,M,M,M,M,M,M,M,M,M,M,51.80,KMYV 252147Z 126005T BKN180 11/05 A3005 RMK SLP176,M
MYV,1996-12-25 22:51,M,M,M,180.00,5.04,M,M,M,20.00,M,   ,   ,   ,   ,M,M,M,M,M,M,M,M,M,M,M,M,KMYV 252251Z 19005KT 20SM BKN180 11/}????Y}D???F?6!??S0?O},M
MYV,1996-12-25 23:51,51.80,42.80,71.26,220.00,5.00,M,30.03,1016.90,15.00,M,BKN,   ,   ,   ,18000.00,M,M,M,M,M,M,M,M,M,M,51.80,KMYV 252351Z 22005KT 15SM BKN180 11/06 A3003 RMK SLP169 57017 10125,M
MYV,1996-12-26 15:47,44.60,42.80,93.35,130.00,10.00,M,29.87,1011.50,2.00,M,OVC,   ,   ,   ,500.00,M,M,M,-RA BR,M,M,M,M,M,M,38.77,KMYV 261547Z 13010KT 2SM -RA BR OVC005 07/06 A2987 RMK SLP115,M
MYV,1996-12-26 16:49,44.60,42.80,93.35,140.00,12.00,M,29.86,1011.20,1.50,M,OVC,   ,   ,   ,500.00,M,M,M,-RA BR,M,M,M,M,M,M,38.04,KMYV 261649Z 14012KT 1 1/2SM -RA BR OVC005 07/06 A2986 RMK SLP112,M
MYV,1996-12-26 17:51,46.40,44.60,93.40,150.00,10.00,M,29.86,1011.20,1.50,M,OVC,   ,   ,   ,500.00,M,M,M,-RA BR,M,M,M,M,M,M,41.03,KMYV 261751Z 15010KT 1 1/2SM -RA BR OVC005 08/07 A2986 RMK SLP112 56007 20063,M
MYV,1996-12-26 20:49,46.40,46.40,100.00,170.00,12.00,M,29.76,1007.80,1.00,M,OVC,   ,   ,   ,400.00,M,M,M,RA BR,M,M,M,M,M,M,40.33,KMYV 262049Z 17012KT 1SM RA BR OVC004 08/08 A2976 RMK SLP078 57034,M
MYV,1996-12-26 21:48,48.20,46.40,93.45,150.00,16.00,M,29.73,1006.80,4.00,M,BKN,OVC,   ,   ,500.00,1000.00,M,M,-RA BR,M,M,M,M,M,M,41.53,KMYV 262148Z 15016KT 4SM -RA BR BKN005 OVC010 09/08 A2973 RMK SLP068,M
MYV,1996-12-26 23:51,50.00,48.20,93.50,160.00,16.00,M,29.70,1005.70,3.00,M,BKN,OVC,   ,   ,300.00,600.00,M,M,-RA BR,M,M,M,M,M,M,43.88,KMYV 262351Z 16016KT 3SM RA- BR BKN003 OVC006 10/09 A2970 RMK SLP057 56020 10108 70035,M
MYV,1996-12-27 00:50,50.00,48.20,93.50,160.00,18.00,M,29.69,1005.40,1.00,25.00,BKN,OVC,   ,   ,300.00,600.00,M,M,-RA BR,M,M,M,M,M,M,43.44,KMYV 270050Z 16018G25KT 1SM -RA BR BKN003 OVC006 10/09 A2969 RMK SLP054 LAST,M
MYV,1996-12-27 15:47,50.00,48.20,93.50,140.00,14.00,M,29.84,1010.50,7.00,M,BKN,OVC,   ,   ,8000.00,12000.00,M,M,M,M,M,M,M,M,M,44.36,KMYV 271547Z 14014KT 7SM BKN080 OVC120 10/09 A2984 RMK SLP105 BINOVC,M
MYV,1996-12-27 16:48,51.80,48.20,87.47,140.00,14.00,M,29.86,1011.20,7.00,M,BKN,OVC,   ,   ,6000.00,10000.00,M,M,M,M,M,M,M,M,M,51.80,KMYV 271648Z 14014KT 7SM BKN060 OVC100 11/09 A2986 RMK SLP112,M
MYV,1996-12-27 17:51,51.80,48.20,87.47,140.00,14.00,M,29.87,1011.50,7.00,M,BKN,OVC,   ,   ,4000.00,10000.00,M,M,M,M,M,M,M,M,M,51.80,KMYV 271751Z 14014KT 7SM BKN040 OVC100 11/09 A2987 RMK SLP115 52014 20080,M
MYV,1996-12-27 18:48,53.60,50.00,87.56,150.00,17.00,M,29.88,1011.90,10.00,M,BKN,BKN,   ,   ,3000.00,8000.00,M,M,M,M,M,M,M,M,M,53.60,KMYV 271848Z 15017KT 10SM BKN030 BKN080 12/10 A2988 RMK SLP119,M
MYV,1996-12-27 19:47,55.40,50.00,81.99,140.00,18.00,M,29.88,1011.90,10.00,M,BKN,OVC,   ,   ,3000.00,8000.00,M,M,M,M,M,M,M,M,M,55.40,KMYV 271947Z 14018KT 10SM BKN030 OVC080 13/10 A2988 RMK SLP119,M
MYV,1996-12-27 20:50,55.40,50.00,81.99,150.00,12.00,M,29.88,1011.90,7.00,M,BKN,OVC,   ,   ,2000.00,6000.00,M,M,M,M,M,M,M,M,M,55.40,KMYV 272050Z 15012KT 7SM BKN020 OVC060 13/10 A2988 RMK SLP119 51003,M
MYV,1996-12-27 21:51,57.20,51.80,82.12,160.00,14.00,M,29.88,1011.90,7.00,M,BKN,OVC,   ,   ,2000.00,6000.00,M,M,M,M,M,M,M,M,M,57.20,KMYV 272151Z 16014KT 7SM BKN020 OVC060 14/11 A2988 RMK SLP119,M
MYV,1996-12-27 22:47,57.20,51.80,82.12,140.00,13.00,M,29.88,1011.90,10.00,M,BKN,BKN,   ,   ,2000.00,6000.00,M,M,M,M,M,M,M,M,M,57.20,KMYV 272247Z 14013KT 10SM BKN020 BKN060 14/11 A2988 RMK SLP119,M
MYV,1996-12-27 23:51,57.20,51.80,82.12,160.00,18.00,M,29.90,1012.50,10.00,M,BKN,BKN,   ,   ,2000.00,6000.00,M,M,M,M,M,M,M,M,M,57.20,KMYV 272351Z COR 16018KT 10SM BKN020 BKN060 14/11 A2990 RMK SLP125 53007 10140 70077,M
MYV,1996-12-28 00:50,55.40,51.80,87.65,140.00,10.00,M,29.91,1012.90,10.00,M,BKN,BKN,   ,   ,2000.00,6000.00,M,M,M,M,M,M,M,M,M,55.40,KMYV 280050Z 14010KT 10SM BKN020 BKN060 13/11 A2991 RMK SLP129 LAST,M
MYV,1996-12-28 15:47,53.60,50.00,87.56,150.00,13.00,M,30.04,1017.30,7.00,M,BKN,OVC,   ,   ,4000.00,8000.00,M,M,M,M,M,M,M,M,M,53.60,KMYV 281547Z 15013KT 7SM BKN040 OVC080 12/10 A3004 RMK SLP173,M
MYV,1996-12-28 16:48,53.60,50.00,87.56,150.00,11.00,M,30.06,1018.00,7.00,M,BKN,OVC,   ,   ,4000.00,8000.00,M,M,M,M,M,M,M,M,M,53.60,KMYV 281648Z 15011KT 7SM BKN040 OVC080 12/10 A3006 RMK SLP180,M
MYV,1996-12-28 17:51,53.60,50.00,87.56,140.00,12.00,M,30.08,1018.70,7.00,M,BKN,OVC,   ,   ,4000.00,8000.00,M,M,M,M,M,M,M,M,M,53.60,KMYV 281751Z 14012KT 7SM BKN040 OVC080 12/10 A3008 RMK SLP187 52017 20112,M
MYV,1996-12-28 18:48,55.40,51.80,87.65,150.00,10.00,M,30.09,1019.00,7.00,M,BKN,OVC,   ,   ,2000.00,4000.00,M,M,M,M,M,M,M,M,M,55.40,KMYV 281848Z 15010KT 7SM BKN020 OVC040 13/11 A3009 RMK SLP190,M
MYV,1996-12-28 19:47,57.20,51.80,82.12,160.00,12.00,M,30.07,1018.30,7.00,M,BKN,OVC,   ,   ,3000.00,6000.00,M,M,M,M,M,M,M,M,M,57.20,KMYV 281947Z 16012KT 7SM BKN030 OVC060 14/11 A3007 RMK SLP183,M
MYV,1996-12-28 20:48,57.20,51.80,82.12,160.00,11.00,M,30.05,1017.60,7.00,M,BKN,OVC,   ,   ,3000.00,6000.00,M,M,M,M,M,M,M,M,M,57.20,KMYV 282048Z 16011KT 7SM BKN030 OVC060 14/11 A3005 RMK SLP176 58010,M
MYV,1996-12-28 21:50,57.20,51.80,82.12,160.00,12.00,M,30.05,1017.60,7.00,M,BKN,OVC,   ,   ,3000.00,6000.00,M,M,M,M,M,M,M,M,M,57.20,KMYV 282150Z 16012KT 7SM BKN030 OVC060 14/11 A3005 RMK SLP176,M
MYV,1996-12-28 22:48,57.20,51.80,82.12,160.00,11.00,M,30.06,1018.00,7.00,M,BKN,OVC,   ,   ,3000.00,6000.00,M,M,M,M,M,M,M,M,M,57.20,KMYV 282248Z 16011KT 7SM BKN030 OVC060 14/11 A3006 RMK SLP180,M
MYV,1996-12-28 23:51,57.20,51.80,82.12,160.00,15.00,M,30.05,1017.60,7.00,M,BKN,OVC,   ,   ,3000.00,6000.00,M,M,M,M,M,M,M,M,M,57.20,KMYV 282351Z 16015KT 7SM BKN030 OVC060 14/11 A3005 RMK SLP176 50000 10142,M
MYV,1996-12-29 00:50,55.40,50.00,81.99,160.00,12.00,M,30.06,1018.00,5.00,M,BKN,OVC,   ,   ,3000.00,6000.00,M,M,-RA,M,M,M,M,M,M,55.40,KMYV 290050Z 16012KT 5SM -RA BKN030 OVC060 13/10 A3006 RMK SLP180 RAB27 LAST,M
MYV,1996-12-29 15:47,57.20,46.40,67.12,140.00,16.00,M,29.91,1012.90,15.00,25.00,OVC,   ,   ,   ,4000.00,M,M,M,M,M,M,M,M,M,M,57.20,KMYV 291547Z 14016G25KT 15SM OVC040 14/08 A2991 RMK SLP129,M
MYV,1996-12-29 17:51,55.40,48.20,76.66,160.00,19.00,M,29.89,1012.20,4.00,28.00,OVC,   ,   ,   ,3000.00,M,M,M,RA BR,M,M,M,M,M,M,55.40,KMYV 291751Z 16019G28KT 4SM RA BR OVC030 13/09 A2989 RMK SLP122 57014 20121,M
MYV,1996-12-29 18:48,55.40,50.00,81.99,160.00,13.00,M,29.91,1012.90,3.00,21.00,OVC,   ,   ,   ,3000.00,M,M,M,-RA BR,M,M,M,M,M,M,55.40,KMYV 291848Z 16013G21KT 3SM -RA BR OVC030 13/10 A2991 RMK SLP129,M
MYV,1996-12-29 19:55,55.40,50.00,81.99,150.00,20.00,M,29.88,1011.90,3.00,30.00,OVC,   ,   ,   ,2500.00,M,M,M,RA BR,M,M,M,M,M,M,55.40,KMYV 291955Z 15020G30KT 3SM RA BR OVC025 13/10 A2988 RMK SLP119,M
MYV,1996-12-29 20:50,55.40,50.00,81.99,150.00,22.00,M,29.90,1012.50,3.00,30.00,OVC,   ,   ,   ,2500.00,M,M,M,-RA BR,M,M,M,M,M,M,55.40,KMYV 292050Z 15022G30KT 3SM -RA BR OVC025 13/10 A2990 RMK SLP125 50003,M
MYV,1996-12-29 22:50,55.40,51.80,87.65,150.00,20.00,M,29.92,1013.20,2.50,30.00,OVC,   ,   ,   ,2000.00,M,M,M,RA BR,M,M,M,M,M,M,55.40,KMYV 292250Z 15020G30KT 2 1/2SM RA BR OVC020 13/11 A2992 RMK SLP132,M
MYV,1996-12-29 23:55,55.40,51.80,87.65,160.00,25.00,M,29.94,1013.90,7.00,M,BKN,OVC,   ,   ,1000.00,2500.00,M,M,-RA,M,M,M,M,M,M,55.40,KMYV 292355Z 16025KT 7SM -RA BKN010 OVC025 13/11 A2994 RMK SLP139 52010 10145 70043,M
MYV,1996-12-30 15:55,57.20,55.40,93.69,140.00,18.00,M,29.88,1011.90,10.00,M,BKN,OVC,   ,   ,1000.00,1500.00,M,M,M,M,M,M,M,M,M,57.20,KMYV 301555Z 14018KT 10SM BKN010 OVC015 14/13 A2988 RMK RAE30 SLP119,M
MYV,1996-12-30 16:55,59.00,55.40,87.83,160.00,23.00,M,29.89,1012.20,15.00,M,BKN,OVC,   ,   ,1000.00,3500.00,M,M,M,M,M,M,M,M,M,59.00,KMYV 301655Z 16023KT 15SM BKN010 OVC035 15/13 A2989 RMK SLP122,M
MYV,1996-12-30 17:58,59.00,55.40,87.83,140.00,20.00,M,29.90,1012.50,12.00,M,BKN,OVC,   ,   ,1000.00,3500.00,M,M,M,M,M,M,M,M,M,59.00,KMYV 301758Z 14020KT 12SM BKN010 OVC035 15/13 A2990 RMK SLP125 5300020121,M
MYV,1996-12-30 18:57,59.00,57.20,93.74,140.00,22.00,M,29.88,1011.90,5.00,M,BKN,OVC,   ,   ,1000.00,2000.00,M,M,-RA,M,M,M,M,M,M,59.00,KMYV 301857Z 14022KT 5SM -RA BKN010 OVC020 15/14 A2988 RMK RAB45 SLP119,M
MYV,1996-12-30 19:53,60.80,57.20,87.92,140.00,20.00,M,29.86,1011.20,15.00,29.00,BKN,OVC,   ,   ,1000.00,2000.00,M,M,M,M,M,M,M,M,M,60.80,KMYV 301953Z 14020G29KT 15SM BKN010 OVC020 16/14 A2986 RMK RAE30 SLP112,M
MYV,1996-12-30 20:45,60.80,57.20,87.92,140.00,20.00,M,29.85,1010.80,15.00,M,BKN,OVC,   ,   ,1000.00,2000.00,M,M,-RA,M,M,M,M,M,M,60.80,KMYV 302045Z 14020KT 15SM -RA BKN010 OVC020 16/14 A2985 RMK RAB26 SLP108 57017,M
MYV,1996-12-30 21:50,59.00,57.20,93.74,140.00,23.00,M,29.82,M,5.00,32.00,   ,   ,   ,   ,M,M,M,M,M,M,M,M,M,M,M,59.00,KMYV 302150Z 14023G32KT 5SM RA SCT005 BKN010 OVC020 15/14 A2982 SLP098,M
MYV,1996-12-30 22:58,59.00,57.20,93.74,140.00,25.04,M,29.82,M,15.00,M,   ,   ,   ,   ,M,M,M,M,M,M,M,M,M,M,M,59.00,KMYV 302258Z 14025KT 15SM SCT005 BKN010 OVC020 15/14 A2982 RAE20 SLP098,M
MYV,1996-12-30 23:50,59.00,57.20,93.74,140.00,22.00,M,29.82,M,6.00,30.00,   ,   ,   ,   ,M,M,M,M,M,M,M,M,M,M,M,59.00,KMYV 302350Z 14022G30KT 6SM -RA SCT005 BKN010 OVC020 15/14 A2982 RAB40 SLP098 56010 10158 70032,M
MYV,1996-12-31 00:48,60.80,57.20,87.92,150.00,24.00,M,29.80,1009.20,10.00,32.00,FEW,BKN,OVC,   ,500.00,1000.00,3000.00,M,M,M,M,M,M,M,M,60.80,KMYV 310048Z 15024G32KT 10SM FEW005 BKN010 OVC030 16/14 A2980 RMK RAE23 SLP092 LAST,M
MYV,1996-12-31 15:02,60.80,55.40,82.37,140.00,20.00,M,29.86,M,7.00,M,   ,   ,   ,   ,M,M,M,M,M,M,M,M,M,M,M,60.80,KMYV 311502Z 14020KT 7SM -RASH SCT020 OVC050 16/13 A2986 RMK SLP112 4015800151,M
MYV,1996-12-31 15:56,60.80,55.40,82.37,160.00,17.00,M,29.89,1012.20,15.00,M,FEW,OVC,   ,   ,1000.00,5000.00,M,M,M,M,M,M,M,M,M,60.80,KMYV 311556Z 16017KT 15SM FEW010 OVC050 16/13 A2989 RMK RAE20 SLP122,M
MYV,1996-12-31 16:53,60.80,55.40,82.37,150.00,18.00,M,29.91,M,6.00,M,   ,   ,   ,   ,M,M,M,M,M,M,M,M,M,M,M,60.80,KMYV 311653Z 15018KT 6SM -RASH FEW010 BKN030 OVC050 16/13 A2991 RMK RAB15 SLP129,M
MYV,1996-12-31 17:01,60.80,57.20,87.92,150.00,18.00,M,29.90,M,2.00,M,   ,   ,   ,   ,M,M,M,M,M,M,M,M,M,M,M,60.80,KMYV 311701Z 15018KT 2SM -RASH BR SCT010 OVC020 16/14 A2990 RMK SLP125,M
MYV,1996-12-31 17:25,60.80,57.20,87.92,150.00,18.00,M,29.91,1012.90,15.00,M,SCT,OVC,   ,   ,1000.00,3000.00,M,M,M,M,M,M,M,M,M,60.80,KMYV 311725 15018KT 15SM SCT010 OVC030 16/14 A2991 RMK SLP129,M
MYV,1996-12-31 17:58,60.80,57.20,87.92,140.00,20.00,M,29.91,1012.90,15.00,26.00,BKN,OVC,   ,   ,1000.00,3000.00,M,M,M,M,M,M,M,M,M,60.80,KMYV 311758 14020G26KT 15SM BKN010 OVC030 16/14 A2991 RMK RAE20 SLP129 51017 20151,M
MYV,1996-12-31 18:53,62.60,57.20,82.50,140.00,17.00,M,29.91,1012.90,15.00,25.00,FEW,BKN,OVC,   ,500.00,1000.00,3000.00,M,M,M,M,M,M,M,M,62.60,KMYV 311853Z 14017G25KT 15SM FEW005 BKN010 OVC030 17/14 A2991 RMK SLP129,M
MYV,1996-12-31 19:50,62.60,57.20,82.50,140.00,20.00,M,29.90,1012.00,15.00,M,SCT,BKN,OVC,   ,1000.00,1500.00,3000.00,M,M,M,M,M,M,M,M,62.60,KMYV 311950Z 14020KT 15SM SCT010 BKN015 OVC030 17/14 A2990 RMK SLP120,M
MYV,1996-12-31 20:50,64.40,57.20,77.45,130.00,20.00,M,29.87,1011.50,15.00,M,FEW,SCT,OVC,   ,1500.00,3000.00,6000.00,M,M,M,M,M,M,M,M,64.40,KMYV 312050Z 13020KT 15SM FEW015 SCT030 OVC060 18/14 A2987 RMK SLP115 58014,M
MYV,1996-12-31 21:48,62.60,57.20,82.50,150.00,17.00,M,29.86,1011.20,3.00,25.00,SCT,OVC,   ,   ,1500.00,3000.00,M,M,-SHRA,M,M,M,M,M,M,62.60,KMYV 312148Z 15017G25KT 3SM -SHRA SCT015 OVC030 17/14 A2986 RMK SLP112,M
MYV,1996-12-31 22:50,62.60,57.20,82.50,140.00,20.00,M,29.88,1011.90,5.00,M,SCT,BKN,OVC,   ,1000.00,2000.00,3000.00,M,-SHRA,M,M,M,M,M,M,62.60,KMYV 312250Z 14020KT 5SM -SHRA SCT010 BKN020 OVC030 17/14 A2988 RMK SLP119,M
MYV,1997-01-01 00:50,62.60,57.20,82.50,140.00,18.00,M,29.89,M,10.00,23.00,SCT,BKN,OVC,   ,1000.00,2500.00,4000.00,M,M,M,M,M,M,M,M,62.60,KMYV 010050Z 14018G23KT 10SM SCT010 BKN025 OVC040 17/14 A2989 RMK VCSHRA ALQDS SLP122 LAST,M
MYV,1997-01-01 15:54,60.80,59.00,93.79,180.00,26.00,M,29.86,1011.20,2.00,32.00,SCT,OVC,   ,   ,1500.00,3000.00,M,M,RABR,M,M,M,M,M,M,60.80,KMYV 011554Z 18026G32KT 2SM RABR SCT015 OVC030 16/15 A2986 RMK SLP112,M
MYV,1997-01-01 16:50,60.80,59.00,93.79,170.00,20.00,M,29.89,1012.20,2.00,M,SCT,OVC,   ,   ,1500.00,3000.00,M,M,RABR,M,M,M,M,M,M,60.80,KMYV 011650Z 17020KT 2SM RABR SCT015 OVC030 16/15 A2989 RMK SLP122,M
MYV,1997-01-01 17:48,60.80,59.00,93.79,170.00,20.00,M,29.89,1012.20,3.00,25.00,SCT,OVC,   ,   ,1000.00,2000.00,M,M,-RABR,M,M,M,M,M,M,60.80,KMYV 011748Z 17020G25KT 3SM -RABR SCT010 OVC020 16/15 A2989 RMK SLP122 51014 20160,M
MYV,1997-01-01 18:50,62.60,60.80,93.83,160.00,18.00,M,29.88,1011.90,4.00,24.00,SCT,OVC,   ,   ,1000.00,2000.00,M,M,-RA,M,M,M,M,M,M,62.60,KMYV 011850Z 16018G24KT 4SM -RA SCT010 OVC020 17/16 A2988 RMK SLP119,M
MYV,1997-01-01 19:48,62.60,60.80,93.83,160.00,18.00,M,29.86,1011.20,5.00,24.00,SCT,OVC,   ,   ,1000.00,2000.00,M,M,-RA,M,M,M,M,M,M,62.60,KMYV 011948Z 16018G24KT 5SM -RA SCT010 OVC020 17/16 A2986 RMK SLP112,M
MYV,1997-01-01 20:49,62.60,60.80,93.83,160.00,17.00,M,29.83,1010.20,3.00,23.00,BKN,OVC,   ,   ,1000.00,2000.00,M,M,-RA,M,M,M,M,M,M,62.60,KMYV 012049Z 16017G23KT 3SM -RA BKN010 OVC020 17/16 A2983 RMK SLP102 57020,M
MYV,1997-01-01 21:48,62.60,60.80,93.83,150.00,18.00,M,29.82,1009.80,5.00,27.00,BKN,OVC,   ,   ,1000.00,2000.00,M,M,-RA,M,M,M,M,M,M,62.60,KMYV 012148Z 15018G27KT 5SM -RA BKN010 OVC020 17/16 A2982 RMK SLP098,M
MYV,1997-01-01 22:49,62.60,60.80,93.83,150.00,17.00,M,29.80,1009.20,5.00,26.00,BKN,OVC,   ,   ,1000.00,2000.00,M,M,-RA,M,M,M,M,M,M,62.60,KMYV 012249Z 15017G26KT 5SM -RA BKN010 OVC020 17/16 A2980 RMK SLP092,M
MYV,1997-01-01 23:51,62.60,60.80,93.83,150.00,18.00,M,29.81,1009.50,3.00,25.00,BKN,OVC,   ,   ,1000.00,2000.00,M,M,-RA,M,M,M,M,M,M,62.60,KMYV 012351Z 15018G25KT 3SM -RA BKN010 OVC020 17/16 A2981 RMK SLP095 55007 10172 70086,M
MYV,1997-01-02 00:50,62.60,60.80,93.83,160.00,17.00,M,29.81,1009.50,3.00,24.00,BKN,OVC,   ,   ,1000.00,2000.00,M,M,-RA BR,M,M,M,M,M,M,62.60,KMYV 020050Z 16017G24KT 3SM -RA BR BKN010 OVC020 17/16 A2981 RMK SLP095 LAST,M
MYV,1997-01-02 15:03,59.00,55.40,87.83,170.00,5.00,M,29.90,1012.50,5.00,M,OVC,   ,   ,   ,3000.00,M,M,M,-RA,M,M,M,M,M,M,59.00,KMYV 021503Z 17005KT 5SM -RA OVC030 15/13 A2990 RMK SLP125 401780148,M
MYV,1997-01-02 15:47,59.00,55.40,87.83,160.00,9.00,M,29.90,1012.50,4.00,M,SCT,OVC,   ,   ,2000.00,3000.00,M,M,-RA BR,M,M,M,M,M,M,59.00,KMYV 021547Z 16009KT 4SM -RA BR SCT020 OVC030 15/13 A2990 RMK SLP125,M
MYV,1997-01-02 16:48,57.20,55.40,93.69,160.00,8.00,M,29.91,1012.90,5.00,M,SCT,OVC,   ,   ,2000.00,3000.00,M,M,-RA,M,M,M,M,M,M,57.20,KMYV 021648Z 16008KT 5SM -RA SCT020 OVC030 14/13 A2991 RMK SLP129,M
MYV,1997-01-02 17:51,57.20,55.40,93.69,170.00,9.00,M,29.94,1013.90,5.00,M,SCT,OVC,   ,   ,2000.00,3000.00,M,M,-RA,M,M,M,M,M,M,57.20,KMYV 021751Z 17009KT 5SM -RA SCT020 OVC030 14/13 A2994 RMK SLP139 53014 20142,M
MYV,1997-01-02 18:48,57.20,55.40,93.69,150.00,12.00,M,29.94,1013.90,10.00,M,BKN,OVC,   ,   ,3000.00,5000.00,M,M,-RA,M,M,M,M,M,M,57.20,KMYV 021848Z 15012KT 10SM -RA BKN030 OVC050 14/13 A2994 RMK SLP139,M
MYV,1997-01-02 19:47,57.20,55.40,93.69,150.00,15.00,M,29.91,1012.90,10.00,M,SCT,BKN,OVC,   ,800.00,2000.00,4000.00,M,M,M,M,M,M,M,M,57.20,KMYV 021947Z 15015KT 10SM SCT008 BKN020 OVC040 14/13 A2991 RMK SLP129 RAE29,M
MYV,1997-01-02 20:50,59.00,55.40,87.83,150.00,14.00,M,29.88,1011.90,10.00,M,SCT,BKN,OVC,   ,1000.00,2000.00,4000.00,M,M,M,M,M,M,M,M,59.00,KMYV 022050Z 15014KT 10SM SCT010 BKN020 OVC040 15/13 A2988 RMK SLP119 53020,M
MYV,1997-01-02 21:49,59.00,55.40,87.83,160.00,14.00,M,29.88,1011.90,10.00,M,BKN,OVC,   ,   ,1000.00,3000.00,M,M,M,M,M,M,M,M,M,59.00,KMYV 022149Z 16014KT 10SM BKN010 OVC030 15/13 A2988 RMK SLP119,M
MYV,1997-01-02 22:47,59.00,55.40,87.83,160.00,143.00,M,29.89,1012.20,10.00,M,SCT,OVC,   ,   ,1000.00,4000.00,M,M,M,M,M,M,M,M,M,59.00,KMYV 022247Z 160143T 10SM SCT010 OVC040 15/13 A2989 RMK SLP122,M
MYV,1997-01-02 23:51,59.00,55.40,87.83,160.00,13.00,M,29.87,1011.50,10.00,M,FEW,OVC,   ,   ,1000.00,5000.00,M,M,M,M,M,M,M,M,M,59.00,KMYV 022351Z 16013KT 10SM FEW010 OVC050 15/13 A2987 RMK SLP115 58003 10178 70058,M
MYV,1997-01-03 00:50,59.00,55.40,87.83,160.00,12.00,M,29.86,1011.20,10.00,M,FEW,OVC,   ,   ,1000.00,5000.00,M,M,M,M,M,M,M,M,M,59.00,KMYV 030050Z 16012KT 10SM FEW010 OVC050 15/13 A2986 RMK SLP112 LAST,M
MYV,1997-01-03 20:46,59.00,35.60,41.42,320.00,12.00,M,30.11,1019.60,65.00,M,FEW,SCT,   ,   ,8000.00,12000.00,M,M,M,M,M,M,M,M,M,59.00,KMYV 032046Z 32012KT 65SM FEW080 SCT120 15/2 A3011 RMK SLP196,M
MYV,1997-01-03 21:49,59.00,37.40,44.47,300.00,10.00,M,30.10,1019.30,65.00,M,FEW,SCT,   ,   ,8000.00,12000.00,M,M,M,M,M,M,M,M,M,59.00,KMYV 032149Z 30010KT 65SM FEW080 SCT120 15/03 A3010 RMK SLP193,M
MYV,1997-01-03 22:58,57.20,39.20,50.91,300.00,8.00,M,30.11,1019.60,65.00,M,FEW,SCT,   ,   ,8000.00,12000.00,M,M,M,M,M,M,M,M,M,57.20,KMYV 032258Z 30008KT 65SM FEW080 SCT120 14/04 A3011 RMK SLP196,M
MYV,1997-01-03 23:46,57.20,37.40,47.44,320.00,10.00,M,30.10,1019.30,65.00,M,FEW,FEW,   ,   ,8000.00,12000.00,M,M,M,M,M,M,M,M,M,57.20,KMYV 032346Z 32010KT 65SM FEW080 FEW120 14/03 A3010 RMK 55003 10147 SLP193,M
MYV,1997-01-04 00:46,53.60,39.20,58.02,320.00,8.00,M,30.10,1019.30,65.00,M,FEW,FEW,   ,   ,8000.00,12000.00,M,M,M,M,M,M,M,M,M,53.60,KMYV 040046Z 32008KT 65SM FEW080 FEW120 12/04 A3010 RMK SLP193 LAST,M
MYV,1997-01-05 16:52,41.00,37.40,86.89,320.00,10.00,M,30.19,1022.40,65.00,M,CLR,   ,   ,   ,M,M,M,M,M,M,M,M,M,M,M,34.25,KMYV 051652Z 32010KT 65SM SKC 05/03 A3019 RMK SLP224,M
MYV,1997-01-05 17:46,44.60,35.60,70.48,310.00,10.00,M,30.20,1022.40,65.00,M,CLR,   ,   ,   ,M,M,M,M,M,M,M,M,M,M,M,38.77,KMYV 051746Z 31010KT 65SM SKC 07/02 A3020 RMK 52007 20024 SLP224,M
MYV,1997-01-05 18:56,48.20,35.60,61.52,300.00,15.00,M,30.20,1022.70,65.00,M,CLR,   ,   ,   ,M,M,M,M,M,M,M,M,M,M,M,41.78,KMYV 051856Z 30015KT 65SM SKC 09/02 A3020 RMK SLP227,M
MYV,1997-01-05 19:51,50.00,35.60,57.52,300.00,20.00,M,30.19,1022.40,65.00,25.00,CLR,   ,   ,   ,M,M,M,M,M,M,M,M,M,M,M,43.05,KMYV 051951Z 30020G25KT 65SM SKC 10/02 A3019 RMK SLP224,M
MYV,1997-01-05 20:48,51.80,35.60,53.81,310.00,20.00,M,30.16,1021.30,65.00,M,FEW,   ,   ,   ,8000.00,M,M,M,M,M,M,M,M,M,M,51.80,KMYV 052048Z 31020KT 65SM FEW080 11/02 A3016 RMK 58014 SLP213,M
MYV,1997-01-05 21:50,53.60,33.80,46.88,310.00,20.00,M,30.16,1021.30,65.00,M,FEW,   ,   ,   ,8000.00,M,M,M,M,M,M,M,M,M,M,53.60,KMYV 052150Z 31020KT 65SM FEW080 12/01 A3016 RMK SLP213,M
MYV,1997-01-05 22:56,53.60,33.80,46.88,300.00,20.00,M,30.16,1021.30,65.00,25.00,FEW,   ,   ,   ,3000.00,M,M,M,M,M,M,M,M,M,M,53.60,KMYV 052256Z 30020G25KT 65SM FEW030 12/01 A3016 RMK SLP213,M
MYV,1997-01-06 15:56,39.20,26.60,60.29,320.00,15.00,M,30.44,1030.80,95.00,M,CLR,   ,   ,   ,M,M,M,M,M,M,M,M,M,M,M,30.11,KMYV 061556Z 32015KT 95SM SKC 04/M03 A3044 RMK SLP308,M
MYV,1997-01-06 16:55,41.00,26.60,56.22,320.00,18.00,M,30.44,1030.80,95.00,M,CLR,   ,   ,   ,M,M,M,M,M,M,M,M,M,M,M,31.60,KMYV 061655Z 32018KT 95SM SKC 05/M03 A3044 RMK SLP308,M
MYV,1997-01-06 18:59,48.20,30.20,49.53,310.00,15.00,M,30.43,1030.50,95.00,M,SCT,   ,   ,   ,25000.00,M,M,M,M,M,M,M,M,M,M,41.78,KMYV 061859Z 31015KT 95SM SCT250 09/M01 A3043 RMK SLP305,M
MYV,1997-01-06 19:55,51.80,26.60,37.38,320.00,20.00,M,30.40,1029.50,95.00,M,FEW,   ,   ,   ,25000.00,M,M,M,M,M,M,M,M,M,M,51.80,KMYV 061955Z 32020KT 95SM FEW250 11/M03 A3040 RMK SLP295,M
MYV,1997-01-06 20:55,53.60,26.60,34.98,320.00,18.00,M,30.38,1028.80,95.00,M,FEW,   ,   ,   ,25000.00,M,M,M,M,M,M,M,M,M,M,53.60,KMYV 062055Z 32018KT 95SM FEW250 12/M03 A3038 RMK SLP288 57024,M
MYV,1997-01-06 22:55,53.60,30.20,40.54,320.00,15.00,M,30.34,1027.40,95.00,M,FEW,   ,   ,   ,25000.00,M,M,M,M,M,M,M,M,M,M,53.60,KMYV 062255Z 32015KT 95SM FEW250 12/M01 A3034 RMK SLP274,M
MYV,1997-01-06 23:52,53.60,30.20,40.54,320.00,15.00,M,30.36,1028.10,100.00,M,FEW,   ,   ,   ,30000.00,M,M,M,M,M,M,M,M,M,M,53.60,KMYV 062352Z 32015KT 100SM FEW300 12/M01 A3036 RMK SLP281 55007 10125,M
MYV,1997-01-07 00:54,50.00,32.00,49.81,320.00,16.00,M,30.35,1027.80,100.00,M,CLR,   ,   ,   ,M,M,M,M,M,M,M,M,M,M,M,43.88,KMYV 070054Z 32016KT 100SM SKC 10/00 A3035 RMK SLP278 LAST,M
MYV,1997-01-07 16:50,37.40,30.20,74.98,0.00,0.00,M,30.31,1026.40,50.00,M,FEW,SCT,   ,   ,20000.00,30000.00,M,M,M,M,M,M,M,M,M,37.40,KMYV 071650Z 00000KT 50SM FEW200 SCT300 03/M01 A3031 RMK SLP264,M
MYV,1997-01-07 16:52,42.80,30.20,60.79,360.00,10.00,M,30.33,1027.10,60.00,M,FEW,FEW,   ,   ,20000.00,30000.00,M,M,M,M,M,M,M,M,M,36.51,KMYV 071652Z 36010KT 60SM FEW200 FEW300 06/M01 A3033 RMK SLP271,M
MYV,1997-01-07 18:50,48.20,33.80,57.26,90.00,5.00,M,30.33,1027.10,50.00,M,FEW,   ,   ,   ,25000.00,M,M,M,M,M,M,M,M,M,M,45.63,KMYV 071850Z 09005KT 50SM FEW250 09/01 A3033 RMK SLP271,M
MYV,1997-01-07 19:51,50.00,33.80,53.54,0.00,0.00,M,30.31,1026.40,50.00,M,FEW,   ,   ,   ,25000.00,M,M,M,M,M,M,M,M,M,M,50.00,KMYV 071951Z 00000KT 50SM FEW250 10/01 A3031 RMK SLP264,M
MYV,1997-01-07 20:48,53.60,35.60,50.36,100.00,6.00,M,30.29,1025.70,40.00,M,CLR,   ,   ,   ,M,M,M,M,M,M,M,M,M,M,M,53.60,KMYV 072048Z 10006KT 40SM SKC 12/02 A3029 RMK SLP257 57017,M
MYV,1997-01-07 21:53,53.60,39.20,58.02,80.00,8.00,M,30.27,1025.00,35.00,M,CLR,   ,   ,   ,M,M,M,M,M,M,M,M,M,M,M,53.60,KMYV 072153Z 08008KT 35SM SKC 12/04 A3027 RMK SLP250,M
MYV,1997-01-07 22:55,55.40,39.20,54.34,60.00,5.00,M,30.25,1024.40,35.00,M,CLR,   ,   ,   ,M,M,M,M,M,M,M,M,M,M,M,55.40,KMYV 072255Z 06005KT 35SM SKC 13/04 A3025 RMK SLP244,M
MYV,1997-01-07 23:48,55.40,41.00,58.27,0.00,0.00,M,30.24,1024.00,35.00,M,CLR,   ,   ,   ,M,M,M,M,M,M,M,M,M,M,M,55.40,KMYV 072348Z 00000KT 35SM SKC 13/05 A3024 RMK SLP240 57017 10137,M
MYV,1997-01-08 00:48,50.00,41.00,71.07,180.00,7.00,M,30.25,1024.40,35.00,M,CLR,   ,   ,   ,M,M,M,M,M,M,M,M,M,M,M,46.72,KMYV 080048Z 18007KT 35SM SKC 10/05 A3025 RMK SLP244 LAST,M
MYV,1997-01-08 15:47,32.00,32.00,100.00,120.00,4.00,M,30.30,1026.10,7.00,M,SCT,   ,   ,   ,18000.00,M,M,M,M,M,M,M,M,M,M,27.42,KMYV 081547Z 12004KT 7SM SCT180 0/0 A3030 RMK SLP261,M
MYV,1997-01-08 16:48,37.40,33.80,86.69,110.00,4.00,M,30.31,1026.40,10.00,M,BKN,   ,   ,   ,18000.00,M,M,M,M,M,M,M,M,M,M,33.73,KMYV 081648Z 11004KT 10SM BKN180 03/01 A3031 RMK SLP264,M
MYV,1997-01-08 18:48,48.20,39.20,70.88,170.00,5.00,M,30.33,1027.10,10.00,M,OVC,   ,   ,   ,18000.00,M,M,M,M,M,M,M,M,M,M,45.63,KMYV 081848Z 17005KT 10SM OVC180 09/04 A3033 RMK SLP271,M
MYV,1997-01-08 21:49,51.80,41.00,66.48,160.00,6.00,M,30.27,1025.00,7.00,M,OVC,   ,   ,   ,18000.00,M,M,M,M,M,M,M,M,M,M,51.80,KMYV 082149Z 16006KT 7SM OVC180 11/05 A3027 RMK SLP250,M
MYV,1997-01-08 22:50,51.80,41.00,66.48,160.00,4.00,M,30.28,1025.40,7.00,M,OVC,   ,   ,   ,18000.00,M,M,M,M,M,M,M,M,M,M,51.80,KMYV 082250Z 16004KT 7SM OVC180 11/05 A3028 RMK SLP254,M
MYV,1997-01-08 23:51,51.80,41.00,66.48,150.00,4.00,M,30.27,1025.00,7.00,M,OVC,   ,   ,   ,18000.00,M,M,M,M,M,M,M,M,M,M,51.80,KMYV 082351Z 15004KT 7SM OVC180 11/05 A3027 RMK SLP250 57007 10138,M
MYV,1997-01-09 00:50,50.00,41.00,71.07,170.00,4.00,M,30.27,1025.00,7.00,M,OVC,   ,   ,   ,18000.00,M,M,M,M,M,M,M,M,M,M,48.44,KMYV 090050Z 17004KT 7SM OVC180 10/05 A3027 RMK SLP250 LAST,M
MYV,1997-01-09 15:47,33.80,33.80,100.00,M,5.00,M,30.34,1027.40,0.25,M,BKN,   ,   ,   ,0.00,M,M,M,FG,M,M,M,M,M,M,28.53,KMYV 091547Z VRB05KT 1/4SM FG BKN000 01/01 A3034 RMK FG BKN000 SLP274,M
MYV,1997-01-09 16:48,39.20,39.20,100.00,M,4.00,M,30.36,1028.10,3.00,M,FEW,SCT,   ,   ,0.00,15000.00,M,M,BR,M,M,M,M,M,M,35.83,KMYV 091648Z VRB04KT 3SM BR FEW000 SCT150 04/04 A3036 RMK BR FEW000 SLP281,M
MYV,1997-01-09 17:51,41.00,39.20,93.24,M,4.00,M,30.36,1028.10,4.00,M,BKN,   ,   ,   ,15000.00,M,M,M,BR HZ,M,M,M,M,M,M,37.93,KMYV 091751Z VRB04KT 4SM BR HZ BKN150 05/04 A3036 RMK SLP281 51007 20000,M
MYV,1997-01-09 18:48,46.40,41.00,81.34,M,4.00,M,30.36,1028.10,4.00,M,BKN,   ,   ,   ,15000.00,M,M,M,HZ,M,M,M,M,M,M,44.24,KMYV 091848Z VRB04KT 4SM HZ BKN150 08/05 A3036 RMK SLP281,M
MYV,1997-01-09 19:47,51.80,42.80,71.26,M,4.00,M,30.34,1027.40,4.00,M,BKN,   ,   ,   ,18000.00,M,M,M,HZ,M,M,M,M,M,M,51.80,KMYV 091947Z VRB04KT 4SM HZ BKN180 11/06 A3034 RMK SLP274,M
MYV,1997-01-09 20:57,53.60,42.80,66.70,M,4.00,M,30.30,1026.10,3.00,M,BKN,   ,   ,   ,20000.00,M,M,M,HZ,M,M,M,M,M,M,53.60,KMYV 092057Z VRB04KT 3SM HZ BKN200 12/06 A3030 RMK SLP261 58020,M
MYV,1997-01-09 21:49,53.60,42.80,66.70,M,5.00,M,30.30,1026.10,4.00,M,BKN,   ,   ,   ,18000.00,M,M,M,HZ,M,M,M,M,M,M,53.60,KMYV 092149Z VRB05KT 4SM HZ BKN180 12/06 A3030 RMK SLP261,M
MYV,1997-01-09 22:53,53.60,42.80,66.70,170.00,6.00,M,30.29,1025.70,3.00,M,OVC,   ,   ,   ,18000.00,M,M,M,HZ,M,M,M,M,M,M,53.60,KMYV 092253Z 17006KT 3SM HZ OVC180 12/06 A3029 RMK SLP257,M
MYV,1997-01-09 23:51,51.80,42.80,71.26,150.00,6.00,M,30.28,1025.40,3.00,M,OVC,   ,   ,   ,18000.00,M,M,M,HZ,M,M,M,M,M,M,51.80,KMYV 092351Z 15006KT 3SM HZ OVC180 11/06 A3028 RMK SLP254 58007 10134,M
