station,valid,tmpf,dwpf,relh,drct,sknt,p01i,alti,mslp,vsby,gust,skyc1,skyc2,skyc3,skyc4,skyl1,skyl2,skyl3,skyl4,wxcodes,ice_accretion_1hr,ice_accretion_3hr,ice_accretion_6hr,peak_wind_gust,peak_wind_drct,peak_wind_time,feel,metar,snowdepth
CXY,1/1/96 0:00,35.96,32,85.37,360,5,M,29.96,M,3,M,SCT,BKN,OVC,   ,4000,6000,10000,M,M,M,M,M,M,M,M,31.1,KCXY 010000Z 36005KT 3SM DZ SCT040 BKN060 OVC100 02/00 A2996 RMK SLPNO T00220000,M
CXY,1/1/96 1:00,36.86,32,82.38,180,6,M,29.96,M,5,M,OVC,   ,   ,   ,6000,M,M,M,M,M,M,M,M,M,M,31.38,KCXY 010100Z 18006KT 5SM DZ OVC060 03/00 A2996 RMK SLPNO T00270000,M
CXY,1/1/96 2:00,36.86,32.9,85.42,180,7,M,29.95,M,5,M,OVC,   ,   ,   ,4500,M,M,M,M,M,M,M,M,M,M,30.7,KCXY 010200Z 18007KT 5SM FG OVC045 03/01 A2995 RMK SLPNO T00270005,M
CXY,1/1/96 3:00,36.86,32.9,85.42,120,6,M,29.94,M,3,M,OVC,   ,   ,   ,3000,M,M,M,M,M,M,M,M,M,M,31.38,KCXY 010300Z 12006KT 3SM -RA FG OVC030 03/01 A2994 RMK LAST; SLPNO T00270005,M
CXY,1/1/96 11:00,34.9,32,89.03,290,4,M,29.94,M,10.5,M,   ,   ,   ,   ,M,M,M,M,M,M,M,M,M,M,M,30.81,KCXY 011100Z 29004KT 21/2SM -DZ FG OVC020 02/M A2994 RMK SLPNO T0016////,M
CXY,1/1/96 12:00,34.9,32,89.03,320,5.04,M,29.95,M,2,M,   ,   ,   ,   ,M,M,M,M,M,M,M,M,M,M,M,29.8,KCXY 011200Z 32005KT 2SM FG OVC020 02/M A2995 RMK SLPNO T0016////,M
CXY,1/1/96 13:00,34,32,92.29,M,0,M,29.96,M,1,M,   ,   ,   ,   ,M,M,M,M,M,M,M,M,M,M,M,34,KCXY 011300Z 00000KT 1SM FG OVC020 01/M A2996 RMK SLPNO T0011////,M
CXY,1/1/96 14:00,34.9,32,89.03,M,0,M,29.96,M,0.8,M,   ,   ,   ,   ,M,M,M,M,M,M,M,M,M,M,M,34.9,KCXY 011400Z 00000KT 3/4SM FG OVC035 02/M A2996 RMK SLPNO T0016////,M
CXY,1/1/96 15:00,36,32,85.23,M,0,M,29.98,M,0.5,M,   ,   ,   ,   ,M,M,M,M,M,M,M,M,M,M,M,36,KCXY 011500Z 00000KT 1/2SM FG OVC019 02/M A2998 RMK SLPNO T0022////,M
CXY,1/1/96 16:00,36.9,32,82.25,M,0,M,29.99,M,1,M,   ,   ,   ,   ,M,M,M,M,M,M,M,M,M,M,M,36.9,KCXY 011600Z 00000KT 1SM FG OVC020 03/M A2999 RMK SLPNO T0027////,M
CXY,1/1/96 17:00,37.9,32,79.08,M,0,M,29.96,M,1,M,   ,   ,   ,   ,M,M,M,M,M,M,M,M,M,M,M,37.9,KCXY 011700Z 00000KT 1SM FG OVC020 03/M A2996 RMK SLPNO T0033////,M
CXY,1/1/96 18:00,37.9,32,79.08,M,0,M,29.94,M,1,M,   ,   ,   ,   ,M,M,M,M,M,M,M,M,M,M,M,37.9,KCXY 011800Z 00000KT 1SM FG OVC020 03/M A2994 RMK SLPNO T0033////,M
CXY,1/1/96 19:00,37.9,32,79.08,M,0,M,29.93,M,1,M,   ,   ,   ,   ,M,M,M,M,M,M,M,M,M,M,M,37.9,KCXY 011900Z 00000KT 1SM FG OVC020 03/M A2993 RMK SLPNO T0033////,M
CXY,1/1/96 20:00,37.9,32,79.08,180,5.04,M,29.93,M,5.5,M,   ,   ,   ,   ,M,M,M,M,M,M,M,M,M,M,M,33.37,KCXY 012000Z 18005KT 11/2SM FG OVC020 03/M A2993 RMK SLPNO T0033////,M
CXY,1/1/96 21:00,37.9,32,79.08,140,5.04,M,29.91,M,2,M,   ,   ,   ,   ,M,M,M,M,M,M,M,M,M,M,M,33.37,KCXY 012100Z 14005KT 2SM FG OVC020 03/M A2991 RMK SLPNO T0033////,M
CXY,1/1/96 22:00,36.9,32,82.25,160,5.04,M,29.92,M,2,M,   ,   ,   ,   ,M,M,M,M,M,M,M,M,M,M,M,32.18,KCXY 012200Z 16005KT 2SM FG OVC020 03/M A2992 RMK SLPNO T0027////,M
CXY,1/1/96 23:00,36.9,32,82.25,120,6,M,29.93,M,2,M,   ,   ,   ,   ,M,M,M,M,M,M,M,M,M,M,M,31.43,KCXY 012300Z 12006KT 2SM -DZ FG BKN015 OVC025 03/M A2993 RMK SLPNO T0027////,M
CXY,1/2/96 0:00,34.9,32,89.03,360,5.04,M,29.95,M,5.5,M,   ,   ,   ,   ,M,M,M,M,M,M,M,M,M,M,M,29.8,KCXY 020000Z 36005KT 11/2SM -DZ FG BKN012 OVC020 02/M A2995 RMK SLPNO T0016////,M
CXY,1/2/96 1:00,36,32,85.23,180,5.04,M,29.94,M,2,M,   ,   ,   ,   ,M,M,M,M,M,M,M,M,M,M,M,31.11,KCXY 020100Z 18005KT 2SM FG BKN014 OVC025 02/M A2994 RMK SLPNO T0022////,M
CXY,1/2/96 2:00,36,32,85.23,M,0,M,29.94,M,2,M,   ,   ,   ,   ,M,M,M,M,M,M,M,M,M,M,M,36,KCXY 020200Z 00000KT 2SM FG OVC022 02/M A2994 RMK SLPNO T0022////,M
CXY,1/2/96 3:00,36,32,85.23,30,5.04,M,29.94,M,2,M,   ,   ,   ,   ,M,M,M,M,M,M,M,M,M,M,M,31.11,KCXY 020300Z 03005KT 2SM -DZ FG OVC022 02/M A2994 RMK LAST; SLPNO T0022////,M
CXY,1/2/96 11:00,34,32,92.29,120,5.04,M,29.87,M,1,M,   ,   ,   ,   ,M,M,M,M,M,M,M,M,M,M,M,28.73,KCXY 021100Z 12005KT 1SM -RA FG OVC005 01/M A2987 RMK SLPNO T0011////,M
CXY,1/2/96 12:00,32.9,32,96.44,90,5.04,M,29.86,M,1,M,   ,   ,   ,   ,M,M,M,M,M,M,M,M,M,M,M,27.42,KCXY 021200Z 08005KT 1SM -DZ FG CLR 01/M A2986 RMK W6 Z 1L-F 33/M/0805/986; SLPNO T0005////,M
CXY,1/2/96 13:00,34,32,92.29,110,6,M,29.85,M,1,M,   ,   ,   ,   ,M,M,M,M,M,M,M,M,M,M,M,27.94,KCXY 021300Z 11006KT 1SM -RA FG OVC005 01/M A2985 RMK R08VV11/4; SLPNO T0011////,M
CXY,1/2/96 14:00,34,32,92.29,90,4,M,29.87,M,1,M,   ,   ,   ,   ,M,M,M,M,M,M,M,M,M,M,M,29.76,KCXY 021400Z 10004KT 1SM -RA FG OVC005 01/M A2987 RMK R08RVV11/8; SLPNO T0011////,M
CXY,1/2/96 15:00,34,32,92.29,140,6,M,29.85,M,0.8,M,   ,   ,   ,   ,M,M,M,M,M,M,M,M,M,M,M,27.94,KCXY 021500Z 14006KT 3/4SM -SN FG OVC005 01/M A2985 RMK R08RVV11/4; SLPNO T0011////,M
CXY,1/2/96 16:00,34,32,92.29,130,5.04,M,29.86,M,0.8,M,   ,   ,   ,   ,M,M,M,M,M,M,M,M,M,M,M,28.73,KCXY 021600Z 13005KT 3/4SM -SN FG OVC005 01/M A2986 RMK SLPNO T0011////,M
CXY,1/2/96 17:00,34,32,92.29,120,4,M,29.82,M,0.5,M,   ,   ,   ,   ,M,M,M,M,M,M,M,M,M,M,M,29.76,KCXY 021700Z 12004KT 1/2SM SN FG OVC005 01/M A2982 RMK R08VV1/2; SLPNO T0011////,M
CXY,1/2/96 18:00,34,32,92.29,110,6,M,29.79,M,0.2,M,   ,   ,   ,   ,M,M,M,M,M,M,M,M,M,M,M,27.94,KCXY 021800Z 11006KT 1/4SM SN FG OVC003 01/M A2979 RMK R09VV3/8; SLPNO T0011////,M
CXY,1/2/96 19:00,34,32,92.29,140,5.04,M,29.77,M,0.4,M,   ,   ,   ,   ,M,M,M,M,M,M,M,M,M,M,M,28.73,KCXY 021900Z 14005KT 3/8SM -SN FG OVC003 01/M A2977 RMK R08VV1/2; SLPNO T0011////,M
CXY,1/2/96 20:00,32.9,32,96.44,70,6,M,29.75,M,0.8,M,   ,   ,   ,   ,M,M,M,M,M,M,M,M,M,M,M,26.61,KCXY 022000Z 07006KT 3/4SM -SN FG OVC006 01/M A2975 RMK R08VV3/4; SLPNO T0005////,M
CXY,1/2/96 21:00,34,32,92.29,90,8,M,29.75,M,0.8,M,   ,   ,   ,   ,M,M,M,M,M,M,M,M,M,M,M,26.58,KCXY 022100Z 08008KT 3/4SM -RA FG OVC006 01/M A2975 RMK R08VV1; SLPNO T0011////,M
CXY,1/2/96 22:00,34,32,92.29,90,9.04,M,29.74,M,0.8,M,   ,   ,   ,   ,M,M,M,M,M,M,M,M,M,M,M,25.98,KCXY 022200Z 08009KT 3/4SM -SN FG OVC005 01/M A2974 RMK R08VV1; SLPNO T0011////,M
CXY,1/2/96 23:00,34,32,92.29,90,6,M,29.73,M,2,M,   ,   ,   ,   ,M,M,M,M,M,M,M,M,M,M,M,27.94,KCXY 022300Z 10006KT 2SM -RA FG OVC008 01/M A2973 RMK SLPNO T0011////,M
CXY,1/3/96 0:00,34,32,92.29,90,8,M,29.7,M,2.8,M,   ,   ,   ,   ,M,M,M,M,M,M,M,M,M,M,M,26.58,KCXY 030000Z 10008KT 11/4SM DZ FG OVC006 01/M A2970 RMK R08VV13/8; SLPNO T0011////,M
CXY,1/3/96 1:00,34,32,92.29,120,7.04,M,29.69,M,5.5,M,   ,   ,   ,   ,M,M,M,M,M,M,M,M,M,M,M,27.19,KCXY 030100Z 12007KT 11/2SM -DZRA FG OVC007 01/M A2969 RMK R08VV11/2; SLPNO T0011////,M
CXY,1/3/96 2:00,32.9,32,96.44,110,10,M,29.68,M,1,M,   ,   ,   ,   ,M,M,M,M,M,M,M,M,M,M,M,24.1,KCXY 030200Z 11010KT 1SM -SN FG OVC005 01/M A2968 RMK RS W5 X 1S-F 33/M/1110/968/R08VV11/4; SLPNO T0005////,M
CXY,1/3/96 16:00,32,32,100,140,8,M,29.49,M,3,M,   ,   ,   ,   ,M,M,M,M,M,M,M,M,M,M,M,24.11,KCXY 031600Z 14008KT 3SM FG OVC015 00/M A2949 RMK SLPNO T0000////,M
CXY,1/3/96 17:00,32,32,100,90,5.04,M,29.49,M,3,M,   ,   ,   ,   ,M,M,M,M,M,M,M,M,M,M,M,26.35,KCXY 031700Z 09005KT 3SM FG OVC015 00/M A2949 RMK SLPNO T0000////,M
CXY,1/7/96 1:00,15.98,0.86,50.61,360,5,M,30.46,M,15,M,BKN,OVC,   ,   ,10000,14000,M,M,M,M,M,M,M,M,M,7.37,KCXY 070100Z 36005KT 15SM BKN100 OVC140 M09/M17 A3046 RMK SLPNO T10891173,M
CXY,1/7/96 2:00,15.98,0.86,50.61,60,8,M,30.43,M,15,M,BKN,OVC,   ,   ,8000,10000,M,M,M,M,M,M,M,M,M,4.38,KCXY 070200Z 06008KT 15SM BKN080 OVC100 M09/M17 A3043 RMK SLPNO T10891173,M
CXY,1/7/96 3:00,15.98,-0.04,48.52,80,8,M,30.42,M,10,M,OVC,   ,   ,   ,5000,M,M,M,#NAME?,M,M,M,M,M,M,4.38,KCXY 070300Z 08008KT 10SM -SN OVC050 M09/M18 A3042 RMK LAST; SLPNO T10891178,M
CXY,1/7/96 11:00,12.92,7.88,79.87,70,5,M,30.27,M,0.75,M,OVC,   ,   ,   ,900,M,M,M,#NAME?,M,M,M,M,M,M,3.74,KCXY 071100Z 07005KT 3/4SM -SN FG OVC009 M11/M13 A3027 RMK SLPNO T11061134,M
CXY,1/7/96 12:00,12.92,8.96,83.85,80,8,M,30.25,M,0.75,M,OVC,   ,   ,   ,600,M,M,M,#NAME?,M,M,M,M,M,M,0.61,KCXY 071200Z 08008KT 3/4SM -SN FG OVC006 M11/M13 A3025 RMK SLPNO T11061128,M
CXY,1/7/96 13:00,14,8.96,79.96,90,8,M,30.21,M,0.5,M,OVC,   ,   ,   ,500,M,M,M,SN FG,M,M,M,M,M,M,1.94,KCXY 071300Z 09008KT 1/2SM SN FG OVC005 M10/M13 A3021 RMK SLPNO T11001128,M
CXY,1/7/96 14:00,14,9.86,83.25,80,12,M,30.2,M,0.75,M,OVC,   ,   ,   ,600,M,M,M,#NAME?,M,M,M,M,M,M,-0.91,KCXY 071400Z 08012KT 3/4SM -SN FG OVC006 M10/M12 A3020 RMK SLPNO T11001123,M
CXY,1/7/96 16:00,14,10.94,87.36,90,5,M,30.11,M,0.25,M,OVC,   ,   ,   ,400,M,M,M,#NAME?,M,M,M,M,M,M,5.02,KCXY 071600Z 09005KT 1/4SM +SN FG OVC004 M10/M12 A3011 RMK SLPNO T11001117,M
CXY,1/7/96 18:00,15.98,11.84,83.39,110,5,M,30,M,0.5,M,OVC,   ,   ,   ,400,M,M,M,#NAME?,M,M,M,M,M,M,7.37,KCXY 071800Z 11005KT 1/2SM -SN FG OVC004 M09/M11 A3000 RMK SLPNO T10891112,M
CXY,1/7/96 19:00,15.98,11.84,83.39,180,6,M,29.97,M,0.25,M,OVC,   ,   ,   ,200,M,M,M,#NAME?,M,M,M,M,M,M,6.24,KCXY 071900Z 18006KT 1/4SM +SN FG OVC002 M09/M11 A2997 RMK LAST; SLPNO T10891112,M
CXY,1/9/96 11:00,5.9,0.86,79.25,160,5,M,29.88,M,15,M,CLR,   ,   ,   ,M,M,M,M,M,M,M,M,M,M,M,-4.6,KCXY 091100Z 16005KT 15SM CLR M15/M17 A2988 RMK SLPNO T11451173,M
CXY,1/9/96 12:00,3.92,0.86,86.77,250,5,M,29.88,M,15,M,CLR,   ,   ,   ,M,M,M,M,M,M,M,M,M,M,M,-6.95,KCXY 091200Z 25005KT 15SM CLR M16/M17 A2988 RMK SLPNO T11561173,M
CXY,1/9/96 13:00,3.92,0.86,86.77,0,0,M,29.89,M,15,M,SCT,   ,   ,   ,25000,M,M,M,M,M,M,M,M,M,M,3.92,KCXY 091300Z 00000KT 15SM SCT250 M16/M17 A2989 RMK SLPNO T11561173,M
CXY,1/9/96 14:00,9.86,3.92,76.38,0,0,M,29.91,M,15,M,BKN,   ,   ,   ,15000,M,M,M,M,M,M,M,M,M,M,9.86,KCXY 091400Z 00000KT 15SM BKN150 M12/M16 A2991 RMK SLPNO T11231156,M
CXY,1/9/96 15:00,15.98,5.9,63.86,0,0,M,29.91,M,15,M,OVC,   ,   ,   ,8000,M,M,M,M,M,M,M,M,M,M,15.98,KCXY 091500Z 00000KT 15SM OVC080 M09/M15 A2991 RMK SLPNO T10891145,M
CXY,1/9/96 16:00,18.86,7.88,61.7,0,0,M,29.9,M,15,M,OVC,   ,   ,   ,5000,M,M,M,M,M,M,M,M,M,M,18.86,KCXY 091600Z 00000KT 15SM OVC050 M07/M13 A2990 RMK SLPNO T10731134,M
CXY,1/9/96 18:00,23,7.88,51.76,350,6,M,29.79,M,15,M,OVC,   ,   ,   ,5000,M,M,M,M,M,M,M,M,M,M,14.69,KCXY 091800Z 35006KT 15SM OVC050 M05/M13 A2979 RMK SLPNO T10501134,M
CXY,1/9/96 19:00,20.84,16.88,84.39,290,8,M,29.77,M,1,M,OVC,   ,   ,   ,500,M,M,M,#NAME?,M,M,M,M,M,M,10.37,KCXY 091900Z 29008KT 1SM -SN FG OVC005 M06/M08 A2977 RMK SLPNO T10621084,M
CXY,1/9/96 20:00,21.92,17.96,84.47,300,7,M,29.75,M,1,M,OVC,   ,   ,   ,1000,M,M,M,#NAME?,M,M,M,M,M,M,12.49,KCXY 092000Z 30007KT 1SM -SN FG OVC010 M06/M08 A2975 RMK SLPNO T10561078,M
CXY,1/10/96 11:00,27.86,19.94,71.79,300,10,M,29.78,M,10,M,SCT,OVC,   ,   ,3600,7000,M,M,M,M,M,M,M,M,M,17.78,KCXY 101100Z 30010KT 10SM SCT036 OVC070 M02/M07 A2978 RMK SLPNO T10231067,M
CXY,1/10/96 12:00,27.86,19.94,71.79,300,10,M,29.79,M,10,M,SCT,OVC,   ,   ,3600,7000,M,M,M,M,M,M,M,M,M,17.78,KCXY 101200Z 30010KT 10SM SCT036 OVC070 M02/M07 A2979 RMK SLPNO T10231067,M
CXY,1/10/96 14:00,26.96,17.96,68.44,310,10,M,29.85,M,20,M,SCT,BKN,   ,   ,4000,6000,M,M,M,M,M,M,M,M,M,16.65,KCXY 101400Z 31010KT 20SM SCT040 BKN060 M03/M08 A2985 RMK SLPNO T10281078,M
CXY,1/10/96 15:00,28.94,14.9,55.26,310,18,M,29.89,M,20,M,SCT,   ,   ,   ,6000,M,M,M,M,M,M,M,M,M,M,15.72,KCXY 101500Z 31018KT 20SM SCT060 M02/M10 A2989 RMK SLPNO T10171095,M
CXY,1/10/96 16:00,27.86,12.92,52.96,310,25,M,29.91,M,20,M,SCT,   ,   ,   ,5000,M,M,M,M,M,M,M,M,M,M,12.21,KCXY 101600Z 31025KT 20SM SCT050 M02/M11 A2991 RMK SLPNO T10231106,M
CXY,1/10/96 17:00,27.86,10.94,48.51,320,23,M,29.91,M,20,M,BKN,   ,   ,   ,5000,M,M,M,M,M,M,M,M,M,M,12.75,KCXY 101700Z 32023KT 20SM BKN050 M02/M12 A2991 RMK SLPNO T10231117,M
CXY,1/10/96 18:00,25.88,10.94,52.64,320,20,M,29.92,M,20,M,BKN,   ,   ,   ,5000,M,M,M,M,M,M,M,M,M,M,11.01,KCXY 101800Z 32020KT 20SM BKN050 M03/M12 A2992 RMK SLPNO T10341117,M
CXY,1/10/96 19:00,25.88,7.88,45.9,330,20,M,29.95,M,20,M,SCT,   ,   ,   ,5000,M,M,M,M,M,M,M,M,M,M,11.01,KCXY 101900Z 33020KT 20SM SCT050 M03/M13 A2995 RMK SLPNO T10341134,M
CXY,1/10/96 20:00,23.9,5.9,45.56,320,20,M,30,M,20,M,SCT,   ,   ,   ,4500,M,M,M,M,M,M,M,M,M,M,8.38,KCXY 102000Z 32020KT 20SM SCT045 M05/M15 A3000 RMK PRESRR; SLPNO T10451145,M
CXY,1/10/96 21:00,24.98,6.98,45.74,310,22,M,30.02,M,20,M,SCT,   ,   ,   ,4500,M,M,M,M,M,M,M,M,M,M,9.18,KCXY 102100Z 31022KT 20SM SCT045 M04/M14 A3002 RMK SLPNO T10391139,M
CXY,1/10/96 22:00,23.9,5,43.72,210,20,M,30.05,M,15,M,SCT,   ,   ,   ,5000,M,M,M,M,M,M,M,M,M,M,8.38,KCXY 102200Z 21020KT 15SM SCT050 M05/M15 A3005 RMK SLPNO T10451150,M
CXY,1/10/96 23:00,20.84,3.92,47.34,300,18,M,30.1,M,10,M,CLR,   ,   ,   ,M,M,M,M,M,M,M,M,M,M,M,5.06,KCXY 102300Z 30018KT 10SM CLR M06/M16 A3010 RMK SLPNO T10621156,M
CXY,1/11/96 0:00,19.94,5,51.68,320,20,M,30.11,M,10,M,CLR,   ,   ,   ,M,M,M,M,M,M,M,M,M,M,M,3.12,KCXY 110000Z 32020KT 10SM CLR M07/M15 A3011 RMK SLPNO T10671150,M
CXY,1/11/96 1:00,19.94,2.84,46.79,300,18,M,30.13,M,10,M,CLR,   ,   ,   ,M,M,M,M,M,M,M,M,M,M,M,3.87,KCXY 110100Z 30018KT 10SM CLR M07/M16 A3013 RMK SLPNO T10671162,M
CXY,1/11/96 2:00,16.88,3.92,56.09,280,18,M,30.16,M,10,M,CLR,   ,   ,   ,M,M,M,M,M,M,M,M,M,M,M,-0.15,KCXY 110200Z 28018KT 10SM CLR M08/M16 A3016 RMK SLPNO T10841156,M
CXY,1/11/96 3:00,18.86,3.92,51.51,330,18,M,30.17,M,10,M,CLR,   ,   ,   ,M,M,M,M,M,M,M,M,M,M,M,2.45,KCXY 110300Z 33018KT 10SM CLR M07/M16 A3017 RMK FEW CU; SLPNO T10731156,M
CXY,1/11/96 11:00,10.94,1.94,66.42,270,10,M,30.25,M,15,M,CLR,   ,   ,   ,M,M,M,M,M,M,M,M,M,M,M,-3.44,KCXY 111100Z 27010KT 15SM CLR M12/M17 A3025 RMK SLPNO T11171167,M
CXY,1/11/96 12:00,9.86,0.86,66.27,310,10,M,30.26,M,15,M,BKN,   ,   ,   ,25000,M,M,M,M,M,M,M,M,M,M,-4.8,KCXY 111200Z 31010KT 15SM BKN250 M12/M17 A3026 RMK SLPNO T11231173,M
CXY,1/11/96 13:00,9.86,1.94,69.69,320,7,M,30.25,M,15,M,OVC,   ,   ,   ,20000,M,M,M,M,M,M,M,M,M,M,-2.21,KCXY 111300Z 32007KT 15SM OVC200 M12/M17 A3025 RMK SLPNO T11231167,M
CXY,1/11/96 14:00,11.84,1.94,63.82,270,8,M,30.27,M,15,M,OVC,   ,   ,   ,20000,M,M,M,M,M,M,M,M,M,M,-0.72,KCXY 111400Z 27008KT 15SM OVC200 M11/M17 A3027 RMK SLPNO T11121167,M
CXY,1/11/96 15:00,15.98,3.92,58.32,300,7,M,30.28,M,15,M,OVC,   ,   ,   ,20000,M,M,M,M,M,M,M,M,M,M,5.25,KCXY 111500Z 30007KT 15SM OVC200 M09/M16 A3028 RMK SLPNO T10891156,M
CXY,1/11/96 16:00,16.88,3.92,56.09,350,7,M,30.27,M,15,M,OVC,   ,   ,   ,20000,M,M,M,M,M,M,M,M,M,M,6.35,KCXY 111600Z 35007KT 15SM OVC200 M08/M16 A3027 RMK SLPNO T10841156,M
CXY,1/11/96 17:00,18.86,3.92,51.51,280,6,M,30.25,M,15,M,OVC,   ,   ,   ,20000,M,M,M,M,M,M,M,M,M,M,9.7,KCXY 111700Z 28006KT 15SM OVC200 M07/M16 A3025 RMK SLPNO T10731156,M
CXY,1/11/96 18:00,18.86,5,54.13,280,6,M,30.24,M,15,M,OVC,   ,   ,   ,20000,M,M,M,M,M,M,M,M,M,M,9.7,KCXY 111800Z 28006KT 15SM OVC200 M07/M15 A3024 RMK SLPNO T10731150,M
CXY,1/11/96 19:00,18.86,5,54.13,270,5,M,30.2,M,15,M,OVC,   ,   ,   ,20000,M,M,M,M,M,M,M,M,M,M,10.79,KCXY 111900Z 27005KT 15SM OVC200 M07/M15 A3020 RMK SLPNO T10731150,M
CXY,1/11/96 20:00,18.86,6.98,59.24,290,8,M,30.2,M,15,M,OVC,   ,   ,   ,20000,M,M,M,M,M,M,M,M,M,M,7.93,KCXY 112000Z 29008KT 15SM OVC200 M07/M14 A3020 RMK SLPNO T10731139,M
CXY,1/11/96 21:00,19.94,5.9,53.85,340,5,M,30.19,M,15,M,OVC,   ,   ,   ,20000,M,M,M,M,M,M,M,M,M,M,12.07,KCXY 112100Z 34005KT 15SM OVC200 M07/M15 A3019 RMK SLPNO T10671145,M
CXY,1/11/96 22:00,18.86,5,54.13,0,0,M,30.18,M,15,M,OVC,   ,   ,   ,20000,M,M,M,M,M,M,M,M,M,M,18.86,KCXY 112200Z 00000KT 15SM OVC200 M07/M15 A3018 RMK SLPNO T10731150,M
CXY,1/11/96 23:00,16.88,5.9,61.42,0,0,M,30.19,M,10,M,OVC,   ,   ,   ,20000,M,M,M,M,M,M,M,M,M,M,16.88,KCXY 112300Z 00000KT 10SM OVC200 M08/M15 A3019 RMK SLPNO T10841145,M
CXY,1/12/96 0:00,17.96,6.98,61.57,130,5,M,30.18,M,10,M,OVC,   ,   ,   ,20000,M,M,M,M,M,M,M,M,M,M,9.72,KCXY 120000Z 13005KT 10SM OVC200 M08/M14 A3018 RMK SLPNO T10781139,M
CXY,1/12/96 1:00,17.96,6.98,61.57,130,5,M,30.18,M,10,M,OVC,   ,   ,   ,10000,M,M,M,M,M,M,M,M,M,M,9.72,KCXY 120100Z 13005KT 10SM OVC100 M08/M14 A3018 RMK SLPNO T10781139,M
CXY,1/12/96 2:00,17.96,6.98,61.57,90,5,M,30.17,M,10,M,OVC,   ,   ,   ,10000,M,M,M,M,M,M,M,M,M,M,9.72,KCXY 120200Z 09005KT 10SM OVC100 M08/M14 A3017 RMK SLPNO T10781139,M
CXY,1/12/96 3:00,17.96,7.88,64.13,110,5,M,30.15,M,10,M,BKN,OVC,   ,   ,5000,10000,M,M,M,M,M,M,M,M,M,9.72,KCXY 120300Z 11005KT 10SM BKN050 OVC100 M08/M13 A3015 RMK SLPNO T10781134,M
CXY,1/12/96 11:00,17.96,8.96,67.33,110,5,M,29.99,M,7,M,OVC,   ,   ,   ,6000,M,M,M,M,M,M,M,M,M,M,9.72,KCXY 121100Z 11005KT 7SM OVC060 M08/M13 A2999 RMK SLPNO T10781128,M
CXY,1/12/96 12:00,16.88,5.9,61.42,90,5,M,29.97,M,1.75,M,OVC,   ,   ,   ,2000,M,M,M,#NAME?,M,M,M,M,M,M,8.44,KCXY 121200Z 09005KT 13/4SM -SN OVC020 M08/M15 A2997 RMK SLPNO T10841145,M
CXY,1/12/96 13:00,16.88,14,88.21,50,6,M,29.96,M,0.75,M,OVC,   ,   ,   ,600,M,M,M,#NAME?,M,M,M,M,M,M,7.32,KCXY 121300Z 05006KT 3/4SM -SN FG OVC006 M08/M10 A2996 RMK R08VV5/8; SLPNO T10841100,M
CXY,1/12/96 14:00,16.88,14,88.21,50,8,M,29.92,M,0.25,M,OVC,   ,   ,   ,300,M,M,M,SN FG,M,M,M,M,M,M,5.49,KCXY 121400Z 05008KT 1/4SM SN FG OVC003 M08/M10 A2992 RMK R8VV1/4; SLPNO T10841100,M
CXY,1/12/96 15:00,18.86,15.98,88.32,10,8,M,29.86,M,0.25,M,OVC,   ,   ,   ,400,M,M,M,SN FG,M,M,M,M,M,M,7.93,KCXY 121500Z 01008KT 1/4SM SN FG OVC004 M07/M09 A2986 RMK SLPNO T10731089,M
CXY,1/13/96 11:00,24.98,15.98,68.2,310,15,M,29.75,M,10,M,CLR,   ,   ,   ,M,M,M,M,M,M,M,M,M,M,M,11.68,KCXY 131100Z 31015KT 10SM CLR M04/M09 A2975 RMK SLPNO T10391089,M
CXY,1/13/96 12:00,24.98,15.98,68.2,290,10,M,29.77,M,7,M,CLR,   ,   ,   ,M,M,M,M,M,M,M,M,M,M,M,14.16,KCXY 131200Z 29010KT 7SM CLR M04/M09 A2977 RMK SLPNO T10391089,M
CXY,1/13/96 13:00,20.84,14,74.45,310,10,M,29.79,M,7,M,CLR,   ,   ,   ,M,M,M,M,M,M,M,M,M,M,M,8.97,KCXY 131300Z 31010KT 7SM CLR M06/M10 A2979 RMK SLPNO T10621100,M
CXY,1/13/96 16:00,32,20.84,63.02,310,12,M,29.83,M,10,M,OVC,   ,   ,   ,3000,M,M,M,M,M,M,M,M,M,M,22,KCXY 131600Z 31012KT 10SM OVC030 00/M06 A2983 RMK SLPNO T00001062,M
CXY,1/13/96 17:00,32.9,20.84,60.78,310,15,M,29.79,M,10,M,OVC,   ,   ,   ,3000,M,M,M,M,M,M,M,M,M,M,21.95,KCXY 131700Z 31015KT 10SM OVC030 01/M06 A2979 RMK SLPNO T00051062,M
CXY,1/13/96 19:00,34.88,23,61.52,280,13,M,29.77,M,10,20,SCT,   ,   ,   ,3000,M,M,M,M,M,M,M,M,M,M,25.26,KCXY 131900Z 28013G20KT 10SM SCT030 02/M05 A2977 RMK SLPNO T00161050,M
CXY,1/13/96 21:00,34.88,23.9,63.89,310,15,M,29.77,M,10,M,BKN,   ,   ,   ,2400,M,M,M,M,M,M,M,M,M,M,24.51,KCXY 132100Z 31015KT 10SM BKN024 02/M05 A2977 RMK SLPNO T00161045,M
CXY,1/13/96 22:00,33.98,23.9,66.22,310,9,M,29.78,M,10,M,SCT,BKN,   ,   ,3000,8000,M,M,M,M,M,M,M,M,M,25.98,KCXY 132200Z 31009KT 10SM SCT030 BKN080 01/M05 A2978 RMK SLPNO T00111045,M
CXY,1/13/96 23:00,33.98,24.98,69.28,320,14,M,29.83,M,7,M,BKN,BKN,   ,   ,4000,7000,M,M,M,M,M,M,M,M,M,23.71,KCXY 132300Z 32014KT 7SM BKN040 BKN070 01/M04 A2983 RMK SLPNO T00111039,M
CXY,1/14/96 0:00,30.92,23,72.12,270,8,M,29.84,M,7,M,BKN,   ,   ,   ,4000,M,M,M,M,M,M,M,M,M,M,22.78,KCXY 140000Z 27008KT 7SM BKN040 M01/M05 A2984 RMK SLPNO T10061050,M
CXY,1/14/96 1:00,28.94,23,78.18,260,7,M,29.86,M,7,M,BKN,OVC,   ,   ,2700,3500,M,M,M,M,M,M,M,M,M,21.05,KCXY 140100Z 26007KT 7SM BKN027 OVC035 M02/M05 A2986 RMK SLPNO T10171050,M
CXY,1/14/96 2:00,33.98,25.88,71.92,320,12,M,29.9,M,7,M,OVC,   ,   ,   ,2500,M,M,M,M,M,M,M,M,M,M,24.52,KCXY 140200Z 32012KT 7SM OVC025 01/M03 A2990 RMK SLPNO T00111034,M
CXY,1/14/96 3:00,32.9,25.88,75.09,320,16,M,29.92,M,7,M,OVC,   ,   ,   ,2000,M,M,M,M,M,M,M,M,M,M,21.59,KCXY 140300Z 32016KT 7SM OVC020 01/M03 A2992 RMK LAST; SLPNO T00051034,M
CXY,1/14/96 11:00,21.92,17.96,84.47,350,5,M,29.99,M,10,M,CLR,   ,   ,   ,M,M,M,M,M,M,M,M,M,M,M,14.42,KCXY 141100Z 35005KT 10SM CLR M06/M08 A2999 RMK SLPNO T10561078,M
CXY,1/14/96 12:00,20.84,16.88,84.39,50,5,M,30,M,10,M,SCT,   ,   ,   ,25000,M,M,M,M,M,M,M,M,M,M,13.14,KCXY 141200Z 05005KT 10SM SCT250 M06/M08 A3000 RMK SLPNO T10621084,M
CXY,1/14/96 13:00,16.88,12.92,84.12,60,5,M,30,M,10,M,SCT,   ,   ,   ,25000,M,M,M,M,M,M,M,M,M,M,8.44,KCXY 141300Z 06005KT 10SM SCT250 M08/M11 A3000 RMK SLPNO T10841106,M
CXY,1/14/96 14:00,23.9,20.84,87.9,0,0,M,30,M,10,M,BKN,   ,   ,   ,25000,M,M,M,M,M,M,M,M,M,M,23.9,KCXY 141400Z 00000KT 10SM BKN250 M05/M06 A3000 RMK SLPNO T10451062,M
CXY,1/14/96 15:00,26.96,20.84,77.41,0,0,M,30.01,M,10,M,BKN,   ,   ,   ,15000,M,M,M,M,M,M,M,M,M,M,26.96,KCXY 141500Z 00000KT 10SM BKN150 M03/M06 A3001 RMK SLPNO T10281062,M
CXY,1/14/96 16:00,34.88,24.98,66.83,0,0,M,29.98,M,10,M,BKN,   ,   ,   ,15000,M,M,M,M,M,M,M,M,M,M,34.88,KCXY 141600Z 00000KT 10SM BKN150 02/M04 A2998 RMK SLPNO T00161039,M
CXY,1/14/96 17:00,38.84,25.88,59.35,230,10,M,29.95,M,10,M,OVC,   ,   ,   ,15000,M,M,M,M,M,M,M,M,M,M,31.55,KCXY 141700Z 23010KT 10SM OVC150 04/M03 A2995 RMK SLPNO T00381034,M
CXY,1/14/96 18:00,38.84,26.96,62.06,190,14,M,29.92,M,10,M,BKN,   ,   ,   ,15000,M,M,M,M,M,M,M,M,M,M,29.98,KCXY 141800Z 19014KT 10SM BKN150 04/M03 A2992 RMK SLPNO T00381028,M
CXY,1/14/96 19:00,41,26.96,57.06,230,10,M,29.88,M,10,M,BKN,   ,   ,   ,15000,M,M,M,M,M,M,M,M,M,M,34.25,KCXY 141900Z 23010KT 10SM BKN150 05/M03 A2988 RMK SLPNO T00501028,M
CXY,1/14/96 20:00,41.9,27.86,57.19,230,9,M,29.88,M,10,M,BKN,   ,   ,   ,15000,M,M,M,M,M,M,M,M,M,M,35.82,KCXY 142000Z 23009KT 10SM BKN150 06/M02 A2988 RMK SLPNO T00551023,M
CXY,1/14/96 21:00,41.9,26.96,55.11,190,7,M,29.87,M,10,M,BKN,   ,   ,   ,15000,M,M,M,M,M,M,M,M,M,M,36.85,KCXY 142100Z 19007KT 10SM BKN150 06/M03 A2987 RMK SLPNO T00551028,M
CXY,1/14/96 22:00,39.92,26.96,59.5,260,8,M,29.87,M,15,M,BKN,   ,   ,   ,15000,M,M,M,M,M,M,M,M,M,M,33.87,KCXY 142200Z 26008KT 15SM BKN150 04/M03 A2987 RMK SLPNO T00441028,M
CXY,1/14/96 23:00,35.96,25.88,66.47,320,5,M,29.88,M,15,M,SCT,SCT,   ,   ,5000,15000,M,M,M,M,M,M,M,M,M,31.1,KCXY 142300Z 32005KT 15SM SCT050 SCT150 02/M03 A2988 RMK SLPNO T00221034,M
CXY,1/15/96 0:00,35.96,25.88,66.47,300,8,M,29.88,M,15,M,SCT,   ,   ,   ,15000,M,M,M,M,M,M,M,M,M,M,28.99,KCXY 150000Z 30008KT 15SM SCT150 02/M03 A2988 RMK SLPNO T00221034,M
CXY,1/15/96 1:00,25.88,21.92,84.73,290,4,M,29.89,M,15,M,CLR,   ,   ,   ,M,M,M,M,M,M,M,M,M,M,M,20.27,KCXY 150100Z 29004KT 15SM CLR M03/M06 A2989 RMK SLPNO T10341056,M
CXY,1/15/96 2:00,27.86,24.98,88.77,240,6,M,29.9,M,15,M,SCT,   ,   ,   ,14000,M,M,M,M,M,M,M,M,M,M,20.54,KCXY 150200Z 24006KT 15SM SCT140 M02/M04 A2990 RMK SLPNO T10231039,M
CXY,1/15/96 3:00,21.92,19.94,91.94,0,0,M,29.91,M,10,M,BKN,   ,   ,   ,14000,M,M,M,M,M,M,M,M,M,M,21.92,KCXY 150300Z 00000KT 10SM BKN140 M06/M07 A2991 RMK LAST; SLPNO T10561067,M
CXY,1/15/96 11:00,20.84,17.96,88.42,240,5,M,30.04,M,4,M,SCT,SCT,   ,   ,10000,20000,M,M,FG,M,M,M,M,M,M,13.14,KCXY 151100Z 24005KT 4SM FG SCT100 SCT200 M06/M08 A3004 RMK SLPNO T10621078,M
CXY,1/15/96 12:00,19.94,16.88,87.69,180,5,M,30.08,M,4,M,BKN,   ,   ,   ,15000,M,M,M,FG,M,M,M,M,M,M,12.07,KCXY 151200Z 18005KT 4SM FG BKN150 M07/M08 A3008 RMK SLPNO T10671084,M
CXY,1/15/96 13:00,23.9,21.92,92.01,310,6,M,30.13,M,3,M,BKN,OVC,   ,   ,3000,10000,M,M,FG,M,M,M,M,M,M,15.77,KCXY 151300Z 31006KT 3SM FG BKN030 OVC100 M05/M06 A3013 RMK SLPNO T10451056,M
CXY,1/15/96 14:00,36.86,30.92,78.87,330,10,M,30.17,M,5,M,OVC,   ,   ,   ,3000,M,M,M,FG,M,M,M,M,M,M,29.06,KCXY 151400Z 33010KT 5SM FG OVC030 03/M01 A3017 RMK SLPNO T00271006,M
CXY,1/15/96 15:00,39.92,29.84,66.96,330,10,M,30.2,M,7,M,BKN,   ,   ,   ,3000,M,M,M,M,M,M,M,M,M,M,32.9,KCXY 151500Z 33010KT 7SM BKN030 04/M01 A3020 RMK SLPNO T00441012,M
CXY,1/15/96 17:00,39.92,29.84,66.96,360,12,M,30.26,M,15,M,BKN,   ,   ,   ,3000,M,M,M,M,M,M,M,M,M,M,32.08,KCXY 151700Z 36012KT 15SM BKN030 04/M01 A3026 RMK SLPNO T00441012,M
CXY,1/15/96 19:00,39.92,23.9,52.4,360,10,M,30.31,M,20,M,SCT,   ,   ,   ,5000,M,M,M,M,M,M,M,M,M,M,32.9,KCXY 151900Z 36010KT 20SM SCT050 04/M05 A3031 RMK SLPNO T00441045,M
CXY,1/15/96 20:00,37.94,19.94,47.89,360,15,M,30.34,M,20,M,CLR,   ,   ,   ,M,M,M,M,M,M,M,M,M,M,M,28.48,KCXY 152000Z 36015KT 20SM CLR 03/M07 A3034 RMK SLPNO T00331067,M
CXY,1/15/96 21:00,35.96,17.96,47.57,360,10,M,30.38,M,20,M,CLR,   ,   ,   ,M,M,M,M,M,M,M,M,M,M,M,27.93,KCXY 152100Z 36010KT 20SM CLR 02/M08 A3038 RMK SLPNO T00221078,M
CXY,1/15/96 22:00,32.9,14,45.25,360,10,M,30.41,M,20,M,CLR,   ,   ,   ,M,M,M,M,M,M,M,M,M,M,M,24.1,KCXY 152200Z 36010KT 20SM CLR 01/M10 A3041 RMK SLPNO T00051100,M
CXY,1/15/96 23:00,29.84,5,34.22,20,7,M,30.46,M,15,M,CLR,   ,   ,   ,M,M,M,M,M,M,M,M,M,M,M,22.15,KCXY 152300Z 02007KT 15SM CLR M01/M15 A3046 RMK PRESRR; SLPNO T10121150,M
CXY,1/16/96 0:00,26.96,-2.02,27.77,100,7,M,30.49,M,10,M,CLR,   ,   ,   ,M,M,M,M,M,M,M,M,M,M,M,18.64,KCXY 160000Z 10007KT 10SM CLR M03/M19 A3049 RMK SLPNO T10281189,M
CXY,1/16/96 1:00,23.9,-0.04,34.62,80,7,M,30.53,M,15,M,SCT,   ,   ,   ,22000,M,M,M,M,M,M,M,M,M,M,14.91,KCXY 160100Z 08007KT 15SM SCT220 M05/M18 A3053 RMK SLPNO T10451178,M
CXY,1/16/96 2:00,21.92,0.86,39.24,80,7,M,30.55,M,15,M,SCT,   ,   ,   ,22000,M,M,M,M,M,M,M,M,M,M,12.49,KCXY 160200Z 08007KT 15SM SCT220 M06/M17 A3055 RMK SLPNO T10561173,M
CXY,1/16/96 3:00,17.96,0.86,46.46,60,5,M,30.56,M,15,M,CLR,   ,   ,   ,M,M,M,M,M,M,M,M,M,M,M,9.72,KCXY 160300Z 06005KT 15SM CLR M08/M17 A3056 RMK SLPNO T10781173,M
CXY,1/16/96 11:00,16.88,2.84,53.36,80,6,M,30.58,M,10,M,OVC,   ,   ,   ,5000,M,M,M,M,M,M,M,M,M,M,7.32,KCXY 161100Z 08006KT 10SM OVC050 M08/M16 A3058 RMK SLPNO T10841162,M
CXY,1/16/96 12:00,15.98,1.94,53.22,80,8,M,30.59,M,10,M,BKN,   ,   ,   ,5000,M,M,M,M,M,M,M,M,M,M,4.38,KCXY 161200Z 08008KT 10SM BKN050 M09/M17 A3059 RMK SLPNO T10891167,M
CXY,1/16/96 13:00,16.88,1.94,51.18,80,7,M,30.61,M,15,M,SCT,OVC,   ,   ,3000,5000,M,M,M,M,M,M,M,M,M,6.35,KCXY 161300Z 08007KT 15SM SCT030 OVC050 M08/M17 A3061 RMK SLPNO T10841167,M
CXY,1/16/96 14:00,16.88,-0.04,46.66,M,M,M,30.61,M,15,M,OVC,   ,   ,   ,5000,M,M,M,M,M,M,M,M,M,M,M,KCXY 161400Z /////KT 15SM OVC050 M08/M18 A3061 RMK 7/061; SLPNO T10841178,M
CXY,1/16/96 15:00,17.96,0.86,46.46,80,7,M,30.6,M,15,M,BKN,OVC,   ,   ,3500,5000,M,M,M,M,M,M,M,M,M,7.67,KCXY 161500Z 08007KT 15SM BKN035 OVC050 M08/M17 A3060 RMK SLPNO T10781173,M
CXY,1/16/96 16:00,18.86,2.84,49,80,6,M,30.6,M,15,M,BKN,OVC,   ,   ,3000,5000,M,M,M,M,M,M,M,M,M,9.7,KCXY 161600Z 08006KT 15SM BKN030 OVC050 M07/M16 A3060 RMK SLPNO T10731162,M
CXY,1/16/96 17:00,19.94,3.92,49.19,80,5,M,30.56,M,15,M,OVC,   ,   ,   ,3000,M,M,M,M,M,M,M,M,M,M,12.07,KCXY 161700Z 08005KT 15SM OVC030 M07/M16 A3056 RMK SLPNO T10671156,M
CXY,1/16/96 18:00,20.84,5,49.74,90,5,M,30.52,M,15,M,BKN,OVC,   ,   ,1800,3000,M,M,M,M,M,M,M,M,M,13.14,KCXY 161800Z 09005KT 15SM BKN018 OVC030 M06/M15 A3052 RMK SLPNO T10621150,M
CXY,1/16/96 19:00,21.92,6.98,52.01,70,7,M,30.48,M,15,M,OVC,   ,   ,   ,1500,M,M,M,M,M,M,M,M,M,M,12.49,KCXY 161900Z 07007KT 15SM OVC015 M06/M14 A3048 RMK SLPNO T10561139,M
CXY,1/16/96 20:00,21.92,8.96,56.87,100,7,M,30.46,M,15,M,OVC,   ,   ,   ,1500,M,M,M,M,M,M,M,M,M,M,12.49,KCXY 162000Z 10007KT 15SM OVC015 M06/M13 A3046 RMK SLPNO T10561128,M
CXY,1/16/96 21:00,21.92,8.96,56.87,80,8,M,30.44,M,15,M,BKN,OVC,   ,   ,2500,4000,M,M,M,M,M,M,M,M,M,11.7,KCXY 162100Z 08008KT 15SM BKN025 OVC040 M06/M13 A3044 RMK SLPNO T10561128,M
CXY,1/16/96 22:00,20.84,15.98,81.17,110,10,M,30.43,M,2,M,OVC,   ,   ,   ,1100,M,M,M,FG,M,M,M,M,M,M,8.97,KCXY 162200Z 11010KT 2SM FG OVC011 M06/M09 A3043 RMK CIG 9V11; SLPNO T10621089,M
CXY,1/16/96 23:00,20.84,14,74.45,90,7,M,30.42,M,2,M,OVC,   ,   ,   ,700,M,M,M,FG,M,M,M,M,M,M,11.18,KCXY 162300Z 09007KT 2SM FG OVC007 M06/M10 A3042 RMK SLPNO T10621100,M
CXY,1/17/96 0:00,20.84,14.9,77.44,110,6,M,30.41,M,3,M,OVC,   ,   ,   ,900,M,M,M,FG,M,M,M,M,M,M,12.09,KCXY 170000Z 11006KT 3SM FG OVC009 M06/M10 A3041 RMK SLPNO T10621095,M
CXY,1/17/96 1:00,21.92,17.96,84.47,110,7,M,30.4,M,4,M,OVC,   ,   ,   ,1000,M,M,M,FG,M,M,M,M,M,M,12.49,KCXY 170100Z 11007KT 4SM FG OVC010 M06/M08 A3040 RMK SLPNO T10561078,M
CXY,1/17/96 2:00,21.92,17.96,84.47,120,6,M,30.38,M,2.5,M,OVC,   ,   ,   ,900,M,M,M,SG FG,M,M,M,M,M,M,13.39,KCXY 170200Z 12006KT 21/2SM SG FG OVC009 M06/M08 A3038 RMK SLPNO T10561078,M
CXY,1/17/96 3:00,21.92,17.96,84.47,90,5,M,30.36,M,1.5,M,OVC,   ,   ,   ,900,M,M,M,SG FG,M,M,M,M,M,M,14.42,KCXY 170300Z 09005KT 11/2SM SG FG OVC009 M06/M08 A3036 RMK LAST; SLPNO T10561078,M
CXY,1/17/96 11:00,25.88,23.9,92.08,120,7,M,30.22,M,0.75,M,OVC,   ,   ,   ,100,M,M,M,#NAME?,M,M,M,M,M,M,17.32,KCXY 171100Z 12007KT 3/4SM -FZDZ FG OVC001 M03/M05 A3022 RMK SLPNO T10341045,M
CXY,1/17/96 12:00,25.88,23.9,92.08,140,5,M,30.23,M,0.75,M,OVC,   ,   ,   ,100,M,M,M,#NAME?,M,M,M,M,M,M,19.13,KCXY 171200Z 14005KT 3/4SM -FZDZ FG OVC001 M03/M05 A3023 RMK SLPNO T10341045,M
CXY,1/17/96 13:00,25.88,24.98,96.33,120,5,M,30.24,M,1.25,M,OVC,   ,   ,   ,500,M,M,M,#NAME?,M,M,M,M,M,M,19.13,KCXY 171300Z 12005KT 11/4SM -FZDZ FG OVC005 M03/M04 A3024 RMK R8VV7/8; SLPNO T10341039,M
CXY,1/17/96 14:00,26.96,25.88,95.63,130,4,M,30.26,M,1.25,M,OVC,   ,   ,   ,500,M,M,M,FG,M,M,M,M,M,M,21.53,KCXY 171400Z 13004KT 11/4SM FG OVC005 M03/M03 A3026 RMK R8RVV7/8; SLPNO T10281034,M
CXY,1/17/96 15:00,28.94,26.96,92.19,140,6,M,30.27,M,1.25,M,OVC,OVC,   ,   ,M,1000,M,M,FG,M,M,M,M,M,M,21.84,KCXY 171500Z 14006KT 11/4SM FG OVC/// OVC010 M02/M03 A3027 RMK F6 R08RVV7/8; SLPNO T10171028,M
CXY,1/17/96 16:00,30.92,27.86,88.26,130,6,M,30.27,M,1.25,M,OVC,BKN,   ,   ,M,6000,M,M,FG,M,M,M,M,M,M,24.23,KCXY 171600Z 13006KT 11/4SM FG OVC/// BKN060 M01/M02 A3027 RMK FE R08RVV1; SLPNO T10061023,M
CXY,1/17/96 17:00,32.9,29.84,88.36,150,6,M,30.26,M,1.25,M,OVC,OVC,   ,   ,M,6000,M,M,FG,M,M,M,M,M,M,26.61,KCXY 171700Z 15006KT 11/4SM FG OVC/// OVC060 01/M01 A3026 RMK F3 R8RVV1; SLPNO T00051012,M
CXY,1/17/96 18:00,35.96,30.92,81.72,140,7,M,30.24,M,2,M,OVC,BKN,   ,   ,M,7000,M,M,FG,M,M,M,M,M,M,29.61,KCXY 171800Z 14007KT 2SM FG OVC/// BKN070 02/M01 A3024 RMK F3 R8RVV13/8; SLPNO T00221006,M
CXY,1/17/96 19:00,36.9,30.9,78.68,90,7.04,M,30.24,M,2,M,   ,   ,   ,   ,M,M,M,M,M,M,M,M,M,M,M,30.72,KCXY 171900Z 09007KT 2SM FGDZ OVC/// BKN060 03/M01 A3024 RMK FH3; SLPNO T00271006,M
CXY,1/17/96 20:00,37.9,32,79.08,120,7.04,M,30.24,M,2,M,   ,   ,   ,   ,M,M,M,M,M,M,M,M,M,M,M,31.94,KCXY 172000Z 12007KT 2SM FGDZ OVC/// BKN100 03/00 A3024 RMK FH3; SLPNO T00330000,M
CXY,1/17/96 21:00,37.9,32,79.08,90,6,M,30.25,M,2,M,   ,   ,   ,   ,M,M,M,M,M,M,M,M,M,M,M,32.64,KCXY 172100Z 08006KT 2SM FGDZ OVC/// BKN150 03/00 A3025 RMK FH3; SLPNO T00330000,M
CXY,1/17/96 22:00,37.9,32,79.08,120,7.04,M,30.27,M,5.5,M,   ,   ,   ,   ,M,M,M,M,M,M,M,M,M,M,M,31.94,KCXY 172200Z 12007KT 11/2SM FGDZ OVC/// OVC120 03/00 A3027 RMK FH3 R08VV11/8; SLPNO T00330000,M
CXY,1/17/96 23:00,36.9,32,82.25,90,7.04,M,30.29,M,2,M,   ,   ,   ,   ,M,M,M,M,M,M,M,M,M,M,M,30.72,KCXY 172300Z 10007KT 2SM FGDZ OVC/// BKN120 03/00 A3029 RMK FH3; SLPNO T00270000,M
CXY,1/18/96 0:00,35.96,32,85.37,100,6,M,30.31,M,2,M,OVC,SCT,BKN,   ,M,1500,10000,M,FG,M,M,M,M,M,M,30.3,KCXY 180000Z 10006KT 2SM FG OVC/// SCT015 BKN100 02/00 A3031 RMK F3; SLPNO T00220000,M
CXY,1/18/96 1:00,34.88,32,89.11,120,5,M,30.31,M,2,M,OVC,OVC,   ,   ,M,10000,M,M,FG,M,M,M,M,M,M,29.82,KCXY 180100Z 12005KT 2SM FG OVC/// OVC100 02/00 A3031 RMK F3; SLPNO T00160000,M
CXY,1/18/96 2:00,34.88,32,89.11,90,5,M,30.32,M,2,M,OVC,OVC,   ,   ,M,10000,M,M,FG,M,M,M,M,M,M,29.82,KCXY 180200Z 09005KT 2SM FG OVC/// OVC100 02/00 A3032 RMK SLPNO T00160000,M
CXY,1/18/96 3:00,32.9,32,96.44,120,5,M,30.33,M,2,M,OVC,OVC,   ,   ,M,10000,M,M,FG,M,M,M,M,M,M,27.46,KCXY 180300Z 12005KT 2SM FG OVC/// OVC100 01/00 A3033 RMK SLPNO T00050000,M
CXY,1/18/96 11:00,34.88,32.9,92.39,110,5,M,30.33,M,2,M,OVC,OVC,   ,   ,M,2500,M,M,#NAME?,M,M,M,M,M,M,29.82,KCXY 181100Z 11005KT 2SM -DZ FG OVC/// OVC025 02/01 A3033 RMK F4; SLPNO T00160005,M
CXY,1/18/96 12:00,34.88,32.9,92.39,120,5,M,30.34,M,2,M,OVC,OVC,   ,   ,M,1700,M,M,FG,M,M,M,M,M,M,29.82,KCXY 181200Z 12005KT 2SM FG OVC/// OVC017 02/01 A3034 RMK F3; SLPNO T00160005,M
CXY,1/18/96 13:00,34.88,33.98,96.48,140,5,M,30.35,M,1,M,OVC,BKN,OVC,   ,M,600,1000,M,FG,M,M,M,M,M,M,29.82,KCXY 181300Z 14005KT 1SM FG OVC/// BKN006 OVC010 02/01 A3035 RMK F3; SLPNO T00160011,M
CXY,1/18/96 14:00,34.88,34.88,100,110,8,M,30.35,M,0.25,M,OVC,   ,   ,   ,200,M,M,M,FG,M,M,M,M,M,M,27.66,KCXY 181400Z 11008KT 1/4SM FG OVC002 02/02 A3035 RMK R08VV1/4; SLPNO T00160016,M
CXY,1/18/96 15:00,35.96,35.96,100,120,8,M,30.36,M,0,M,OVC,   ,   ,   ,M,M,M,M,FG,M,M,M,M,M,M,28.99,KCXY 181500Z 12008KT 0SM FG OVC/// 02/02 A3036 RMK R08VV1/8; SLPNO T00220022,M
CXY,1/18/96 16:00,35.96,35.96,100,110,8,M,30.33,M,0,M,OVC,   ,   ,   ,M,M,M,M,FG,M,M,M,M,M,M,28.99,KCXY 181600Z 11008KT 0SM FG OVC/// 02/02 A3033 RMK R08VV0; SLPNO T00220022,M
CXY,1/18/96 17:00,36.86,36.86,100,120,7,M,30.3,M,0,M,OVC,   ,   ,   ,M,M,M,M,FG,M,M,M,M,M,M,30.7,KCXY 181700Z 12007KT 0SM FG OVC/// 03/03 A3030 RMK R08VV0; SLPNO T00270027,M
CXY,1/18/96 18:00,37.94,36.86,95.84,150,8,M,30.26,M,0,M,OVC,   ,   ,   ,M,M,M,M,FG,M,M,M,M,M,M,31.43,KCXY 181800Z 15008KT 0SM FG OVC/// 03/03 A3026 RMK R08VV000; SLPNO T00330027,M
CXY,1/18/96 19:00,36.86,36.86,100,130,8,M,30.23,M,0,M,OVC,   ,   ,   ,M,M,M,M,FG,M,M,M,M,M,M,30.1,KCXY 181900Z 13008KT 0SM FG OVC/// 03/03 A3023 RMK R08VV0; SLPNO T00270027,M
CXY,1/18/96 20:00,36.86,36.86,100,120,6,M,30.2,M,0,M,OVC,   ,   ,   ,M,M,M,M,FG,M,M,M,M,M,M,31.38,KCXY 182000Z 12006KT 0SM FG OVC/// 03/03 A3020 RMK SLPNO T00270027,M
CXY,1/18/96 21:00,37.94,37.94,100,110,5,M,30.18,M,0,M,OVC,   ,   ,   ,M,M,M,M,FG,M,M,M,M,M,M,33.45,KCXY 182100Z 11005KT 0SM FG OVC/// 03/03 A3018 RMK SLPNO T00330033,M
CXY,1/18/96 22:00,36.86,36.86,100,180,8,M,30.14,M,0,M,OVC,   ,   ,   ,M,M,M,M,FG,M,M,M,M,M,M,30.1,KCXY 182200Z 18008KT 0SM FG OVC/// 03/03 A3014 RMK SLPNO T00270027,M
CXY,1/18/96 23:00,36.86,36.86,100,130,8,M,30.11,M,0,M,OVC,   ,   ,   ,M,M,M,M,FG,M,M,M,M,M,M,30.1,KCXY 182300Z 13008KT 0SM FG OVC/// 03/03 A3011 RMK R8VV0; SLPNO T00270027,M
CXY,1/19/96 0:00,36.86,36.86,100,150,6,M,30.1,M,0,M,OVC,   ,   ,   ,M,M,M,M,FG,M,M,M,M,M,M,31.38,KCXY 190000Z 15006KT 0SM FG OVC/// 03/03 A3010 RMK SLPNO T00270027,M
CXY,1/19/96 1:00,36.86,36.86,100,140,6,M,30.08,M,0.5,M,OVC,   ,   ,   ,200,M,M,M,FG,M,M,M,M,M,M,31.38,KCXY 190100Z 14006KT 1/2SM FG OVC002 03/03 A3008 RMK SLPNO T00270027,M
CXY,1/19/96 2:00,38.84,38.84,100,170,8,M,30.03,M,0.5,M,OVC,   ,   ,   ,400,M,M,M,FG,M,M,M,M,M,M,32.54,KCXY 190200Z 17008KT 1/2SM FG OVC004 04/04 A3003 RMK SLPNO T00380038,M
CXY,1/19/96 3:00,41.9,41.9,100,150,6,M,29.97,M,0.25,M,OVC,   ,   ,   ,400,M,M,M,#NAME?,M,M,M,M,M,M,37.45,KCXY 190300Z 15006KT 1/4SM -DZ FG OVC004 06/06 A2997 RMK SLPNO T00550055,M
CXY,1/19/96 11:00,54.86,53.96,96.77,120,20,M,29.57,M,3,30,OVC,   ,   ,   ,700,M,M,M,#NAME?,M,M,M,M,M,M,54.86,KCXY 191100Z 12020G30KT 3SM -RA FG OVC007 13/12 A2957 RMK SLPNO T01270122,M
CXY,1/19/96 12:00,54.86,53.96,96.77,150,20,M,29.54,M,3,30,OVC,   ,   ,   ,900,M,M,M,#NAME?,M,M,M,M,M,M,54.86,KCXY 191200Z 15020G30KT 3SM -RA FG OVC009 13/12 A2954 RMK CIGRGD; SLPNO T01270122,M
CXY,1/19/96 13:00,55.94,53.96,93.05,160,20,M,29.5,M,3,30,OVC,   ,   ,   ,1300,M,M,M,#NAME?,M,M,M,M,M,M,55.94,KCXY 191300Z 16020G30KT 3SM -RA FG OVC013 13/12 A2950 RMK CIG RGD; SLPNO T01330122,M
CXY,1/19/96 16:00,51.98,50.9,96.09,240,20,M,29.43,M,0.5,M,OVC,   ,   ,   ,900,M,M,M,#NAME?,M,M,M,M,M,M,51.98,KCXY 191600Z 24020KT 1/2SM -TSRA OVC009 11/11 A2943 RMK SLPNO T01110105,M
CXY,1/19/96 17:00,47.84,47.84,100,280,8,M,29.36,M,1,M,OVC,OVC,   ,   ,M,1100,M,M,#NAME?,M,M,M,M,M,M,43.63,KCXY 191700Z 28008KT 1SM -RA FG OVC/// OVC011 09/09 A2936 RMK PRESFR RY08VV1 TE38 F4; SLPNO T00880088,M
CXY,1/19/96 18:00,45.86,44.96,96.64,290,20,M,29.37,M,4,M,SCT,OVC,   ,   ,500,3000,M,M,#NAME?,M,M,M,M,M,M,37.55,KCXY 191800Z 29020KT 4SM -RA FG SCT005 OVC030 08/07 A2937 RMK SLPNO T00770072,M
CXY,1/19/96 19:00,37.94,28.94,69.73,320,20,M,29.52,M,15,M,SCT,BKN,OVC,   ,1800,2500,4000,M,M,M,M,M,M,M,M,27.03,KCXY 191900Z 32020KT 15SM SCT018 BKN025 OVC040 03/M02 A2952 RMK SLPNO T00331017,M
CXY,1/19/96 20:25,34.88,24.98,66.83,310,20,M,29.59,M,7,M,SCT,OVC,   ,   ,900,4000,M,M,M,M,M,M,M,M,M,22.96,KCXY 192025Z 31020KT 7SM SCT009 OVC040 02/M04 A2959 RMK SLPNO T00161039,M
CXY,1/19/96 21:00,34.88,19.94,54.05,330,23,M,29.62,M,15,M,BKN,OVC,   ,   ,3000,5000,M,M,M,M,M,M,M,M,M,22.19,KCXY 192100Z 33023KT 15SM BKN030 OVC050 02/M07 A2962 RMK SLPNO T00161067,M
CXY,1/19/96 22:00,30.92,14,49.01,310,25,M,29.7,M,15,M,SCT,BKN,   ,   ,4000,10000,M,M,M,M,M,M,M,M,M,16.35,KCXY 192200Z 31025KT 15SM SCT040 BKN100 M01/M10 A2970 RMK SLPNO T10061100,M
CXY,1/19/96 23:00,24.98,5,41.8,310,28,M,29.81,M,15,M,BKN,   ,   ,   ,4000,M,M,M,M,M,M,M,M,M,M,7.52,KCXY 192300Z 31028KT 15SM BKN040 M04/M15 A2981 RMK SLPNO T10391150,M
CXY,1/20/96 0:00,23.9,1.94,37.97,300,28,M,29.9,M,15,M,BKN,   ,   ,   ,4000,M,M,M,M,M,M,M,M,M,M,6.05,KCXY 200000Z 30028KT 15SM BKN040 M05/M17 A2990 RMK SLPNO T10451167,M
CXY,1/20/96 1:00,20.84,2.84,45.04,310,20,M,30,M,15,30,BKN,   ,   ,   ,4000,M,M,M,M,M,M,M,35,310,M,4.32,KCXY 200100Z 31020G30KT 15SM BKN040 M06/M16 A3000 RMK PK WND 3135/40 PRESRR; SLPNO T10621162,M
CXY,1/20/96 2:00,19.94,5,51.68,320,25,M,30.07,M,10,35,BKN,   ,   ,   ,4000,M,M,M,M,M,M,M,45,320,M,1.49,KCXY 200200Z 32025G35KT 10SM BKN040 M07/M15 A3007 RMK PK WND 3245/50 PRESRR; SLPNO T10671150,M
CXY,1/20/96 13:00,14,5,66.82,280,8,M,30.43,M,15,M,SCT,   ,   ,   ,20000,M,M,M,M,M,M,M,M,M,M,1.94,KCXY 201300Z 28008KT 15SM SCT200 M10/M15 A3043 RMK SLPNO T11001150,M
CXY,1/20/96 14:00,15.98,5,61.29,310,8,M,30.46,M,15,M,BKN,   ,   ,   ,20000,M,M,M,M,M,M,M,M,M,M,4.38,KCXY 201400Z 31008KT 15SM BKN200 M09/M15 A3046 RMK SLPNO T10891150,M
CXY,1/20/96 15:00,19.94,5,51.68,320,10,M,30.5,M,20,M,BKN,   ,   ,   ,15000,M,M,M,M,M,M,M,M,M,M,7.84,KCXY 201500Z 32010KT 20SM BKN150 M07/M15 A3050 RMK SLPNO T10671150,M
CXY,1/20/96 18:00,23,5.9,47.31,350,10,M,30.48,M,20,M,BKN,   ,   ,   ,15000,M,M,M,M,M,M,M,M,M,M,11.68,KCXY 201800Z 35010KT 20SM BKN150 M05/M15 A3048 RMK SLPNO T10501145,M
CXY,1/20/96 19:00,23.9,6.98,47.85,190,8,M,30.48,M,20,M,SCT,   ,   ,   ,14000,M,M,M,M,M,M,M,M,M,M,14.14,KCXY 201900Z 19008KT 20SM SCT140 M05/M14 A3048 RMK SLPNO T10451139,M
CXY,1/20/96 22:00,23.9,6.98,47.85,220,8,M,30.5,M,20,M,SCT,   ,   ,   ,12000,M,M,M,M,M,M,M,M,M,M,14.14,KCXY 202200Z 22008KT 20SM SCT120 M05/M14 A3050 RMK SLPNO T10451139,M
CXY,1/20/96 23:00,21.92,7.88,54.17,280,6,M,30.51,M,20,M,BKN,   ,   ,   ,10000,M,M,M,M,M,M,M,M,M,M,13.39,KCXY 202300Z 28006KT 20SM BKN100 M06/M13 A3051 RMK SLPNO T10561134,M
CXY,1/21/96 0:00,19.94,10.94,67.58,290,6,M,30.51,M,10,M,SCT,   ,   ,   ,10000,M,M,M,M,M,M,M,M,M,M,11.01,KCXY 210000Z 29006KT 10SM SCT100 M07/M12 A3051 RMK SLPNO T10671117,M
CXY,1/21/96 1:00,15.98,9.86,76.36,280,7,M,30.51,M,8,M,SCT,   ,   ,   ,10000,M,M,M,M,M,M,M,M,M,M,5.25,KCXY 210100Z 28007KT 8SM SCT100 M09/M12 A3051 RMK SLPNO T10891123,M
CXY,1/21/96 2:00,15.98,10.94,80.13,240,6,M,30.51,M,8,M,CLR,   ,   ,   ,M,M,M,M,M,M,M,M,M,M,M,6.24,KCXY 210200Z 24006KT 8SM CLR M09/M12 A3051 RMK SLPNO T10891117,M
CXY,1/21/96 3:00,14.9,9.86,80.04,240,6,M,30.5,M,8,M,CLR,   ,   ,   ,M,M,M,M,M,M,M,M,M,M,M,4.94,KCXY 210300Z 24006KT 8SM CLR M10/M12 A3050 RMK LAST; SLPNO T10951123,M
CXY,1/21/96 11:00,15.98,11.84,83.39,160,8,M,30.52,M,10,M,BKN,   ,   ,   ,10000,M,M,M,M,M,M,M,M,M,M,4.38,KCXY 211100Z 16008KT 10SM BKN100 M09/M11 A3052 RMK SLPNO T10891112,M
CXY,1/21/96 12:00,18.86,11.84,73.65,90,8,M,30.5,M,10,M,BKN,   ,   ,   ,10000,M,M,M,M,M,M,M,M,M,M,7.93,KCXY 211200Z 09008KT 10SM BKN100 M07/M11 A3050 RMK SLPNO T10731112,M
CXY,1/21/96 13:00,19.94,11.84,70.33,90,5,M,30.5,M,10,M,OVC,   ,   ,   ,10000,M,M,M,M,M,M,M,M,M,M,12.07,KCXY 211300Z 09005KT 10SM OVC100 M07/M11 A3050 RMK SLPNO T10671112,M
CXY,1/21/96 14:00,19.94,12.92,73.77,90,5,M,30.5,M,7,M,OVC,   ,   ,   ,5000,M,M,M,M,M,M,M,M,M,M,12.07,KCXY 211400Z 09005KT 7SM OVC050 M07/M11 A3050 RMK SLPNO T10671106,M
CXY,1/21/96 16:00,23.9,14.9,68.07,270,5,M,30.51,M,5,M,OVC,   ,   ,   ,3000,M,M,M,FG,M,M,M,M,M,M,16.78,KCXY 211600Z 27005KT 5SM FG OVC030 M05/M10 A3051 RMK SLPNO T10451095,M
CXY,1/21/96 17:00,26.96,14,57.63,50,5,M,30.49,M,7,M,OVC,   ,   ,   ,3000,M,M,M,M,M,M,M,M,M,M,20.41,KCXY 211700Z 05005KT 7SM OVC030 M03/M10 A3049 RMK SLPNO T10281100,M
CXY,1/21/96 18:00,26.96,15.98,62.83,60,6,M,30.45,M,7,M,OVC,   ,   ,   ,3000,M,M,M,M,M,M,M,M,M,M,19.46,KCXY 211800Z 06006KT 7SM OVC030 M03/M09 A3045 RMK SLPNO T10281089,M
CXY,1/21/96 19:00,27.86,17.96,65.95,70,5,M,30.43,M,7,M,OVC,   ,   ,   ,3500,M,M,M,M,M,M,M,M,M,M,21.48,KCXY 211900Z 07005KT 7SM OVC035 M02/M08 A3043 RMK SLPNO T10231078,M
CXY,1/21/96 20:00,29.84,18.86,63.22,80,5,M,30.43,M,7,M,BKN,OVC,   ,   ,2500,3000,M,M,M,M,M,M,M,M,M,23.83,KCXY 212000Z 08005KT 7SM BKN025 OVC030 M01/M07 A3043 RMK SLPNO T10121073,M
CXY,1/21/96 21:00,27.86,17.96,65.95,80,5,M,30.42,M,7,M,BKN,   ,   ,   ,12000,M,M,M,M,M,M,M,M,M,M,21.48,KCXY 212100Z 08005KT 7SM BKN120 M02/M08 A3042 RMK SLPNO T10231078,M
CXY,1/21/96 22:00,27.86,18.86,68.55,130,5,M,30.43,M,7,M,CLR,   ,   ,   ,M,M,M,M,M,M,M,M,M,M,M,21.48,KCXY 212200Z 13005KT 7SM CLR M02/M07 A3043 RMK SLPNO T10231073,M
CXY,1/21/96 23:00,24.98,18.86,77.22,220,4,M,30.43,M,7,M,CLR,   ,   ,   ,M,M,M,M,M,M,M,M,M,M,M,19.22,KCXY 212300Z 22004KT 7SM CLR M04/M07 A3043 RMK SLPNO T10391073,M
CXY,1/22/96 0:00,20.84,17.96,88.42,360,4,M,30.45,M,7,M,CLR,   ,   ,   ,M,M,M,M,M,M,M,M,M,M,M,14.39,KCXY 220000Z 36004KT 7SM CLR M06/M08 A3045 RMK SLPNO T10621078,M
CXY,1/22/96 1:00,20.84,17.96,88.42,250,4,M,30.47,M,5,M,CLR,   ,   ,   ,M,M,M,M,FG,M,M,M,M,M,M,14.39,KCXY 220100Z 25004KT 5SM FG CLR M06/M08 A3047 RMK SLPNO T10621078,M
CXY,1/22/96 2:00,18.86,16.88,91.83,260,7,M,30.48,M,4,M,CLR,   ,   ,   ,M,M,M,M,FG,M,M,M,M,M,M,8.76,KCXY 220200Z 26007KT 4SM FG CLR M07/M08 A3048 RMK SLPNO T10731084,M
CXY,1/22/96 3:00,17.96,15.98,91.8,270,6,M,30.48,M,4,M,CLR,   ,   ,   ,M,M,M,M,FG,M,M,M,M,M,M,8.62,KCXY 220300Z 27006KT 4SM FG CLR M08/M09 A3048 RMK LAST; SLPNO T10781089,M
CXY,1/22/96 11:00,14,6.98,73.13,290,7,M,30.49,M,3,M,CLR,   ,   ,   ,M,M,M,M,FG,M,M,M,M,M,M,2.84,KCXY 221100Z 29007KT 3SM FG CLR M10/M14 A3049 RMK SLPNO T11001139,M
CXY,1/22/96 12:00,14,10.94,87.36,270,6,M,30.5,M,3,M,CLR,   ,   ,   ,M,M,M,M,FG,M,M,M,M,M,M,3.85,KCXY 221200Z 27006KT 3SM FG CLR M10/M12 A3050 RMK SLPNO T11001117,M
CXY,1/22/96 13:00,14.9,10.94,83.99,250,5,M,30.51,M,3,M,CLR,   ,   ,   ,M,M,M,M,FG,M,M,M,M,M,M,6.09,KCXY 221300Z 25005KT 3SM FG CLR M10/M12 A3051 RMK SLPNO T10951117,M
CXY,1/22/96 14:00,16.88,14,88.21,270,4,M,30.51,M,3,M,CLR,   ,   ,   ,M,M,M,M,FG,M,M,M,M,M,M,9.76,KCXY 221400Z 27004KT 3SM FG CLR M08/M10 A3051 RMK SLPNO T10841100,M
CXY,1/22/96 15:00,21.92,16.88,80.62,240,4,M,30.51,M,3,M,SCT,   ,   ,   ,14000,M,M,M,FG,M,M,M,M,M,M,15.65,KCXY 221500Z 24004KT 3SM FG SCT140 M06/M08 A3051 RMK SLPNO T10561084,M
CXY,1/22/96 16:00,26.96,17.96,68.44,110,4,M,30.51,M,3,M,SCT,   ,   ,   ,14000,M,M,M,FG,M,M,M,M,M,M,21.53,KCXY 221600Z 11004KT 3SM FG SCT140 M03/M08 A3051 RMK SLPNO T10281078,M
CXY,1/22/96 17:00,30.92,18.86,60.5,60,5,M,30.48,M,3,M,SCT,   ,   ,   ,14000,M,M,M,DZ,M,M,M,M,M,M,25.11,KCXY 221700Z 06005KT 3SM DZ SCT140 M01/M07 A3048 RMK SLPNO T10061073,M
CXY,1/22/96 18:00,32,18.86,57.92,70,4,M,30.45,M,4,M,CLR,   ,   ,   ,M,M,M,M,DZ,M,M,M,M,M,M,27.42,KCXY 221800Z 07004KT 4SM DZ CLR 00/M07 A3045 RMK SLPNO T00001073,M
CXY,1/22/96 19:00,33.98,20.84,58.21,110,4,M,30.42,M,5,M,SCT,   ,   ,   ,18000,M,M,M,DZ,M,M,M,M,M,M,29.73,KCXY 221900Z 11004KT 5SM DZ SCT180 01/M06 A3042 RMK SLPNO T00111062,M
CXY,1/22/96 20:00,34.88,20.84,56.16,120,8,M,30.39,M,6,M,SCT,BKN,   ,   ,14000,20000,M,M,DZ,M,M,M,M,M,M,27.66,KCXY 222000Z 12008KT 6SM DZ SCT140 BKN200 02/M06 A3039 RMK SLPNO T00161062,M
CXY,1/22/96 21:00,33.98,21.92,60.93,110,10,M,30.38,M,7,M,BKN,   ,   ,   ,18000,M,M,M,M,M,M,M,M,M,M,25.45,KCXY 222100Z 11010KT 7SM BKN180 01/M06 A3038 RMK SLPNO T00111056,M
CXY,1/22/96 22:00,32.9,20.84,60.78,120,8,M,30.38,M,6,M,BKN,   ,   ,   ,18000,M,M,M,DZ,M,M,M,M,M,M,25.22,KCXY 222200Z 12008KT 6SM DZ BKN180 01/M06 A3038 RMK SLPNO T00051062,M
CXY,1/22/96 23:00,30.92,21.92,68.92,130,7,M,30.38,M,5,M,BKN,   ,   ,   ,16000,M,M,M,DZ,M,M,M,M,M,M,23.46,KCXY 222300Z 13007KT 5SM DZ BKN160 M01/M06 A3038 RMK SLPNO T10061056,M
CXY,1/23/96 0:00,28.94,21.92,74.7,130,7,M,30.37,M,4,M,BKN,   ,   ,   ,14000,M,M,M,DZ,M,M,M,M,M,M,21.05,KCXY 230000Z 13007KT 4SM DZ BKN140 M02/M06 A3037 RMK SLPNO T10171056,M
CXY,1/23/96 1:00,24.98,19.94,80.87,110,5,M,30.37,M,4,M,BKN,   ,   ,   ,20000,M,M,M,DZ,M,M,M,M,M,M,18.06,KCXY 230100Z 11005KT 4SM DZ BKN200 M04/M07 A3037 RMK SLPNO T10391067,M
CXY,1/23/96 2:00,27.86,23,81.71,170,6,M,30.35,M,4,M,OVC,   ,   ,   ,16000,M,M,M,FG,M,M,M,M,M,M,20.54,KCXY 230200Z 17006KT 4SM FG OVC160 M02/M05 A3035 RMK SLPNO T10231050,M
CXY,1/23/96 3:00,28.94,24.98,84.93,160,8,M,30.33,M,4,M,OVC,   ,   ,   ,16000,M,M,M,FG,M,M,M,M,M,M,20.34,KCXY 230300Z 16008KT 4SM FG OVC160 M02/M04 A3033 RMK SLPNO T10171039,M
CXY,1/23/96 11:00,24.98,21.92,87.96,0,0,M,30.23,M,2,M,BKN,   ,   ,   ,400,M,M,M,FG,M,M,M,M,M,M,24.98,KCXY 231100Z 00000KT 2SM FG BKN004 M04/M06 A3023 RMK SLPNO T10391056,M
CXY,1/23/96 12:00,24.98,20.84,84.03,150,5,M,30.21,M,2,M,OVC,   ,   ,   ,400,M,M,M,FG,M,M,M,M,M,M,18.06,KCXY 231200Z 15005KT 2SM FG OVC004 M04/M06 A3021 RMK SLPNO T10391062,M
CXY,1/23/96 13:00,25.88,23,88.67,110,5,M,30.21,M,1,M,OVC,OVC,   ,   ,M,700,M,M,FG,M,M,M,M,M,M,19.13,KCXY 231300Z 11005KT 1SM FG OVC/// OVC007 M03/M05 A3021 RMK SLPNO T10341050,M
CXY,1/23/96 14:00,26.96,24.98,92.12,110,5,M,30.22,M,6,M,OVC,OVC,   ,   ,M,600,M,M,M,M,M,M,M,M,M,20.41,KCXY 231400Z 11005KT 6SM OVC/// OVC006 M03/M04 A3022 RMK 11/RF 27/25/1105/022/F4 R08VV11/4; SLPNO T10281039,M
CXY,1/23/96 15:00,28.94,26.96,92.19,120,5,M,30.23,M,1.25,M,OVC,OVC,   ,   ,M,600,M,M,FG,M,M,M,M,M,M,22.76,KCXY 231500Z 12005KT 11/4SM FG OVC/// OVC006 M02/M03 A3023 RMK F4; SLPNO T10171028,M
CXY,1/23/96 16:00,29.84,26.96,88.87,80,7,M,30.23,M,1.5,M,OVC,OVC,   ,   ,M,700,M,M,FG,M,M,M,M,M,M,22.15,KCXY 231600Z 08007KT 11/2SM FG OVC/// OVC007 M01/M03 A3023 RMK F3 R08VV11/2+; SLPNO T10121028,M
CXY,1/23/96 17:00,30.92,26.96,85.05,80,8,M,30.17,M,2,M,OVC,OVC,   ,   ,M,5000,M,M,FG,M,M,M,M,M,M,22.78,KCXY 231700Z 08008KT 2SM FG OVC/// OVC050 M01/M03 A3017 RMK PRESFR F3; SLPNO T10061028,M
CXY,1/23/96 18:00,32,27.86,84.49,90,6,M,30.14,M,1.75,M,OVC,OVC,   ,   ,M,4300,M,M,FG,M,M,M,M,M,M,25.53,KCXY 231800Z 09006KT 13/4SM FG OVC/// OVC043 00/M02 A3014 RMK F3; SLPNO T00001023,M
CXY,1/23/96 19:00,32,29.84,91.62,90,7,M,30.12,M,2,M,OVC,BKN,OVC,   ,M,1500,3000,M,#NAME?,M,M,M,M,M,M,24.78,KCXY 231900Z 09007KT 2SM -RA FG OVC/// BKN015 OVC030 00/M01 A3012 RMK F4; SLPNO T00001012,M
CXY,1/23/96 20:00,32.9,29.84,88.36,90,7,M,30.11,M,2,M,OVC,BKN,OVC,   ,M,800,3500,M,FG,M,M,M,M,M,M,25.88,KCXY 232000Z 09007KT 2SM FG OVC/// BKN008 OVC035 01/M01 A3011 RMK SLPNO T00051012,M
CXY,1/23/96 21:00,32.9,30.92,92.32,120,10,M,30.09,M,1,M,OVC,OVC,   ,   ,M,5000,M,M,FG,M,M,M,M,M,M,24.1,KCXY 232100Z 12010KT 1SM FG OVC/// OVC050 01/M01 A3009 RMK F4; SLPNO T00051006,M
CXY,1/23/96 22:00,32.9,29.84,88.36,50,5,M,30.09,M,1,M,OVC,OVC,   ,   ,M,5000,M,M,FG,M,M,M,M,M,M,27.46,KCXY 232200Z 05005KT 1SM FG OVC/// OVC050 01/M01 A3009 RMK F4; SLPNO T00051012,M
CXY,1/23/96 23:00,32.9,30.92,92.32,90,5,M,30.1,M,2,M,OVC,OVC,   ,   ,M,5000,M,M,FG,M,M,M,M,M,M,27.46,KCXY 232300Z 09005KT 2SM FG OVC/// OVC050 01/M01 A3010 RMK F4; SLPNO T00051006,M
CXY,1/24/96 0:00,32.9,30.92,92.32,90,5,M,30.09,M,2,M,OVC,OVC,   ,   ,M,5000,M,M,FG,M,M,M,M,M,M,27.46,KCXY 240000Z 09005KT 2SM FG OVC/// OVC050 01/M01 A3009 RMK F4; SLPNO T00051006,M
CXY,1/24/96 1:00,32.9,30.92,92.32,130,5,M,30.06,M,2,M,OVC,   ,   ,   ,5000,M,M,M,FG,M,M,M,M,M,M,27.46,KCXY 240100Z 13005KT 2SM FG OVC050 01/M01 A3006 RMK SLPNO T00051006,M
CXY,1/24/96 2:00,33.98,30.92,88.42,90,5,M,30.01,M,2,M,OVC,   ,   ,   ,10000,M,M,M,FG,M,M,M,M,M,M,28.75,KCXY 240200Z 09005KT 2SM FG OVC100 01/M01 A3001 RMK LAST; SLPNO T00111006,M
CXY,1/24/96 11:00,34.88,33.98,96.48,130,5,M,29.73,M,2.5,M,BKN,OVC,   ,   ,5000,7000,M,M,#NAME?,M,M,M,M,M,M,29.82,KCXY 241100Z 13005KT 21/2SM -RA FG BKN050 OVC070 02/01 A2973 RMK SLPNO T00160011,M
CXY,1/24/96 12:00,34.88,33.98,96.48,110,8,M,29.69,M,2,M,SCT,BKN,   ,   ,3500,5000,M,M,#NAME?,M,M,M,M,M,M,27.66,KCXY 241200Z 11008KT 2SM -RA FG SCT035 BKN050 02/01 A2969 RMK SLPNO T00160011,M
CXY,1/24/96 13:00,35.96,34.88,95.8,150,4,M,29.66,M,1.5,M,SCT,BKN,OVC,   ,500,1500,5000,M,#NAME?,M,M,M,M,M,M,32.04,KCXY 241300Z 15004KT 11/2SM -RA FG SCT005 BKN015 OVC050 02/02 A2966 RMK SLPNO T00220016,M
CXY,1/24/96 14:00,35.96,35.96,100,140,8,M,29.63,M,1,M,BKN,OVC,   ,   ,200,1000,M,M,RA FG,M,M,M,M,M,M,28.99,KCXY 241400Z 14008KT 1SM RA FG BKN002 OVC010 02/02 A2963 RMK R08VV1/8; SLPNO T00220022,M
CXY,1/24/96 15:00,38.84,37.94,96.54,170,8,M,29.61,M,1.5,M,BKN,OVC,   ,   ,4000,5000,M,M,RA FG,M,M,M,M,M,M,32.54,KCXY 241500Z 17008KT 11/2SM RA FG BKN040 OVC050 04/03 A2961 RMK SLPNO T00380033,M
CXY,1/24/96 16:00,38.84,38.84,100,340,10,M,29.58,M,0.25,M,BKN,OVC,   ,   ,700,2000,M,M,RA FG,M,M,M,M,M,M,31.55,KCXY 241600Z 34010KT 1/4SM RA FG BKN007 OVC020 04/04 A2958 RMK R08VV1/4; SLPNO T00380038,M
CXY,1/24/96 17:00,38.84,37.94,96.54,100,10,M,29.49,M,0.25,M,BKN,OVC,   ,   ,600,1000,M,M,RA FG,M,M,M,M,M,M,31.55,KCXY 241700Z 10010KT 1/4SM RA FG BKN006 OVC010 04/03 A2949 RMK RY08VV1/8 ; SLPNO T00380033,M
CXY,1/24/96 18:00,43.88,41,89.51,50,8,M,29.4,M,2.5,M,OVC,   ,   ,   ,800,M,M,M,RA FG,M,M,M,M,M,M,38.75,KCXY 241800Z 05008KT 21/2SM RA FG OVC008 07/05 A2940 RMK SLPNO T00660050,M
CXY,1/24/96 19:00,41,39.92,95.9,220,5,M,29.44,M,1.25,M,OVC,BKN,OVC,   ,M,1500,6000,M,#NAME?,M,M,M,M,M,M,37.08,KCXY 241900Z 22005KT 11/4SM -RA FG OVC/// BKN015 OVC060 05/04 A2944 RMK F3 R08VV11/8; SLPNO T00500044,M
CXY,1/24/96 20:00,46.94,43.88,89.03,280,7,M,29.45,M,2.5,M,BKN,OVC,   ,   ,1200,4500,M,M,#NAME?,M,M,M,M,M,M,42.99,KCXY 242000Z 28007KT 21/2SM -RA FG BKN012 OVC045 08/07 A2945 RMK SLPNO T00830066,M
CXY,1/24/96 20:30,41.9,39.92,92.62,270,8,M,29.49,M,3,M,SCT,OVC,   ,   ,2000,4500,M,M,#NAME?,M,M,M,M,M,M,36.31,KCXY 242030Z 27008KT 3SM -RA FG SCT020 OVC045 06/04 A2949 RMK SLPNO T00550044,M
CXY,1/24/96 21:00,41,38.84,91.94,280,10,M,29.51,M,4,M,SCT,OVC,   ,   ,2500,6000,M,M,FG,M,M,M,M,M,M,34.25,KCXY 242100Z 28010KT 4SM FG SCT025 OVC060 05/04 A2951 RMK SLPNO T00500038,M
CXY,1/24/96 22:00,39.92,37.94,92.56,270,10,M,29.54,M,7,M,BKN,OVC,   ,   ,4000,10000,M,M,M,M,M,M,M,M,M,32.9,KCXY 242200Z 27010KT 7SM BKN040 OVC100 04/03 A2954 RMK SLPNO T00440033,M
CXY,1/24/96 23:00,41.9,30.92,64.79,280,15,M,29.6,M,7,M,OVC,   ,   ,   ,5000,M,M,M,M,M,M,M,M,M,M,33.61,KCXY 242300Z 28015KT 7SM OVC050 06/M01 A2960 RMK BINOVC; SLPNO T00551006,M
CXY,1/25/96 0:00,41.9,26.96,55.11,310,12,M,29.66,M,10,M,BKN,   ,   ,   ,5000,M,M,M,M,M,M,M,M,M,M,34.6,KCXY 250000Z 31012KT 10SM BKN050 06/M03 A2966 RMK PRERR; SLPNO T00551028,M
CXY,1/25/96 1:00,41,25.88,54.57,300,15,M,29.71,M,10,M,BKN,   ,   ,   ,5000,M,M,M,M,M,M,M,M,M,M,32.45,KCXY 250100Z 30015KT 10SM BKN050 05/M03 A2971 RMK SLPNO T00501034,M
CXY,1/25/96 2:00,39.92,23.9,52.4,290,18,M,29.77,M,10,M,OVC,   ,   ,   ,4700,M,M,M,M,M,M,M,M,M,M,30.17,KCXY 250200Z 29018KT 10SM OVC047 04/M05 A2977 RMK SLPNO T00441045,M
CXY,1/25/96 3:00,38.84,23.9,54.65,290,15,M,29.79,M,10,M,BKN,   ,   ,   ,4000,M,M,M,M,M,M,M,M,M,M,29.65,KCXY 250300Z 29015KT 10SM BKN040 04/M05 A2979 RMK SLPNO T00381045,M
CXY,1/25/96 11:00,27.86,10.94,48.51,310,18,M,30.17,M,15,22,BKN,   ,   ,   ,5000,M,M,M,M,M,M,M,M,M,M,14.3,KCXY 251100Z 31018G22KT 15SM BKN050 M02/M12 A3017 RMK SLPNO T10231117,M
CXY,1/25/96 12:00,26.96,8.96,46.08,310,15,M,30.21,M,15,M,SCT,   ,   ,   ,5000,M,M,M,M,M,M,M,M,M,M,14.25,KCXY 251200Z 31015KT 15SM SCT050 M03/M13 A3021 RMK SLPNO T10281128,M
CXY,1/25/96 13:00,25.88,9.86,50.17,320,25,M,30.24,M,20,M,SCT,SCT,   ,   ,5000,15000,M,M,M,M,M,M,M,M,M,9.53,KCXY 251300Z 32025KT 20SM SCT050 SCT150 M03/M12 A3024 RMK SLPNO T10341123,M
CXY,1/25/96 14:00,26.96,7.88,43.89,310,20,M,30.3,M,20,M,SCT,   ,   ,   ,5000,M,M,M,M,M,M,M,M,M,M,12.44,KCXY 251400Z 31020KT 20SM SCT050 M03/M13 A3030 RMK SLPNO T10281134,M
CXY,1/25/96 15:00,27.86,8.96,44.4,310,25,M,30.34,M,20,M,SCT,   ,   ,   ,5000,M,M,M,M,M,M,M,M,M,M,12.21,KCXY 251500Z 31025KT 20SM SCT050 M02/M13 A3034 RMK SLPNO T10231128,M
CXY,1/25/96 16:00,28.94,8.96,42.48,310,25,M,30.36,M,20,M,SCT,   ,   ,   ,5000,M,M,M,M,M,M,M,M,M,M,13.67,KCXY 251600Z 31025KT 20SM SCT050 M02/M13 A3036 RMK SLPNO T10171128,M
CXY,1/25/96 17:00,28.94,8.96,42.48,360,12,M,30.37,M,20,M,SCT,   ,   ,   ,5000,M,M,M,M,M,M,M,M,M,M,18.11,KCXY 251700Z 36012KT 20SM SCT050 M02/M13 A3037 RMK SLPNO T10171128,M
CXY,1/25/96 19:00,30.92,8.96,39.19,310,18,M,30.37,M,15,M,SCT,   ,   ,   ,5000,M,M,M,M,M,M,M,M,M,M,18.33,KCXY 251900Z 31018KT 15SM SCT050 M01/M13 A3037 RMK SLPNO T10061128,M
CXY,1/25/96 20:00,30.92,8.96,39.19,280,15,M,30.38,M,15,M,SCT,   ,   ,   ,20000,M,M,M,M,M,M,M,M,M,M,19.38,KCXY 252000Z 28015KT 15SM SCT200 M01/M13 A3038 RMK SLPNO T10061128,M
CXY,1/25/96 21:00,29.84,8.96,40.95,280,10,M,30.39,M,20,M,SCT,   ,   ,   ,20000,M,M,M,M,M,M,M,M,M,M,20.26,KCXY 252100Z 28010KT 20SM SCT200 M01/M13 A3039 RMK SLPNO T10121128,M
CXY,1/25/96 22:00,29.84,9.86,42.63,270,8,M,30.43,M,15,M,CLR,   ,   ,   ,M,M,M,M,M,M,M,M,M,M,M,21.45,KCXY 252200Z 27008KT 15SM CLR M01/M12 A3043 RMK SLPNO T10121123,M
CXY,1/25/96 23:00,26.96,8.96,46.08,220,5,M,30.43,M,15,M,CLR,   ,   ,   ,M,M,M,M,M,M,M,M,M,M,M,20.41,KCXY 252300Z 22005KT 15SM CLR M03/M13 A3043 RMK SLPNO T10281128,M
CXY,1/26/96 0:00,23.9,11.84,59.5,220,5,M,30.45,M,15,M,CLR,   ,   ,   ,M,M,M,M,M,M,M,M,M,M,M,16.78,KCXY 260000Z 22005KT 15SM CLR M05/M11 A3045 RMK SLPNO T10451112,M
CXY,1/26/96 1:00,20.84,10.94,65.04,250,5,M,30.47,M,15,M,CLR,   ,   ,   ,M,M,M,M,M,M,M,M,M,M,M,13.14,KCXY 260100Z 25005KT 15SM CLR M06/M12 A3047 RMK SLPNO T10621117,M
CXY,1/26/96 3:00,23.9,15.98,71.34,120,5,M,30.47,M,15,M,CLR,   ,   ,   ,M,M,M,M,M,M,M,M,M,M,M,16.78,KCXY 260300Z 12005KT 15SM CLR M05/M09 A3047 RMK SLPNO T10451089,M
CXY,1/26/96 11:00,18.86,10.94,70.77,300,5,M,30.54,M,15,M,SCT,   ,   ,   ,20000,M,M,M,M,M,M,M,M,M,M,10.79,KCXY 261100Z 30005KT 15SM SCT200 M07/M12 A3054 RMK SLPNO T10731117,M
CXY,1/26/96 12:00,19.94,12.92,73.77,210,5,M,30.56,M,15,M,SCT,   ,   ,   ,20000,M,M,M,M,M,M,M,M,M,M,12.07,KCXY 261200Z 21005KT 15SM SCT200 M07/M11 A3056 RMK SLPNO T10671106,M
CXY,1/26/96 14:00,24.98,16.88,70.91,100,8,M,30.56,M,15,M,OVC,   ,   ,   ,20000,M,M,M,M,M,M,M,M,M,M,15.47,KCXY 261400Z 10008KT 15SM OVC200 M04/M08 A3056 RMK SLPNO T10391084,M
CXY,1/26/96 15:00,28.94,17.96,63.1,90,8,M,30.57,M,15,M,OVC,   ,   ,   ,20000,M,M,M,M,M,M,M,M,M,M,20.34,KCXY 261500Z 09008KT 15SM OVC200 M02/M08 A3057 RMK SLPNO T10171078,M
CXY,1/26/96 16:00,33.98,23.9,66.22,140,8,M,30.56,M,15,M,OVC,   ,   ,   ,20000,M,M,M,M,M,M,M,M,M,M,26.55,KCXY 261600Z 14008KT 15SM OVC200 01/M05 A3056 RMK SLPNO T00111045,M
CXY,1/26/96 17:00,35.96,23,58.94,180,15,M,30.51,M,15,M,OVC,   ,   ,   ,20000,M,M,M,M,M,M,M,M,M,M,25.91,KCXY 261700Z 18015KT 15SM OVC200 02/M05 A3051 RMK SLPNO T00221050,M
CXY,1/26/96 18:00,32,23,69.04,140,10,M,30.49,M,15,M,SCT,   ,   ,   ,20000,M,M,M,M,M,M,M,M,M,M,22.97,KCXY 261800Z 14010KT 15SM SCT200 00/M05 A3049 RMK SLPNO T00001050,M
CXY,1/26/96 19:00,37.94,21.92,52.09,100,8,M,30.47,M,15,M,BKN,   ,   ,   ,20000,M,M,M,M,M,M,M,M,M,M,31.43,KCXY 261900Z 10008KT 15SM BKN200 03/M06 A3047 RMK SLPNO T00331056,M
CXY,1/26/96 20:00,36.86,24.98,61.79,100,8,M,30.47,M,15,M,BKN,OVC,   ,   ,6000,15000,M,M,M,M,M,M,M,M,M,30.1,KCXY 262000Z 10008KT 15SM BKN060 OVC150 03/M04 A3047 RMK SLPNO T00271039,M
CXY,1/26/96 21:00,37.94,24.98,59.22,140,8,M,30.47,M,15,M,BKN,OVC,   ,   ,5000,10000,M,M,M,M,M,M,M,M,M,31.43,KCXY 262100Z 14008KT 15SM BKN050 OVC100 03/M04 A3047 RMK SLPNO T00331039,M
CXY,1/26/96 22:00,36.86,24.98,61.79,140,8,M,30.49,M,15,M,OVC,   ,   ,   ,3000,M,M,M,M,M,M,M,M,M,M,30.1,KCXY 262200Z 14008KT 15SM OVC030 03/M04 A3049 RMK SLPNO T00271039,M
CXY,1/26/96 23:00,36.86,25.88,64.15,110,8,M,30.47,M,15,M,OVC,   ,   ,   ,3000,M,M,M,M,M,M,M,M,M,M,30.1,KCXY 262300Z 11008KT 15SM OVC030 03/M03 A3047 RMK SLPNO T00271034,M
CXY,1/27/96 0:00,36.86,26.96,67.08,130,10,M,30.46,M,7,M,BKN,OVC,   ,   ,2500,3500,M,M,M,M,M,M,M,M,M,29.06,KCXY 270000Z 13010KT 7SM BKN025 OVC035 03/M03 A3046 RMK SLPNO T00271028,M
CXY,1/27/96 1:00,35.96,28.94,75.39,130,10,M,30.42,M,7,M,BKN,OVC,   ,   ,1800,2500,M,M,#NAME?,M,M,M,M,M,M,27.93,KCXY 270100Z 13010KT 7SM -SHSN BKN018 OVC025 02/M02 A3042 RMK SLPNO T00221017,M
CXY,1/27/96 2:00,36.86,30.92,78.87,110,10,M,30.38,M,7,M,OVC,   ,   ,   ,1200,M,M,M,M,M,M,M,M,M,M,29.06,KCXY 270200Z 11010KT 7SM OVC012 03/M01 A3038 RMK SLPNO T00271006,M
CXY,1/27/96 3:00,37.94,33.98,85.49,120,10,M,30.35,M,4,M,OVC,   ,   ,   ,1000,M,M,M,#NAME?,M,M,M,M,M,M,30.42,KCXY 270300Z 12010KT 4SM -RA FG OVC010 03/01 A3035 RMK LAST; SLPNO T00330011,M
CXY,1/27/96 11:00,46.94,44.96,92.78,130,20,M,29.93,M,3,M,OVC,   ,   ,   ,1500,M,M,M,RA FG,M,M,M,M,M,M,38.98,KCXY 271100Z 13020KT 3SM RA FG OVC015 08/07 A2993 RMK SLPNO T00830072,M
CXY,1/27/96 14:00,50,46.94,89.17,190,18,M,29.78,M,6,20,OVC,   ,   ,   ,1500,M,M,M,RA FG,M,M,M,M,M,M,43.44,KCXY 271400Z 19018G20KT 6SM RA FG OVC015 10/08 A2978 RMK PRESFR; SLPNO T01000083,M
CXY,1/27/96 15:00,50.9,46.94,86.24,160,20,M,29.73,M,5,30,OVC,   ,   ,   ,1000,M,M,M,#NAME?,M,M,M,M,M,M,50.9,KCXY 271500Z 16020G30KT 5SM -RA FG OVC010 11/08 A2973 RMK SLPNO T01050083,M
CXY,1/27/96 16:00,50.9,47.84,89.21,180,20,M,29.7,M,5,30,OVC,   ,   ,   ,1200,M,M,M,#NAME?,M,M,M,M,M,M,50.9,KCXY 271600Z 18020G30KT 5SM -RA FG OVC012 11/09 A2970 RMK SLPNO T01050088,M
CXY,1/27/96 17:00,50.9,48.92,92.9,180,15,M,29.66,M,3,25,OVC,   ,   ,   ,900,M,M,M,#NAME?,M,M,M,M,M,M,50.9,KCXY 271700Z 18015G25KT 3SM -RA FG OVC009 11/09 A2966 RMK SLPNO T01050094,M
CXY,1/27/96 18:00,42.98,37.94,82.24,290,18,M,29.7,M,7,25,SCT,OVC,   ,   ,1500,2200,M,M,#NAME?,M,M,M,M,M,M,34.2,KCXY 271800Z 29018G25KT 7SM -SHRA SCT015 OVC022 06/03 A2970 RMK BINOVC ; SLPNO T00610033,M
CXY,1/27/96 19:00,42.98,32.9,67.33,300,15,M,29.69,M,15,27,OVC,   ,   ,   ,4500,M,M,M,M,M,M,M,M,M,M,35.01,KCXY 271900Z 30015G27KT 15SM OVC045 06/01 A2969 RMK CIGRGD; SLPNO T00610005,M
CXY,1/27/96 20:00,42.98,27.86,54.86,290,14,M,29.7,M,15,21,OVC,   ,   ,   ,6000,M,M,M,M,M,M,M,M,M,M,35.32,KCXY 272000Z 29014G21KT 15SM OVC060 06/M02 A2970 RMK SLPNO T00611023,M
CXY,1/27/96 21:00,44.96,29.84,55.16,300,18,M,29.74,M,15,35,BKN,   ,   ,   ,9000,M,M,M,M,M,M,M,M,M,M,36.81,KCXY 272100Z 30018G35KT 15SM BKN090 07/M01 A2974 RMK SLPNO T00721012,M
CXY,1/27/96 22:00,38.84,20.84,48.04,300,24,M,29.84,M,15,37,SCT,   ,   ,   ,10000,M,M,M,M,M,M,M,M,M,M,27.29,KCXY 272200Z 30024G37KT 15SM SCT100 04/M06 A2984 RMK PRESRR; SLPNO T00381062,M
CXY,1/27/96 23:00,37.94,18.86,45.73,310,14,M,29.88,M,15,25,SCT,   ,   ,   ,5000,M,M,M,M,M,M,M,M,M,M,28.82,KCXY 272300Z 31014G25KT 15SM SCT050 03/M07 A2988 RMK PRESRR; SLPNO T00331073,M
CXY,1/28/96 0:00,35.96,18.86,49.44,300,17,M,29.9,M,15,26,SCT,   ,   ,   ,5000,M,M,M,M,M,M,M,M,M,M,25.26,KCXY 280000Z 30017G26KT 15SM SCT050 02/M07 A2990 RMK SLPNO T00221073,M
CXY,1/28/96 1:00,32.9,14,45.25,300,15,M,29.95,M,15,25,BKN,   ,   ,   ,5000,M,M,M,M,M,M,M,25,300,M,21.95,KCXY 280100Z 30015G25KT 15SM BKN050 01/M10 A2995 RMK PRESRR PK WND 3025/44; SLPNO T00051100,M
CXY,1/28/96 2:00,32.9,14,45.25,290,20,M,29.97,M,15,30,OVC,   ,   ,   ,5000,M,M,M,M,M,M,M,30,290,M,20.33,KCXY 280200Z 29020G30KT 15SM OVC050 01/M10 A2997 RMK PK WND 2930/50 SML BINOVC; SLPNO T00051100,M
CXY,1/28/96 3:00,32.9,12.92,43.15,300,20,M,29.97,M,15,30,OVC,   ,   ,   ,5000,M,M,M,M,M,M,M,30,300,M,20.33,KCXY 280300Z 30020G30KT 15SM OVC050 01/M11 A2997 RMK PK WND 3030/50 SML BINOVC; SLPNO T00051106,M
CXY,1/28/96 11:00,27.86,9.86,46.23,310,25,M,30.3,M,15,30,OVC,   ,   ,   ,5000,M,M,M,M,M,M,M,M,M,M,12.21,KCXY 281100Z 31025G30KT 15SM OVC050 M02/M12 A3030 RMK SLPNO T10231123,M
CXY,1/28/96 12:00,26.96,7.88,43.89,310,25,M,30.3,M,15,M,SCT,   ,   ,   ,5000,M,M,M,M,M,M,M,M,M,M,10.99,KCXY 281200Z 31025KT 15SM SCT050 M03/M13 A3030 RMK SLPNO T10281134,M
CXY,1/28/96 13:00,26.96,11.84,52.39,320,12,M,30.35,M,15,M,SCT,   ,   ,   ,5000,M,M,M,M,M,M,M,M,M,M,15.59,KCXY 281300Z 32012KT 15SM SCT050 M03/M11 A3035 RMK SLPNO T10281112,M
CXY,1/28/96 14:00,27.86,7.88,42.29,330,20,M,30.35,M,20,M,CLR,   ,   ,   ,M,M,M,M,M,M,M,M,M,M,M,13.64,KCXY 281400Z 33020KT 20SM CLR M02/M13 A3035 RMK SLPNO T10231134,M
CXY,1/28/96 15:00,28.94,9.86,44.23,340,10,M,30.38,M,20,M,CLR,   ,   ,   ,M,M,M,M,M,M,M,M,M,M,M,19.13,KCXY 281500Z 34010KT 20SM CLR M02/M12 A3038 RMK SLPNO T10171123,M
CXY,1/28/96 16:00,32,9.86,39.06,310,10,M,30.41,M,20,M,CLR,   ,   ,   ,M,M,M,M,M,M,M,M,M,M,M,22.97,KCXY 281600Z 31010KT 20SM CLR 00/M12 A3041 RMK SLPNO T00001123,M
CXY,1/28/96 18:00,32.9,10.94,39.53,310,18,M,30.41,M,20,M,OVC,   ,   ,   ,25000,M,M,M,M,M,M,M,M,M,M,20.93,KCXY 281800Z 31018KT 20SM OVC250 01/M12 A3041 RMK SLPNO T00051117,M
CXY,1/28/96 19:00,32,11.84,42.66,310,10,M,30.42,M,20,17,OVC,   ,   ,   ,20000,M,M,M,M,M,M,M,M,M,M,22.97,KCXY 281900Z 31010G17KT 20SM OVC200 00/M11 A3042 RMK SLPNO T00001112,M
CXY,1/28/96 20:00,32,11.84,42.66,310,12,M,30.41,M,20,M,BKN,OVC,   ,   ,8000,14000,M,M,M,M,M,M,M,M,M,22,KCXY 282000Z 31012KT 20SM BKN080 OVC140 00/M11 A3041 RMK SLPNO T00001112,M
CXY,1/28/96 22:00,30.92,10.94,42.82,320,12,M,30.42,M,20,M,BKN,OVC,   ,   ,6000,12000,M,M,M,M,M,M,M,M,M,20.63,KCXY 282200Z 32012KT 20SM BKN060 OVC120 M01/M12 A3042 RMK BINOVC ; SLPNO T10061117,M
CXY,1/28/96 23:00,29.84,11.84,46.56,310,8,M,30.44,M,20,M,BKN,   ,   ,   ,10000,M,M,M,M,M,M,M,M,M,M,21.45,KCXY 282300Z 31008KT 20SM BKN100 M01/M11 A3044 RMK SLPNO T10121112,M
CXY,1/29/96 0:00,27.86,11.84,50.49,310,8,M,30.46,M,15,M,SCT,   ,   ,   ,8000,M,M,M,M,M,M,M,M,M,M,19.01,KCXY 290000Z 31008KT 15SM SCT080 M02/M11 A3046 RMK SLPNO T10231112,M
CXY,1/29/96 1:00,24.98,14,62.55,270,5,M,30.47,M,15,M,SCT,   ,   ,   ,8000,M,M,M,M,M,M,M,M,M,M,18.06,KCXY 290100Z 27005KT 15SM SCT080 M04/M10 A3047 RMK SLPNO T10391100,M
CXY,1/29/96 2:00,23,14.9,70.69,200,5,M,30.47,M,15,M,CLR,   ,   ,   ,M,M,M,M,M,M,M,M,M,M,M,15.71,KCXY 290200Z 20005KT 15SM CLR M05/M10 A3047 RMK SLPNO T10501095,M
CXY,1/29/96 3:00,23,14.9,70.69,240,5,M,30.47,M,15,M,CLR,   ,   ,   ,M,M,M,M,M,M,M,M,M,M,M,15.71,KCXY 290300Z 24005KT 15SM CLR M05/M10 A3047 RMK LAST; SLPNO T10501095,M
CXY,1/29/96 11:00,25.88,17.96,71.57,150,7,M,30.41,M,15,M,OVC,   ,   ,   ,14000,M,M,M,M,M,M,M,M,M,M,17.32,KCXY 291100Z 15007KT 15SM OVC140 M03/M08 A3041 RMK SLPNO T10341078,M
CXY,1/29/96 13:00,25.88,14.9,62.68,140,8,M,30.41,M,10,M,OVC,   ,   ,   ,7000,M,M,M,M,M,M,M,M,M,M,16.57,KCXY 291300Z 14008KT 10SM OVC070 M03/M10 A3041 RMK SLPNO T10341095,M
CXY,1/29/96 14:00,28.94,15.98,57.92,140,12,M,30.37,M,15,M,BKN,OVC,   ,   ,5000,7000,M,M,M,M,M,M,M,M,M,18.11,KCXY 291400Z 14012KT 15SM BKN050 OVC070 M02/M09 A3037 RMK SLPNO T10171089,M
CXY,1/29/96 15:00,28.94,16.88,60.22,140,9,M,30.38,M,15,M,OVC,   ,   ,   ,9000,M,M,M,M,M,M,M,M,M,M,19.71,KCXY 291500Z 14009KT 15SM OVC090 M02/M08 A3038 RMK SLPNO T10171084,M
CXY,1/29/96 16:00,30.92,17.96,58.21,130,10,M,30.34,M,15,M,OVC,   ,   ,   ,8000,M,M,M,M,M,M,M,M,M,M,21.61,KCXY 291600Z 13010KT 15SM OVC080 M01/M08 A3034 RMK SLPNO T10061078,M
CXY,1/29/96 18:00,32.9,17.96,53.74,150,10,M,30.26,M,15,M,OVC,   ,   ,   ,8000,M,M,M,M,M,M,M,M,M,M,24.1,KCXY 291800Z 15010KT 15SM OVC080 01/M08 A3026 RMK PRESFR; SLPNO T00051078,M
CXY,1/29/96 19:00,33.98,17.96,51.47,180,10,M,30.22,M,15,M,OVC,   ,   ,   ,5000,M,M,M,M,M,M,M,M,M,M,25.45,KCXY 291900Z 18010KT 15SM OVC050 01/M08 A3022 RMK SLPNO T00111078,M
CXY,1/29/96 20:00,33.98,19.94,56.02,150,15,M,30.17,M,15,M,BKN,OVC,   ,   ,4500,8000,M,M,M,M,M,M,M,M,M,23.35,KCXY 292000Z 15015KT 15SM BKN045 OVC080 01/M07 A3017 RMK SML BINOVC PRESFR; SLPNO T00111067,M
CXY,1/29/96 21:00,34.88,19.94,54.05,220,7,M,30.17,M,15,M,BKN,OVC,   ,   ,4500,8000,M,M,M,M,M,M,M,M,M,28.29,KCXY 292100Z 22007KT 15SM BKN045 OVC080 02/M07 A3017 RMK SLPNO T00161067,M
CXY,1/29/96 23:00,34.88,11.84,38.01,180,5,M,30.14,M,15,M,SCT,OVC,   ,   ,3000,5000,M,M,M,M,M,M,M,M,M,29.82,KCXY 292300Z 18005KT 15SM SCT030 OVC050 02/M11 A3014 RMK SLPNO T00161112,M
CXY,1/30/96 0:00,34.88,21.92,58.78,210,8,M,30.16,M,10,M,SCT,BKN,   ,   ,3000,5000,M,M,M,M,M,M,M,M,M,27.66,KCXY 300000Z 21008KT 10SM SCT030 BKN050 02/M06 A3016 RMK SLPNO T00161056,M
CXY,1/30/96 1:00,33.98,23,63.77,220,5,M,30.14,M,10,M,OVC,   ,   ,   ,16000,M,M,M,M,M,M,M,M,M,M,28.75,KCXY 300100Z 22005KT 10SM OVC160 01/M05 A3014 RMK SLPNO T00111050,M
CXY,1/30/96 2:00,32.9,23.9,69.15,240,7,M,30.15,M,10,M,BKN,   ,   ,   ,16000,M,M,M,M,M,M,M,M,M,M,25.88,KCXY 300200Z 24007KT 10SM BKN160 01/M05 A3015 RMK SLPNO T00051045,M
CXY,1/30/96 3:00,32,24.98,75,180,6,M,30.14,M,10,M,BKN,   ,   ,   ,16000,M,M,M,M,M,M,M,M,M,M,25.53,KCXY 300300Z 18006KT 10SM BKN160 00/M04 A3014 RMK SLPNO T00001039,M
CXY,1/30/96 11:00,26.96,24.98,92.12,0,0,M,30.11,M,5,M,BKN,   ,   ,   ,20000,M,M,M,FG,M,M,M,M,M,M,26.96,KCXY 301100Z 00000KT 5SM FG BKN200 M03/M04 A3011 RMK SLPNO T10281039,M
CXY,1/30/96 12:00,26.96,24.98,92.12,0,0,M,30.13,M,5,M,BKN,   ,   ,   ,20000,M,M,M,FG,M,M,M,M,M,M,26.96,KCXY 301200Z 00000KT 5SM FG BKN200 M03/M04 A3013 RMK SLPNO T10281039,M
CXY,1/30/96 13:00,27.86,24.98,88.77,280,8,M,30.11,M,6,M,BKN,   ,   ,   ,20000,M,M,M,FG,M,M,M,M,M,M,19.01,KCXY 301300Z 28008KT 6SM FG BKN200 M02/M04 A3011 RMK SLPNO T10231039,M
CXY,1/30/96 14:00,29.84,26.96,88.87,340,5,M,30.11,M,6,M,BKN,   ,   ,   ,20000,M,M,M,FG,M,M,M,M,M,M,23.83,KCXY 301400Z 34005KT 6SM FG BKN200 M01/M03 A3011 RMK SLPNO T10121028,M
CXY,1/30/96 15:00,32,26.96,81.42,10,4,M,30.11,M,6,M,BKN,   ,   ,   ,20000,M,M,M,FG,M,M,M,M,M,M,27.42,KCXY 301500Z 01004KT 6SM FG BKN200 00/M03 A3011 RMK SLPNO T00001028,M
CXY,1/30/96 16:00,35.96,27.86,72.13,360,5,M,30.08,M,7,M,OVC,   ,   ,   ,15000,M,M,M,M,M,M,M,M,M,M,31.1,KCXY 301600Z 36005KT 7SM OVC150 02/M02 A3008 RMK SLPNO T00221023,M
CXY,1/30/96 17:00,37.94,27.86,66.71,290,7,M,30.07,M,7,M,OVC,   ,   ,   ,20000,M,M,M,M,M,M,M,M,M,M,32.02,KCXY 301700Z 29007KT 7SM OVC200 03/M02 A3007 RMK SLPNO T00331023,M
CXY,1/30/96 18:00,41,27.86,59.21,350,5,M,30.04,M,7,M,BKN,OVC,   ,   ,15000,20000,M,M,M,M,M,M,M,M,M,37.08,KCXY 301800Z 35005KT 7SM BKN150 OVC200 05/M02 A3004 RMK SLPNO T00501023,M
CXY,1/30/96 19:00,41.9,25.88,52.7,290,7,M,30.02,M,7,M,BKN,OVC,   ,   ,15000,20000,M,M,M,M,M,M,M,M,M,36.85,KCXY 301900Z 29007KT 7SM BKN150 OVC200 06/M03 A3002 RMK SLPNO T00551034,M
CXY,1/30/96 20:00,41.9,25.88,52.7,330,10,M,30,M,10,M,BKN,OVC,   ,   ,10000,16000,M,M,M,M,M,M,M,M,M,35.38,KCXY 302000Z 33010KT 10SM BKN100 OVC160 06/M03 A3000 RMK SLPNO T00551034,M
CXY,1/30/96 21:00,41,27.86,59.21,280,8,M,29.98,M,15,M,BKN,OVC,   ,   ,14000,20000,M,M,M,M,M,M,M,M,M,35.2,KCXY 302100Z 28008KT 15SM BKN140 OVC200 05/M02 A2998 RMK SLPNO T00501023,M
CXY,1/30/96 22:00,41,27.86,59.21,280,7,M,30,M,15,M,BKN,OVC,   ,   ,10000,15000,M,M,M,M,M,M,M,M,M,35.75,KCXY 302200Z 28007KT 15SM BKN100 OVC150 05/M02 A3000 RMK SLPNO T00501023,M
CXY,1/30/96 23:00,38.84,15.98,38.99,360,8,M,30,M,10,M,BKN,OVC,   ,   ,8000,12000,M,M,M,M,M,M,M,M,M,32.54,KCXY 302300Z 36008KT 10SM BKN080 OVC120 04/M09 A3000 RMK SLPNO T00381089,M
CXY,1/31/96 0:00,37.94,14,37.05,10,8,M,29.98,M,10,M,BKN,OVC,   ,   ,6000,10000,M,M,M,M,M,M,M,M,M,31.43,KCXY 310000Z 01008KT 10SM BKN060 OVC100 03/M10 A2998 RMK SLPNO T00331100,M
CXY,1/31/96 1:00,34.88,17.96,49.65,360,5,M,29.94,M,7,M,SCT,BKN,OVC,   ,3000,8000,12000,M,M,M,M,M,M,M,M,29.82,KCXY 310100Z 36005KT 7SM SCT030 BKN080 OVC120 02/M08 A2994 RMK SLPNO T00161078,M
CXY,1/31/96 2:00,34.88,17.96,49.65,360,5,M,29.94,M,7,M,SCT,BKN,OVC,   ,3000,8000,12000,M,M,M,M,M,M,M,M,29.82,KCXY 310200Z 36005KT 7SM SCT030 BKN080 OVC120 02/M08 A2994 RMK SLPNO T00161078,M
CXY,1/31/96 3:00,32,23,69.04,0,0,M,29.94,M,10,M,BKN,OVC,   ,   ,6000,10000,M,M,M,M,M,M,M,M,M,32,KCXY 310300Z 00000KT 10SM BKN060 OVC100 00/M05 A2994 RMK SLPNO T00001050,M
CXY,1/31/96 11:00,27.86,23,81.71,360,19,M,29.89,M,5,M,OVC,   ,   ,   ,1500,M,M,M,#NAME?,M,M,M,M,M,M,13.96,KCXY 311100Z 36019KT 5SM -SN FG OVC015 M02/M05 A2989 RMK SLPNO T10231050,M
CXY,1/31/96 12:00,25.88,19.94,77.9,330,12,M,29.94,M,5,M,BKN,OVC,   ,   ,2500,6000,M,M,#NAME?,M,M,M,M,M,M,14.21,KCXY 311200Z 33012KT 5SM -SN FG BKN025 OVC060 M03/M07 A2994 RMK PRESRR; SLPNO T10341067,M
CXY,1/31/96 13:00,23.9,18.86,80.78,350,14,M,29.99,M,2,M,OVC,   ,   ,   ,900,M,M,M,#NAME?,M,M,M,M,M,M,10.72,KCXY 311300Z 35014KT 2SM -SN FG OVC009 M05/M07 A2999 RMK PRESRR R08VV11/4; SLPNO T10451073,M
CXY,1/31/96 14:00,23,17.96,80.71,360,7,M,29.94,M,2.5,M,BKN,OVC,   ,   ,1600,2500,M,M,SN FG,M,M,M,M,M,M,13.81,KCXY 311400Z 36007KT 21/2SM SN FG BKN016 OVC025 M05/M08 A2994 RMK R08VV 1 1/2; SLPNO T10501078,M
CXY,1/31/96 15:00,21.92,15.98,77.54,10,10,M,30.02,M,2.5,M,OVC,   ,   ,   ,2000,M,M,M,SN FG,M,M,M,M,M,M,10.33,KCXY 311500Z 01010KT 21/2SM SN FG OVC020 M06/M09 A3002 RMK SLPNO T10561089,M
CXY,1/31/96 16:00,23,14,67.96,360,15,M,30.02,M,10,M,BKN,OVC,   ,   ,2000,3000,M,M,M,M,M,M,M,M,M,9.11,KCXY 311600Z 36015KT 10SM BKN020 OVC030 M05/M10 A3002 RMK SLPNO T10501100,M
CXY,1/31/96 17:00,23,7.88,51.76,320,16,M,30.01,M,15,M,SCT,OVC,   ,   ,2800,6000,M,M,M,M,M,M,M,M,M,8.69,KCXY 311700Z 32016KT 15SM SCT028 OVC060 M05/M13 A3001 RMK SLPNO T10501134,M
CXY,1/31/96 18:00,24.98,8.96,50.02,340,12,M,30,M,15,M,BKN,   ,   ,   ,3500,M,M,M,M,M,M,M,M,M,M,13.07,KCXY 311800Z 34012KT 15SM BKN035 M04/M13 A3000 RMK SLPNO T10391128,M
CXY,1/31/96 19:00,24.98,6.98,45.74,330,12,M,30,M,20,M,SCT,SCT,   ,   ,3500,15000,M,M,M,M,M,M,M,M,M,13.07,KCXY 311900Z 33012KT 20SM SCT035 SCT150 M04/M14 A3000 RMK SLPNO T10391139,M
CXY,1/31/96 20:00,24.98,3.92,39.78,320,15,M,30,M,20,M,SCT,   ,   ,   ,15000,M,M,M,M,M,M,M,M,M,M,11.68,KCXY 312000Z 32015KT 20SM SCT150 M04/M16 A3000 RMK SLPNO T10391156,M
CXY,1/31/96 21:00,24.98,0.86,34.51,340,18,M,30.03,M,20,M,CLR,   ,   ,   ,M,M,M,M,M,M,M,M,M,M,M,10.51,KCXY 312100Z 34018KT 20SM CLR M04/M17 A3003 RMK SLPNO T10391173,M
CXY,1/31/96 22:00,23,-1.12,34.17,330,15,M,30.06,M,20,M,CLR,   ,   ,   ,M,M,M,M,M,M,M,M,M,M,M,9.11,KCXY 312200Z 33015KT 20SM CLR M05/M18 A3006 RMK SLPNO T10501184,M
CXY,1/31/96 23:00,21.92,0.86,39.24,320,10,M,30.07,M,15,M,CLR,   ,   ,   ,M,M,M,M,M,M,M,M,M,M,M,10.33,KCXY 312300Z 32010KT 15SM CLR M06/M17 A3007 RMK SLPNO T10561173,M