station,valid,tmpf,dwpf,relh,drct,sknt,p01i,alti,mslp,vsby,gust,skyc1,skyc2,skyc3,skyc4,skyl1,skyl2,skyl3,skyl4,wxcodes,ice_accretion_1hr,ice_accretion_3hr,ice_accretion_6hr,peak_wind_gust,peak_wind_drct,peak_wind_time,feel,metar,snowdepth
SLE,1996-01-15 00:00,49.00,47.00,92.84,160.00,16.00,0.14,29.87,1011.50,4.00,M,BKN,OVC,   ,   ,4400.00,6000.00,M,M,RA FG,M,M,M,M,M,M,42.47,KSLE 150000Z 16016KT 4SM RA FG BKN044 OVC060 09/08 A2987 RMK 6035/ 10050 20045 PCPN 0014; SLP115 P0014 60011 T00940083 55080,M
SLE,1996-01-15 01:00,49.00,47.00,92.84,170.00,13.00,0.17,29.86,1011.30,4.00,M,BKN,OVC,   ,   ,4600.00,6000.00,M,M,RA FG,M,M,M,M,M,M,43.25,KSLE 150100Z 17013KT 4SM RA FG BKN046 OVC060 09/08 A2986 RMK OVC V BKN PCPN 0017; SLP113 P0017 T00940083,M
SLE,1996-01-15 02:00,50.00,47.00,89.17,170.00,17.00,0.04,29.85,1010.70,10.00,M,BKN,BKN,OVC,   ,3000.00,4100.00,6500.00,M,M,M,M,M,M,M,M,43.66,KSLE 150200Z 17017KT 10SM BKN030 BKN041 OVC065 10/08 A2985 RMK BKN V SCT RE55 PCPN 0004; SLP107 P0004 T01000083,M
SLE,1996-01-15 03:00,50.00,47.00,89.17,180.00,16.00,0.10,29.84,1010.60,10.00,24.00,SCT,BKN,OVC,   ,4400.00,7000.00,9000.00,M,-RA,M,M,M,30.00,170.00,M,43.88,KSLE 150300Z 18016G24KT 10SM -RA SCT044 BKN070 OVC090 10/08 A2984 RMK 6031/ RB00 PCPN 0010 PK WND 1730/0244; SLP106 P0010 T01000083 55080,M
SLE,1996-01-15 04:00,51.00,48.00,89.22,190.00,20.00,0.04,29.84,1010.50,10.00,26.00,SCT,BKN,OVC,   ,4600.00,5000.00,9000.00,M,M,M,M,M,26.00,180.00,M,51.08,KSLE 150400Z 19020G26KT 10SM SCT046 BKN050 OVC090 11/09 A2984 RMK RE53 PCPN 0004 PK WND 1826/0344; SLP105 P0004 T01060089,M
SLE,1996-01-15 05:00,52.00,48.00,86.30,180.00,22.00,M,29.83,1010.20,10.00,26.00,OVC,   ,   ,   ,4200.00,M,M,M,M,M,M,M,26.00,180.00,M,51.98,KSLE 150500Z 18022G26KT 10SM OVC042 11/09 A2983 RMK AO2A M42 OVC 10+ 102/52/48/1822G26/983/ PK WND 1826/0412 LAST AUGMENTED OBS; SLP102 T01110089,M
SLE,1996-01-15 06:00,53.00,48.00,82.94,180.00,20.00,0.01,29.82,1009.80,10.00,29.00,SCT,SCT,BKN,   ,2000.00,3900.00,4700.00,M,M,M,M,M,32.00,180.00,M,53.06,KSLE 150600Z 18020G29KT 10SM SCT020 SCT039 BKN047 12/09 A2982 RMK 6036/ 10053 20045 PCPN 0001 PK WND 1832/0540; SLP098 P0001 60005 T01170089 55080,M
SLE,1996-01-15 07:00,53.00,48.00,82.94,180.00,20.00,M,29.81,1009.40,10.00,26.00,BKN,OVC,   ,   ,3900.00,4700.00,M,M,M,M,M,M,30.00,170.00,M,53.06,KSLE 150700Z 18020G26KT 10SM BKN039 OVC047 12/09 A2981 RMK PK WND 1730/0602; SLP094 T01170089,M
SLE,1996-01-15 08:00,52.00,49.00,89.26,170.00,16.00,M,29.80,1009.00,10.00,M,SCT,BKN,OVC,   ,2400.00,3300.00,4400.00,M,-RA,M,M,M,M,M,M,51.98,KSLE 150800Z 17016KT 10SM -RA SCT024 BKN033 OVC044 11/09 A//// RMK SLP090 T01110094,M
SLE,1996-01-15 08:14,M,M,M,190.00,14.00,M,29.79,1008.90,10.00,19.00,BKN,BKN,OVC,   ,2400.00,3300.00,4700.00,M,M,M,M,M,M,M,M,M,KSLE 150814Z 19014G19KT 10SM BKN024 BKN033 OVC047 A2979 RMK OVC V BKN RE08 PCPN 0000; SLP089,M
SLE,1996-01-15 09:00,52.00,48.00,86.30,180.00,20.00,M,29.76,1008.00,10.00,26.00,SCT,SCT,SCT,   ,2600.00,4300.00,7000.00,M,M,M,M,M,26.00,180.00,M,51.98,KSLE 150900Z 18020G26KT 10SM SCT026 SCT043 SCT070 11/09 A2976 RMK 6000/ RE08 PCPN 0000 PK WND 1826/0851; SLP080 T01110089 55080,M
SLE,1996-01-15 10:00,53.00,48.00,82.94,190.00,15.00,M,29.74,1007.10,10.00,M,SCT,SCT,SCT,   ,4400.00,5500.00,12000.00,M,M,M,M,M,26.00,180.00,M,53.06,KSLE 151000Z 19015KT 10SM SCT044 SCT055 SCT120 12/09 A2974 RMK RB20E31 PCPN 0000 PK WND 1826/0911; SLP071 T01170089,M
SLE,1996-01-15 11:00,53.00,48.00,82.94,170.00,19.00,M,29.72,1006.50,10.00,24.00,CLR,   ,   ,   ,M,M,M,M,M,M,M,M,M,M,M,53.06,KSLE 151100Z 17019G24KT 10SM CLR/// 12/09 A2972 RMK CLR BLO SLP065 T01170089 51020,M
SLE,1996-01-15 12:00,53.00,49.00,85.78,180.00,19.00,M,29.71,1005.90,10.00,24.00,BKN,OVC,   ,   ,6000.00,7500.00,M,M,-RA,M,M,M,M,M,M,53.06,KSLE 151200Z 18019G24KT 10SM -RA BKN060 OVC075 12/09 A2971 RMK 6000/ 70072 10053 20049 OVC V BKN RB37 PCPN 0000 PRESFR; SLP059 60025 70071 T01170094 55060,M
SLE,1996-01-15 12:06,M,M,M,220.00,21.00,M,29.75,1007.40,2.50,37.00,SCT,BKN,OVC,   ,1500.00,4000.00,7000.00,M,+RA FG,M,M,M,37.00,240.00,M,M,KSLE 151206Z 22021G37KT 21/2SM +RA FG SCT015 BKN040 OVC070 A2975 RMK BKN V SCT PCPN 0009 WSHFT PK WND 2437/1201 PRESRR; SLP074 8/146,M
SLE,1996-01-15 12:19,M,M,M,240.00,16.00,M,29.73,1006.90,4.00,22.00,BKN,OVC,   ,   ,3300.00,5000.00,M,M,+RA FG,M,M,M,37.00,240.00,M,M,KSLE 151219Z 24016G22KT 4SM +RA FG BKN033 OVC050 A2973 RMK BKN V OVC PCPN 0016 WSHFT PK WND 2437/1201 PRJMP 6/1154/1201; SLP069 8/146,M
SLE,1996-01-15 13:00,48.00,45.00,89.08,190.00,12.00,0.30,29.72,1006.40,7.00,M,BKN,OVC,   ,   ,4200.00,6000.00,M,M,RA,M,M,M,37.00,240.00,M,42.39,KSLE 151300Z 19012KT 7SM RA BKN042 OVC060 09/07 A2972 RMK PCPN 0030 WSHFT PK WND 2437/1201 PRJMP 6/1154/1201; SLP064 P0030 8/146 T00890072,M
SLE,1996-01-15 14:00,49.00,45.00,86.13,180.00,12.00,0.02,29.71,1006.00,10.00,M,SCT,   ,   ,   ,12000.00,M,M,M,M,M,M,M,M,M,M,43.54,KSLE 151400Z 18012KT 10SM SCT120 09/07 A2971 RMK RE19 PCPN 0002 PRESFR; SLP060 P0002 T00940072,M
SLE,1996-01-15 15:00,50.00,46.00,86.19,170.00,14.00,M,29.72,1006.40,10.00,21.00,SCT,   ,   ,   ,4000.00,M,M,M,M,M,M,M,M,M,M,44.36,KSLE 151500Z 17014G21KT 10SM SCT040 10/08 A2972 RMK 6032/; SLP064 T01000078 55010,M
SLE,1996-01-15 16:00,51.00,46.00,82.81,170.00,17.00,M,29.72,1006.40,10.00,21.00,SCT,SCT,BKN,   ,4000.00,4800.00,7500.00,M,M,M,M,M,M,M,M,51.08,KSLE 151600Z 17017G21KT 10SM SCT040 SCT048 BKN075 11/08 A2972 RMK SLP064 T01060078,M
SLE,1996-01-15 17:00,51.00,46.00,82.81,170.00,19.00,0.02,29.72,1006.40,10.00,23.00,BKN,OVC,   ,   ,4100.00,5000.00,M,M,-RA,M,M,M,26.00,170.00,M,51.08,KSLE 151700Z 17019G23KT 10SM -RA BKN041 OVC050 11/08 A2972 RMK RB05 PCPN 0002 PK WND 1726/1634; SLP064 P0002 T01060078,M
SLE,1996-01-15 18:00,52.00,47.00,82.87,170.00,21.00,M,29.72,1006.50,10.00,27.00,SCT,BKN,OVC,   ,3600.00,5000.00,6000.00,M,M,M,M,M,27.00,180.00,M,51.98,KSLE 151800Z 17021G27KT 10SM SCT036 BKN050 OVC060 11/08 A2972 RMK 6034/ 10054 20047 RE56 PCPN 0000 PK WND 1827/1709; SLP065 60001 T01110083 55030,M
SLE,1996-01-15 19:00,51.00,47.00,85.67,180.00,17.00,0.04,29.75,1007.40,7.00,24.00,SCT,BKN,OVC,   ,2200.00,3900.00,6000.00,M,-RA,M,M,M,29.00,170.00,M,51.08,KSLE 151900Z 18017G24KT 7SM -RA SCT022 BKN039 OVC060 11/08 A2975 RMK BKN V SCT RB14 PCPN 0004 PK WND 1729/1835 PRESRR; SLP074 P0004 T01060083,M
SLE,1996-01-15 20:00,51.00,48.00,89.22,180.00,18.00,0.01,29.74,1007.10,7.00,M,SCT,BKN,OVC,   ,1700.00,3900.00,6500.00,M,RA,M,M,M,26.00,170.00,M,51.08,KSLE 152000Z 18018KT 7SM RA SCT017 BKN039 OVC065 11/09 A2974 RMK BKN V SCT RE26B51 PCPN 0001 PK WND 1726/1915; SLP071 P0001 T01060089,M
SLE,1996-01-15 21:00,52.00,48.00,86.30,190.00,14.00,0.09,29.73,1006.70,10.00,M,BKN,BKN,   ,   ,4000.00,5000.00,M,M,M,M,M,M,29.00,180.00,M,51.98,KSLE 152100Z 19014KT 10SM BKN040 BKN050 11/09 A2973 RMK 6014/ BKN V SCT RE34 PCPN 0009 PK WND 1829/2022; SLP067 P0009 T01110089 55010,M
SLE,1996-01-15 22:00,51.00,48.00,89.22,200.00,13.00,0.08,29.74,1007.20,7.00,M,SCT,BKN,OVC,   ,1800.00,3700.00,4800.00,M,-RA,M,M,M,32.00,190.00,M,51.08,KSLE 152200Z 20013KT 7SM -RA SCT018 BKN037 OVC048 11/09 A2974 RMK RB18 PCPN 0008 PK WND 1932/2125; SLP072 P0008 T01060089,M
SLE,1996-01-15 23:00,52.00,47.00,82.87,180.00,15.00,0.01,29.74,1007.00,10.00,21.00,BKN,OVC,   ,   ,2700.00,3400.00,M,M,-RA,M,M,M,27.00,200.00,M,51.98,KSLE 152300Z 18015G21KT 10SM -RA BKN027 OVC034 11/08 A2974 RMK RE09B49 PCPN 0001 PK WND 2027/2208; SLP070 P0001 T01110083,M
SLE,1996-01-15 23:16,M,M,M,260.00,9.00,M,29.76,1007.80,5.00,22.00,BKN,OVC,   ,   ,2300.00,2900.00,M,M,+RA FG,M,M,M,M,M,M,M,KSLE 152316Z 26009G22KT 5SM +RA FG BKN023 OVC029 A2976 RMK BKN V SCT PCPN 0009 WSHFT 2255; SLP078,M
SLE,1996-01-16 00:00,52.00,48.00,86.30,200.00,15.00,0.12,29.77,1008.20,5.00,24.00,SCT,SCT,BKN,   ,2600.00,3400.00,4300.00,M,FG,M,M,M,M,M,M,51.98,KSLE 160000Z 20015G24KT 5SM FG SCT026 SCT034 BKN043 11/09 A2977 RMK 6035/ 10054 20047 RE47 PCPN 0012 WSHFT 2255; SLP082 P0012 60012 T01110089 55030,M
SLE,1996-01-16 00:39,M,M,M,220.00,16.00,M,29.78,1008.60,10.00,M,SCT,BKN,OVC,   ,2100.00,2700.00,4200.00,M,M,M,M,M,M,M,M,M,KSLE 160039Z 22016KT 10SM SCT021 BKN027 OVC042 A2978 RMK SLP086,M
SLE,1996-01-16 01:00,52.00,48.00,86.30,210.00,16.00,M,29.79,1008.90,7.00,21.00,SCT,BKN,OVC,   ,2000.00,4100.00,6000.00,M,-RA,M,M,M,M,M,M,51.98,KSLE 160100Z 21016G21KT 7SM -RA SCT020 BKN041 OVC060 11/09 A2979 RMK RB42 PCPN 0000; SLP089 T01110089,M
SLE,1996-01-16 01:21,M,M,M,190.00,11.00,M,29.80,1009.30,10.00,M,BKN,BKN,OVC,   ,2700.00,3600.00,5000.00,M,M,M,M,M,M,M,M,M,KSLE 160121Z 19011KT 10SM BKN027 BKN036 OVC050 A2980 RMK RE03 PCPN 0001; SLP093,M
SLE,1996-01-16 01:40,M,M,M,200.00,17.00,M,29.80,1009.30,10.00,22.00,SCT,BKN,OVC,   ,2600.00,3300.00,9000.00,M,M,M,M,M,29.00,210.00,M,M,KSLE 160140Z 20017G22KT 10SM SCT026 BKN033 OVC090 A2980 RMK RE03 PCPN 0001 PK WND 2129/0127; SLP093,M
SLE,1996-01-16 02:00,51.00,47.00,85.67,200.00,19.00,0.01,29.81,1009.40,10.00,24.00,SCT,BKN,OVC,   ,2400.00,3100.00,8500.00,M,M,M,M,M,29.00,210.00,M,51.08,KSLE 160200Z 20019G24KT 10SM SCT024 BKN031 OVC085 11/08 A2981 RMK BKN V SCT RE03 PCPN 0001 PK WND 2129/0127; SLP094 P0001 T01060083,M
SLE,1996-01-16 03:00,51.00,47.00,85.67,190.00,15.00,M,29.82,1009.70,10.00,M,BKN,BKN,OVC,   ,3300.00,4600.00,8000.00,M,-RA,M,M,M,M,M,M,51.08,KSLE 160300Z 19015KT 10SM -RA BKN033 BKN046 OVC080 11/08 A2982 RMK 6001/ BKN V SCT RB53 PCPN 0000; SLP097 T01060083 55010,M
SLE,1996-01-16 04:00,50.00,47.00,89.17,180.00,16.00,0.01,29.83,1010.00,10.00,M,SCT,BKN,OVC,   ,3600.00,7000.00,10000.00,M,M,M,M,M,M,M,M,43.88,KSLE 160400Z 18016KT 10SM SCT036 BKN070 OVC100 10/08 A//// RMK SLP100 P0001 T01000083,M
SLE,1996-01-16 05:00,50.00,48.00,92.87,190.00,17.00,M,29.84,1010.60,10.00,M,SCT,BKN,OVC,   ,2600.00,3500.00,4500.00,M,-RA,M,M,M,M,M,M,43.66,KSLE 160500Z 19017KT 10SM -RA SCT026 BKN035 OVC045 10/09 A2984 RMK LAST AUGMENTED OBS OVC V BKN RB41 PCPN 0000; SLP106 T01000089,M
SLE,1996-01-16 06:00,50.00,48.00,92.87,190.00,12.00,0.08,29.86,1011.10,10.00,M,SCT,BKN,OVC,   ,4000.00,5000.00,6500.00,M,-RA,M,M,M,M,M,M,44.91,KSLE 160600Z 19012KT 10SM -RA SCT040 BKN050 OVC065 10/09 A2986 RMK 6010/ 10054 20047 PCPN 0008; SLP111 P0008 60012 T01000089 55010,M
SLE,1996-01-16 06:17,M,M,M,190.00,12.00,M,29.86,1011.20,4.00,M,SCT,BKN,OVC,   ,1200.00,2800.00,4500.00,M,RA FG,M,M,M,M,M,M,M,KSLE 160617Z 19012KT 4SM RA FG SCT012 BKN028 OVC045 A2986 RMK PCPN 0004; SLP112,M
SLE,1996-01-16 07:00,50.00,48.00,92.87,190.00,14.00,0.08,29.87,1011.60,7.00,M,SCT,BKN,OVC,   ,1400.00,4000.00,4800.00,M,RA,M,M,M,M,M,M,44.36,KSLE 160700Z 19014KT 7SM RA SCT014 BKN040 OVC048 10/09 A2987 RMK OVC V BKN PCPN 0008; SLP116 P0008 T01000089,M
SLE,1996-01-16 08:00,50.00,47.00,89.17,190.00,11.00,0.04,29.87,1011.60,10.00,M,BKN,OVC,   ,   ,4300.00,5000.00,M,M,-RA,M,M,M,M,M,M,45.21,KSLE 160800Z 19011KT 10SM -RA BKN043 OVC050 10/08 A2987 RMK PCPN 0004; SLP116 P0004 T01000083,M
SLE,1996-01-16 09:00,49.00,47.00,92.84,200.00,7.00,0.02,29.87,1011.40,10.00,M,SCT,BKN,OVC,   ,1700.00,5000.00,6000.00,M,M,M,M,M,M,M,M,45.40,KSLE 160900Z 20007KT 10SM SCT017 BKN050 OVC060 09/08 A//// RMK SLP114 P0002 T00940083,M
SLE,1996-01-16 10:00,48.00,47.00,96.02,200.00,6.00,M,29.85,1010.90,10.00,M,BKN,BKN,OVC,   ,3800.00,6000.00,8500.00,M,-RA,M,M,M,M,M,M,44.82,KSLE 161000Z 20006KT 10SM -RA BKN038 BKN060 OVC085 09/08 A//// RMK SLP109 T00890083,M
SLE,1996-01-16 11:00,48.00,46.00,92.81,280.00,4.00,M,29.85,1011.00,10.00,M,BKN,OVC,   ,   ,3400.00,4000.00,M,M,M,M,M,M,M,M,M,46.13,KSLE 161100Z 28004KT 10SM BKN034 OVC040 09/08 A2985 RMK RE04B26E35 PCPN 0000; SLP110 T00890078,M
SLE,1996-01-16 11:04,M,M,M,290.00,6.00,M,29.85,1010.90,7.00,M,SCT,SCT,OVC,   ,900.00,2600.00,3400.00,M,-RA,M,M,M,M,M,M,M,KSLE 161104Z 29006KT 7SM -RA SCT009 SCT026 OVC034 A2985 RMK RB1058 PCPN 0000; SLP109,M
SLE,1996-01-16 11:11,M,M,M,310.00,7.00,M,29.85,1010.80,4.00,M,SCT,BKN,OVC,   ,900.00,2100.00,3200.00,M,-RA FG,M,M,M,M,M,M,M,KSLE 161111Z 31007KT 4SM -RA FG SCT009 BKN021 OVC032 A2985 RMK BKN V SCT RB1058 PCPN 0001; SLP108,M
SLE,1996-01-16 11:23,M,M,M,290.00,7.00,M,29.85,1010.80,4.00,M,BKN,BKN,OVC,   ,700.00,1200.00,3000.00,M,RA FG,M,M,M,M,M,M,M,KSLE 161123Z 29007KT 4SM RA FG BKN007 BKN012 OVC030 A2985 RMK BKN V SCT RB1058 PCPN 0003; SLP108,M
SLE,1996-01-16 12:00,46.00,44.00,92.75,290.00,6.00,0.07,29.83,1010.20,7.00,M,SCT,BKN,OVC,   ,900.00,1400.00,3800.00,M,-RA,M,M,M,M,M,M,42.44,KSLE 161200Z 29006KT 7SM -RA SCT009 BKN014 OVC038 08/07 A2983 RMK 6021/ 70100 10054 20046 RB1058 PCPN 0007; SLP102 P0007 60013 70098 T00780067 55080,M
SLE,1996-01-16 13:00,46.00,43.00,88.99,0.00,0.00,M,29.82,1009.70,10.00,M,OVC,   ,   ,   ,1800.00,M,M,M,-RA,M,M,M,M,M,M,46.04,KSLE 161300Z 00000KT 10SM -RA OVC018 08/06 A2982 RMK RE13B30 PCPN 0000; SLP097 T00780061,M
SLE,1996-01-16 13:16,M,M,M,0.00,0.00,M,29.80,1009.30,10.00,M,SCT,OVC,   ,   ,2000.00,4500.00,M,M,-RA,M,M,M,M,M,M,M,KSLE 161316Z 00000KT 10SM -RA SCT020 OVC045 A2980 RMK OVC V BKN PCPN 0001; SLP093,M
SLE,1996-01-16 14:00,45.00,42.00,89.56,10.00,3.00,0.01,29.78,1008.60,10.00,M,SCT,BKN,BKN,   ,6500.00,8000.00,9500.00,M,M,M,M,M,M,M,M,43.50,KSLE 161400Z 01003KT 10SM SCT065 BKN080 BKN095 07/06 A2978 RMK BKN V SCT RE45 PCPN 0001; SLP086 P0001 T00720056,M
SLE,1996-01-16 15:00,44.00,43.00,95.95,10.00,5.00,0.01,29.77,1008.00,10.00,M,BKN,OVC,   ,   ,2800.00,4300.00,M,M,-RA,M,M,M,M,M,M,40.72,KSLE 161500Z 01005KT 10SM -RA BKN028 OVC043 07/06 A2977 RMK 6002/ RB10E24B50 PCPN 0001; SLP080 P0001 T00670061 55080,M
SLE,1996-01-16 15:20,43.88,43.00,96.61,340.00,5.00,M,29.76,1007.70,10.00,M,BKN,OVC,   ,   ,1000.00,2600.00,M,M,-RA,M,M,M,M,M,M,40.50,KSLE 161520Z 34005KT 10SM -RA BKN010 OVC026 07/06 A2976 RMK CIG 7V12 PCPN 0000; SLP077 T00660061,M
SLE,1996-01-16 15:27,M,M,M,330.00,7.00,M,29.75,1007.60,10.00,M,BKN,BKN,OVC,   ,700.00,1000.00,2600.00,M,-RA,M,M,M,M,M,M,M,KSLE 161527Z 33007KT 10SM -RA BKN007 BKN010 OVC026 A2975 RMK CIG 5V8 PCPN 0000; SLP076,M
SLE,1996-01-16 16:00,43.00,42.00,96.60,30.00,8.00,0.01,29.75,1007.30,5.00,M,SCT,OVC,   ,   ,500.00,1400.00,M,M,RA FG,M,M,M,M,M,M,37.64,KSLE 161600Z 03008KT 5SM RA FG SCT005 OVC014 06/06 A2975 RMK PCPN 0001; SLP073 P0001 T00610056,M
SLE,1996-01-16 16:16,M,M,M,40.00,9.00,M,29.73,1006.70,10.00,M,SCT,BKN,OVC,   ,500.00,2100.00,2700.00,M,-RA,M,M,M,M,M,M,M,KSLE 161616Z 04009KT 10SM -RA SCT005 BKN021 OVC027 A2973 RMK BKN V SCT PCPN 0001; SLP067,M
SLE,1996-01-16 17:00,42.00,39.00,88.81,40.00,10.00,0.01,29.72,1006.40,10.00,M,BKN,OVC,   ,   ,2400.00,3400.00,M,M,-RA,M,M,M,M,M,M,35.61,KSLE 161700Z 04010KT 10SM -RA BKN024 OVC034 06/04 A2972 RMK PCPN 0001; SLP064 P0001 T00560039,M
SLE,1996-01-16 18:00,42.00,39.00,88.81,30.00,8.00,0.01,29.70,1005.70,10.00,M,BKN,OVC,   ,   ,2800.00,4600.00,M,M,-RA,M,M,M,M,M,M,36.53,KSLE 161800Z 03008KT 10SM -RA BKN028 OVC046 06/04 A2970 RMK 6005/ 10050 20042 BKN V SCT PCPN 0001; SLP057 P0001 60023 T00560039 55080,M
SLE,1996-01-16 19:00,42.00,39.00,88.81,30.00,10.00,M,29.69,1005.40,10.00,M,SCT,SCT,OVC,   ,1000.00,1300.00,2800.00,M,-RA,M,M,M,M,M,M,35.61,KSLE 161900Z 03010KT 10SM -RA SCT010 SCT013 OVC028 06/04 A2969 RMK PCPN 0000; SLP054 T00560039,M
SLE,1996-01-16 19:18,M,M,M,40.00,9.00,M,29.68,1004.90,10.00,M,SCT,OVC,   ,   ,2800.00,3600.00,M,M,-RA,M,M,M,M,M,M,M,KSLE 161918Z 04009KT 10SM -RA SCT028 OVC036 A2968 RMK PCPN 0000; SLP049,M
SLE,1996-01-16 20:00,43.00,38.00,82.24,10.00,8.00,M,29.67,1004.60,10.00,M,SCT,BKN,   ,   ,2900.00,3400.00,M,M,M,M,M,M,M,M,M,37.64,KSLE 162000Z 01008KT 10SM SCT029 BKN034 06/03 A2967 RMK RE45 PCPN 0000; SLP046 T00610033,M
SLE,1996-01-16 21:00,44.00,35.00,70.42,10.00,8.00,0.01,29.65,1004.00,10.00,M,SCT,SCT,   ,   ,4500.00,5000.00,M,M,M,M,M,M,M,M,M,38.97,KSLE 162100Z 01008KT 10SM SCT045 SCT050 07/02 A2965 RMK 6001/ PCPN 0001; SLP040 P0001 T00670017 55080,M
SLE,1996-01-16 22:00,44.00,38.00,78.91,360.00,8.00,M,29.65,1004.00,10.00,M,SCT,BKN,BKN,   ,2000.00,5500.00,10000.00,M,M,M,M,M,M,M,M,38.97,KSLE 162200Z 36008KT 10SM SCT020 BKN055 BKN100 07/03 A2965 RMK SLP040 T00670033,M
SLE,1996-01-16 23:00,44.00,38.00,78.91,320.00,7.00,M,29.66,1004.30,10.00,M,BKN,BKN,   ,   ,5500.00,11000.00,M,M,M,M,M,M,M,M,M,39.48,KSLE 162300Z 32007KT 10SM BKN055 BKN110 07/03 A2966 RMK BKN V SCT; SLP043 T00670033,M
SLE,1996-01-17 00:00,44.00,38.00,78.91,310.00,8.00,M,29.70,1005.70,10.00,M,BKN,OVC,   ,   ,4000.00,5000.00,M,M,M,M,M,M,M,M,M,38.97,KSLE 170000Z 31008KT 10SM BKN040 OVC050 07/03 A2970 RMK 6001/ 10046 20042; SLP057 60015 T00670033 55030,M
SLE,1996-01-17 00:14,M,M,M,300.00,9.00,M,29.72,1006.30,7.00,20.00,SCT,BKN,OVC,   ,1900.00,2700.00,4000.00,M,RA,M,M,M,M,M,M,M,KSLE 170014Z 30009G20KT 7SM RA SCT019 BKN027 OVC040 A2972 RMK RB04 PCPN 0002; SLP063,M
SLE,1996-01-17 00:28,M,M,M,280.00,6.00,M,29.72,1006.60,10.00,M,SCT,SCT,OVC,   ,1900.00,2700.00,5000.00,M,M,M,M,M,M,M,M,M,KSLE 170028Z 28006KT 10SM SCT019 SCT027 OVC050 A2972 RMK RB04E27 PCPN 0002; SLP066,M
SLE,1996-01-17 01:00,42.00,36.00,78.74,270.00,6.00,0.02,29.74,1007.20,10.00,M,SCT,OVC,   ,   ,5000.00,6000.00,M,M,M,M,M,M,M,M,M,37.67,KSLE 170100Z 27006KT 10SM SCT050 OVC060 06/02 A2974 RMK RB04E27 PCPN 0002; SLP072 P0002 T00560022,M
SLE,1996-01-17 02:00,40.00,37.00,89.34,60.00,4.00,0.02,29.78,1008.30,10.00,M,SCT,BKN,OVC,   ,2600.00,3800.00,8500.00,M,M,M,M,M,M,M,M,36.67,KSLE 170200Z 06004KT 10SM SCT026 BKN038 OVC085 04/03 A2978 RMK BKN V SCT RB28E55 PCPN 0002; SLP083 P0002 T00440028,M
SLE,1996-01-17 03:00,40.00,37.00,89.34,270.00,4.00,M,29.80,1009.10,10.00,M,OVC,   ,   ,   ,8000.00,M,M,M,M,M,M,M,M,M,M,36.67,KSLE 170300Z 27004KT 10SM OVC080 04/03 A2980 RMK 6004/; SLP091 T00440028 55010,M
SLE,1996-01-17 04:00,41.00,35.00,79.21,280.00,7.00,M,29.83,1010.00,10.00,M,OVC,   ,   ,   ,8000.00,M,M,M,M,M,M,M,M,M,M,35.75,KSLE 170400Z 28007KT 10SM OVC080 05/02 A2983 RMK SLP100 T00500017,M
SLE,1996-01-17 05:00,38.00,34.00,85.49,170.00,5.00,M,29.85,1011.00,10.00,M,BKN,   ,   ,   ,6500.00,M,M,M,M,M,M,M,M,M,M,33.45,KSLE 170500Z 17005KT 10SM BKN065 03/01 A2985 RMK SLP110 T00330011,M
SLE,1996-01-17 06:00,36.00,33.00,89.16,170.00,5.00,M,29.88,1011.80,10.00,M,SCT,   ,   ,   ,9000.00,M,M,M,M,M,M,M,M,M,M,31.10,KSLE 170600Z 17005KT 10SM SCT090 02/01 A2988 RMK 6004/ 10050 20036; SLP118 60026 T00220006 55010,M
SLE,1996-01-17 07:00,35.00,33.00,92.40,170.00,4.00,M,29.90,1012.50,10.00,M,SCT,SCT,SCT,   ,2200.00,3000.00,4700.00,M,M,M,M,M,M,M,M,30.99,KSLE 170700Z 17004KT 10SM SCT022 SCT030 SCT047 02/01 A2990 RMK RB24E46 PCPN 0000; SLP125 T00170006,M
SLE,1996-01-17 08:00,35.00,33.00,92.40,160.00,7.00,M,29.93,1013.60,10.00,M,SCT,   ,   ,   ,10000.00,M,M,M,M,M,M,M,M,M,M,28.51,KSLE 170800Z 16007KT 10SM SCT100 02/01 A2993 RMK SLP136 T00170006,M
SLE,1996-01-17 09:00,37.00,34.00,88.57,260.00,4.00,M,29.96,1014.70,10.00,M,BKN,OVC,   ,   ,5000.00,7000.00,M,M,M,M,M,M,M,M,M,33.31,KSLE 170900Z 26004KT 10SM BKN050 OVC070 03/01 A2996 RMK 6000/ OVC V BKN PB40E49 PCPN 0000 PRESRR; SLP147 T00280011 55030,M
SLE,1996-01-17 10:00,38.00,35.00,89.25,150.00,5.00,M,29.97,1014.90,10.00,M,OVC,   ,   ,   ,9000.00,M,M,M,M,M,M,M,M,M,M,33.45,KSLE 171000Z 15005KT 10SM OVC090 03/02 A2997 RMK RB0857E17 PCPN 0000; SLP149 T00330017,M
SLE,1996-01-17 11:00,35.00,34.00,95.79,150.00,6.00,M,29.98,1015.20,10.00,M,BKN,   ,   ,   ,10000.00,M,M,M,M,M,M,M,M,M,M,29.22,KSLE 171100Z 15006KT 10SM BKN100 02/01 A2998 RMK BKN V SCT; SLP152 T00170011,M
SLE,1996-01-17 12:00,38.00,34.00,85.49,0.00,0.00,M,30.01,1016.20,10.00,M,BKN,BKN,OVC,   ,2900.00,4100.00,10000.00,M,-RA,M,M,M,M,M,M,37.94,KSLE 171200Z 00000KT 10SM -RA BKN029 BKN041 OVC100 03/01 A3001 RMK 6000/ 70010 10050 20034 BKN V SCT RB56 PCPN 0000; SLP162 60015 70012 T00330011 55030,M
SLE,1996-01-17 12:27,M,M,M,170.00,7.00,M,30.01,1016.10,10.00,M,SCT,BKN,OVC,   ,2000.00,4100.00,4700.00,M,-RA,M,M,M,M,M,M,M,KSLE 171227Z 17007KT 10SM -RA SCT020 BKN041 OVC047 A3001 RMK PCPN 0002; SLP161,M
SLE,1996-01-17 13:00,35.00,34.00,95.79,170.00,6.00,0.02,30.02,1016.60,10.00,M,SCT,SCT,   ,   ,3400.00,6000.00,M,M,M,M,M,M,M,M,M,29.22,KSLE 171300Z 17006KT 10SM SCT034 SCT060 02/01 A3002 RMK RE31 PCPN 0002; SLP166 P0002 T00170011,M
SLE,1996-01-17 14:00,36.00,35.00,96.49,170.00,7.00,M,30.05,1017.60,10.00,M,SCT,BKN,   ,   ,2800.00,4300.00,M,M,M,M,M,M,M,M,M,29.61,KSLE 171400Z 17007KT 10SM SCT028 BKN043 02/02 A//// RMK SLP176 T00220017,M
SLE,1996-01-17 15:00,37.00,36.00,95.82,190.00,7.00,M,30.07,1018.30,10.00,M,SCT,BKN,OVC,   ,2800.00,4300.00,5500.00,M,M,M,M,M,M,M,M,30.92,KSLE 171500Z 19007KT 10SM SCT028 BKN043 OVC055 03/02 A3007 RMK 10+P- 183/37/36/1907/007/ 6002/ PB49 PCPN 0000; SLP183 T00280022 55030,M
SLE,1996-01-17 16:00,37.00,36.00,95.82,170.00,8.00,M,30.08,1018.60,10.00,M,SCT,OVC,   ,   ,3800.00,6000.00,M,M,M,M,M,M,M,M,M,30.32,KSLE 171600Z 17008KT 10SM SCT038 OVC060 03/02 A3008 RMK PE00 PCPN 0000; SLP186 T00280022,M
SLE,1996-01-17 17:00,38.00,36.00,92.49,200.00,8.00,M,30.12,1020.10,10.00,M,BKN,OVC,   ,   ,6000.00,8000.00,M,M,M,M,M,M,M,M,M,31.43,KSLE 171700Z 20008KT 10SM BKN060 OVC080 03/02 A3012 RMK SLP201 T00330022,M
SLE,1996-01-17 17:39,M,M,M,180.00,5.00,M,30.13,1020.40,10.00,M,SCT,BKN,OVC,   ,800.00,6000.00,9000.00,M,M,M,M,M,M,M,M,M,KSLE 171739Z 18005KT 10SM SCT008 BKN060 OVC090 A3013 RMK CLDS TPNG HILLS W-NW BKN V SCT; SLP204,M
SLE,1996-01-17 18:00,40.00,37.00,89.34,220.00,8.00,M,30.14,1020.80,10.00,M,BKN,BKN,OVC,   ,1000.00,4000.00,6000.00,M,M,M,M,M,M,M,M,33.87,KSLE 171800Z 22008KT 10SM BKN010 BKN040 OVC060 04/03 A3014 RMK CLDS TPNG HILLS W-NW 6002/ 10041 20034 CIG 7V12; SLP208 60023 T00440028 55030,M
SLE,1996-01-17 18:20,41.00,36.86,85.07,200.00,10.00,M,30.14,1020.80,10.00,M,SCT,OVC,   ,   ,1200.00,4000.00,M,M,M,M,M,M,M,M,M,34.25,KSLE 171820Z 20010KT 10SM SCT012 OVC040 05/03 A3014 RMK SLP208 T00500027,M
SLE,1996-01-17 18:37,M,M,M,160.00,5.00,M,30.15,1020.90,10.00,M,BKN,OVC,   ,   ,1000.00,4000.00,M,M,M,M,M,M,M,M,M,M,KSLE 171837Z 16005KT 10SM BKN010 OVC040 A3015 RMK CIG 8V14; SLP209,M
SLE,1996-01-17 19:00,41.00,37.00,85.67,150.00,5.00,M,30.14,1020.90,10.00,M,BKN,BKN,OVC,   ,1200.00,3800.00,4600.00,M,M,M,M,M,M,M,M,37.08,KSLE 171900Z 15005KT 10SM BKN012 BKN038 OVC046 05/03 A3014 RMK SLP209 T00500028,M
SLE,1996-01-17 19:05,M,M,M,180.00,5.00,M,30.15,1021.00,10.00,M,SCT,BKN,OVC,   ,900.00,1400.00,4600.00,M,M,M,M,M,M,M,M,M,KSLE 171905Z 18005KT 10SM SCT009 BKN014 OVC046 A3015 RMK SLP210,M
SLE,1996-01-17 20:00,42.00,38.00,85.13,170.00,7.00,M,30.15,1021.20,10.00,M,BKN,BKN,OVC,   ,1200.00,3900.00,8000.00,M,M,M,M,M,M,M,M,37.07,KSLE 172000Z 17007KT 10SM BKN012 BKN039 OVC080 06/03 A3015 RMK SLP212 T00560033,M
SLE,1996-01-17 20:10,M,M,M,150.00,7.00,M,30.15,1020.90,10.00,M,SCT,OVC,   ,   ,1200.00,8000.00,M,M,M,M,M,M,M,M,M,M,KSLE 172010Z 15007KT 10SM SCT012 OVC080 A3015 RMK SLP209,M
SLE,1996-01-17 21:00,43.00,37.00,79.38,190.00,6.00,M,30.15,1021.00,10.00,M,SCT,   ,   ,   ,7000.00,M,M,M,M,M,M,M,M,M,M,38.75,KSLE 172100Z 19006KT 10SM SCT070 06/03 A3015 RMK 50003; SLP210 T00610028,M
SLE,1996-01-17 22:00,45.00,38.00,76.25,170.00,8.00,M,30.13,1020.40,10.00,M,SCT,SCT,SCT,   ,1600.00,5000.00,7000.00,M,M,M,M,M,M,M,M,40.08,KSLE 172200Z 17008KT 10SM SCT016 SCT050 SCT070 07/03 A3013 RMK SLP204 T00720033,M
SLE,1996-01-17 23:00,44.00,37.00,76.16,180.00,6.00,M,30.13,1020.40,10.00,M,SCT,BKN,   ,   ,2000.00,6500.00,M,M,M,M,M,M,M,M,M,40.05,KSLE 172300Z 18006KT 10SM SCT020 BKN065 07/03 A3013 RMK BKN V SCT; SLP204 T00670028,M
SLE,1996-01-18 00:00,44.00,37.00,76.16,170.00,7.00,M,30.13,1020.20,10.00,M,SCT,BKN,   ,   ,4900.00,6000.00,M,M,M,M,M,M,M,M,M,39.48,KSLE 180000Z 17007KT 10SM SCT049 BKN060 07/03 A3013 RMK 10046 20034; SLP202 60007 T00670028 55060,M
SLE,1996-01-18 01:00,41.00,37.00,85.67,160.00,5.00,M,30.13,1020.50,10.00,M,BKN,   ,   ,   ,4500.00,M,M,M,M,M,M,M,M,M,M,37.08,KSLE 180100Z 16005KT 10SM BKN045 05/03 A3013 RMK SLP205 T00500028,M
SLE,1996-01-18 02:00,40.00,37.00,89.34,150.00,6.00,M,30.14,1020.50,10.00,M,BKN,   ,   ,   ,5500.00,M,M,M,M,M,M,M,M,M,M,35.07,KSLE 180200Z 15006KT 10SM BKN055 04/03 A//// RMK SLP205 T00440028,M
SLE,1996-01-18 03:00,37.00,36.00,95.82,0.00,0.00,M,30.13,1020.50,10.00,M,CLR,   ,   ,   ,M,M,M,M,M,M,M,M,M,M,M,37.04,KSLE 180300Z 00000KT 10SM CLR/// 03/02 A3013 RMK CLR BLO 51002; SLP205 T00280022 51020,M
SLE,1996-01-18 04:00,37.00,34.00,88.57,140.00,4.00,M,30.14,1020.80,10.00,M,CLR,   ,   ,   ,M,M,M,M,M,M,M,M,M,M,M,33.31,KSLE 180400Z 14004KT 10SM CLR/// 03/01 A3014 RMK CLR BLO SLP208 T00280011 51020,M
SLE,1996-01-18 05:00,36.00,34.00,92.43,150.00,4.00,M,30.13,1020.50,10.00,M,SCT,   ,   ,   ,5500.00,M,M,M,M,M,M,M,M,M,M,32.04,KSLE 180500Z 15004KT 10SM SCT055 02/01 A3013 RMK SLP205 T00220011,M
SLE,1996-01-18 06:00,34.00,33.00,96.46,160.00,5.00,M,30.11,1019.90,10.00,M,BKN,   ,   ,   ,6000.00,M,M,M,M,M,M,M,M,M,M,28.75,KSLE 180600Z 16005KT 10SM BKN060 01/01 A3011 RMK 10046 20034; SLP199 60005 T00110006 55080,M
SLE,1996-01-18 07:00,36.00,33.00,89.16,0.00,0.00,M,30.09,1018.90,10.00,M,CLR,   ,   ,   ,M,M,M,M,M,M,M,M,M,M,M,35.96,KSLE 180700Z 00000KT 10SM CLR/// 02/01 A3009 RMK CLR BLO SLP189 T00220006 51020,M
SLE,1996-01-18 08:00,32.00,31.00,95.73,210.00,3.00,M,30.06,1018.10,10.00,M,CLR,   ,   ,   ,M,M,M,M,M,M,M,M,M,M,M,28.69,KSLE 180800Z 21003KT 10SM CLR/// 00/M01 A3006 RMK CLR BLO SLP181 T00001006 51020,M
SLE,1996-01-18 09:00,32.00,31.00,95.73,0.00,0.00,M,30.01,1016.50,10.00,M,CLR,   ,   ,   ,M,M,M,M,M,M,M,M,M,M,M,32.00,KSLE 180900Z 00000KT 10SM CLR/// 00/M01 A3001 RMK CLR BLO 58033; SLP165 T00001006 51020,M
SLE,1996-01-18 09:15,M,M,M,0.00,0.00,M,30.00,1016.00,10.00,M,SCT,   ,   ,   ,100.00,M,M,M,M,M,M,M,M,M,M,M,KSLE 180915Z 00000KT 10SM SCT001 A3000 RMK SLP160,M
SLE,1996-01-18 09:24,M,M,M,0.00,0.00,M,29.99,1015.80,10.00,M,BKN,   ,   ,   ,100.00,M,M,M,M,M,M,M,M,M,M,M,KSLE 180924Z 00000KT 10SM BKN001 A2999 RMK SLP158,M
SLE,1996-01-18 10:00,31.00,31.00,100.00,230.00,3.00,M,29.97,1015.10,7.00,M,SCT,   ,   ,   ,100.00,M,M,M,M,M,M,M,M,M,M,27.45,KSLE 181000Z 23003KT 7SM SCT001 M01/M01 A2997 RMK SLP151 T10061006,M
SLE,1996-01-18 11:00,33.00,33.00,100.00,0.00,0.00,M,29.94,1014.00,7.00,M,CLR,   ,   ,   ,M,M,M,M,M,M,M,M,M,M,M,33.08,KSLE 181100Z 00000KT 7SM CLR/// 01/01 A2994 RMK CLR BLO SLP140 T00060006 51020,M
SLE,1996-01-18 11:38,M,M,M,0.00,0.00,M,29.91,1012.80,2.50,M,CLR,   ,   ,   ,M,M,M,M,FG,M,M,M,M,M,M,M,KSLE 181138Z 00000KT 21/2SM FG CLR A2991 RMK CLR BLO SLP128 51020,M
SLE,1996-01-18 12:00,33.00,33.00,100.00,0.00,0.00,M,29.89,1012.10,4.00,M,CLR,   ,   ,   ,M,M,M,M,FG,M,M,M,M,M,M,33.08,KSLE 181200Z 00000KT 4SM FG CLR/// 01/01 A2989 RMK CLR BLO 58042 70002 10046 20031; SLP121 70002 T00060006 51020,M
SLE,1996-01-18 13:00,33.00,33.00,100.00,0.00,0.00,M,29.85,1010.90,7.00,M,BKN,   ,   ,   ,11000.00,M,M,M,M,M,M,M,M,M,M,33.08,KSLE 181300Z 00000KT 7SM BKN110 01/01 A2985 RMK BKN V OVC; SLP109 T00060006,M
SLE,1996-01-18 14:00,33.00,33.00,100.00,300.00,4.00,M,29.81,1009.80,7.00,M,BKN,   ,   ,   ,9500.00,M,M,M,M,M,M,M,M,M,M,28.68,KSLE 181400Z 30004KT 7SM BKN095 01/01 A2981 RMK BKN V OVC; SLP098 T00060006,M
SLE,1996-01-18 15:00,34.00,33.00,96.46,0.00,0.00,M,29.78,1008.60,10.00,M,BKN,OVC,   ,   ,9500.00,11000.00,M,M,M,M,M,M,M,M,M,33.98,KSLE 181500Z 00000KT 10SM BKN095 OVC110 01/01 A2978 RMK BKN V OVC; SLP086 T00110006 55060,M
SLE,1996-01-18 16:00,36.00,33.00,89.16,30.00,5.00,M,29.71,1006.20,10.00,M,OVC,   ,   ,   ,4800.00,M,M,M,M,M,M,M,M,M,M,31.10,KSLE 181600Z 03005KT 10SM OVC048 02/01 A2971 RMK PRESFR ; SLP062 T00220006,M
SLE,1996-01-18 17:00,35.00,34.00,95.79,20.00,7.00,M,29.63,1003.60,10.00,M,SCT,SCT,OVC,   ,500.00,2800.00,3400.00,M,-RA,M,M,M,M,M,M,28.51,KSLE 181700Z 02007KT 10SM -RA SCT005 SCT028 OVC034 02/01 A2963 RMK OVC V BKN RB48 PCPN 0000 PRESFR; SLP036 T00170011,M
SLE,1996-01-18 18:00,36.00,33.00,89.16,20.00,3.00,0.01,29.58,1001.80,10.00,M,OVC,   ,   ,   ,2800.00,M,M,M,-RA,M,M,M,M,M,M,33.22,KSLE 181800Z 02003KT 10SM -RA OVC028 02/01 A2958 RMK 6001/ 10036 20031 RE1657PB1657E03B35E39RB39 PCPN 0001 PRESFR; SLP018 P0001 60067 T00220006 55060,M
SLE,1996-01-18 18:33,M,M,M,350.00,4.00,M,29.55,1000.90,2.50,M,BKN,OVC,   ,   ,1800.00,2800.00,M,M,SN,M,M,M,M,M,M,M,KSLE 181833Z 35004KT 21/2SM SN BKN018 OVC028 A2955 RMK RE20SB05 PCPN 0005; SLP009,M
SLE,1996-01-18 19:00,34.00,33.00,96.46,300.00,3.00,0.07,29.53,1000.10,5.00,M,OVC,   ,   ,   ,2900.00,M,M,M,-RA,M,M,M,M,M,M,30.95,KSLE 181900Z 30003KT 5SM -RA OVC029 01/01 A2953 RMK RE20B48SB05E48 PCPN 0007; SLP001 P0007 T00110006,M
SLE,1996-01-18 19:10,M,M,M,0.00,0.00,M,29.51,999.40,3.00,M,SCT,OVC,   ,   ,400.00,2700.00,M,M,-RA,M,M,M,M,M,M,M,KSLE 181910Z 00000KT 3SM -RA SCT004 OVC027 A2951 RMK OVC V BKN PCPN 0004 PRESFR; SLP994,M
SLE,1996-01-18 19:26,M,M,M,0.00,0.00,M,29.50,999.00,4.00,M,BKN,OVC,   ,   ,400.00,2700.00,M,M,-RASN,M,M,M,M,M,M,M,KSLE 181926Z 00000KT 4SM -RASN BKN004 OVC027 A2950 RMK SB22 PCPN 0008 PRESFR; SLP990,M
SLE,1996-01-18 20:00,34.00,33.00,96.46,320.00,6.00,0.12,29.48,998.30,3.00,M,BKN,BKN,OVC,   ,400.00,2100.00,2600.00,M,-RASN,M,M,M,M,M,M,27.91,KSLE 182000Z 32006KT 3SM -RASN BKN004 BKN021 OVC026 01/01 A2948 RMK BKN V OVC SB22 PCPN 0012 PRESFR; SLP983 P0012 T00110006,M
SLE,1996-01-18 20:14,M,M,M,360.00,6.00,M,29.45,997.40,2.00,M,BKN,BKN,OVC,   ,400.00,1500.00,2400.00,M,-RASN,M,M,M,M,M,M,M,KSLE 182014Z 36006KT 2SM -RASN BKN004 BKN015 OVC024 A2945 RMK PCPN 0000 PRESFR; SLP974,M
SLE,1996-01-18 20:31,M,M,M,340.00,5.00,M,29.43,996.80,1.75,M,BKN,BKN,OVC,   ,200.00,1400.00,2200.00,M,-RASN,M,M,M,M,M,M,M,KSLE 182031Z 34005KT 13/4SM -RASN BKN002 BKN014 OVC022 A2943 RMK BKN V OVC PCPN 0001 PRESFR; SLP968,M
SLE,1996-01-18 20:39,M,M,M,10.00,4.00,M,29.42,996.40,2.00,M,BKN,OVC,   ,   ,200.00,1400.00,M,M,-RASN,M,M,M,M,M,M,M,KSLE 182039Z 01004KT 2SM -RASN BKN002 OVC014 A2942 RMK BKN V OVC PCPN 0002 PRESFR; SLP964,M
SLE,1996-01-18 21:00,35.00,34.00,95.79,320.00,4.00,0.03,29.40,995.80,2.50,M,OVC,   ,   ,   ,200.00,M,M,M,-RA,M,M,M,M,M,M,30.99,KSLE 182100Z 32004KT 21/2SM -RA OVC002 02/01 A2940 RMK 6022/ SE55 PCPN 0003 PRESFR; SLP958 P0003 T00170011 55080,M
SLE,1996-01-18 22:00,36.00,35.00,96.49,290.00,3.00,0.03,29.36,994.40,2.50,M,OVC,   ,   ,   ,200.00,M,M,M,-RA,M,M,M,M,M,M,33.22,KSLE 182200Z 29003KT 21/2SM -RA OVC002 02/02 A2936 RMK PCPN 0003; SLP944 P0003 T00220017,M
SLE,1996-01-18 22:03,M,M,M,260.00,3.00,M,29.37,994.60,2.50,M,OVC,   ,   ,   ,200.00,M,M,M,-RA,M,M,M,M,M,M,M,KSLE 182203Z 26003KT 21/2SM -RA OVC002 A2937 RMK AO2A M2 OVC 21/2R- 946/36/35/2603/937/ PCPN 0000; SLP946,M
SLE,1996-01-18 22:12,M,M,M,70.00,3.00,M,29.33,993.30,2.50,M,OVC,   ,   ,   ,200.00,M,M,M,RA,M,M,M,M,M,M,M,KSLE 182212Z 07003KT 21/2SM RA OVC002 A2933 RMK PCPN 0003 PRESFR; SLP933,M
SLE,1996-01-18 23:00,36.00,36.00,100.00,200.00,5.00,0.09,29.33,993.50,2.50,M,OVC,   ,   ,   ,200.00,M,M,M,-RA FG,M,M,M,M,M,M,31.10,KSLE 182300Z 20005KT 21/2SM -RA FG OVC002 02/02 A2933 RMK PCPN 0009 PRESFR; SLP935 P0009 T00220022,M
SLE,1996-01-19 00:00,40.00,38.00,92.56,140.00,12.00,0.02,29.32,992.80,5.00,M,SCT,BKN,OVC,   ,2700.00,4000.00,6000.00,M,-RA FG,M,M,M,M,M,M,32.08,KSLE 190000Z 14012KT 5SM -RA FG SCT027 BKN040 OVC060 04/03 A2932 RMK VSBY W 3 6036/ 10040 20031 PCPN 0002; SLP928 P0002 60027 T00440033 55060,M
SLE,1996-01-19 01:00,46.00,44.00,92.75,150.00,18.00,0.01,29.28,991.40,7.00,M,SCT,BKN,OVC,   ,2200.00,2800.00,4900.00,M,-RA,M,M,M,M,M,M,38.23,KSLE 190100Z 15018KT 7SM -RA SCT022 BKN028 OVC049 08/07 A2928 RMK PCPN 0001 PRESFR; SLP914 P0001 T00780067,M
SLE,1996-01-19 01:31,M,M,M,170.00,25.00,M,29.27,991.30,10.00,33.00,SCT,BKN,OVC,   ,1700.00,4100.00,4900.00,M,M,M,M,M,33.00,170.00,M,M,KSLE 190131Z 17025G33KT 10SM SCT017 BKN041 OVC049 A2927 RMK RE03 PCPN 0001 PK WND 1733/0131; SLP913,M
SLE,1996-01-19 02:00,48.00,45.00,89.08,170.00,26.00,0.01,29.27,991.30,10.00,35.00,SCT,BKN,OVC,   ,1800.00,3800.00,6000.00,M,M,M,M,M,35.00,170.00,M,39.34,KSLE 190200Z 17026G35KT 10SM SCT018 BKN038 OVC060 09/07 A2927 RMK BKN V SCT RE03 PCPN 0001 PK WND 1735/0153; SLP913 P0001 T00890072,M
SLE,1996-01-19 03:00,48.00,44.00,86.08,170.00,23.00,0.01,29.27,991.20,5.00,30.00,SCT,BKN,OVC,   ,3200.00,4300.00,5000.00,M,-RA FG,M,M,M,31.00,170.00,M,39.85,KSLE 190300Z 17023G30KT 5SM -RA FG SCT032 BKN043 OVC050 09/07 A2927 RMK 6003/ RB31 PCPN 0001 PK WND 1731/0207; SLP912 P0001 T00890067 55060,M
SLE,1996-01-19 04:00,48.00,44.00,86.08,190.00,20.00,0.04,29.33,993.10,10.00,27.00,SCT,OVC,   ,   ,2900.00,3600.00,M,M,RA,M,M,M,35.00,190.00,M,40.42,KSLE 190400Z 19020G27KT 10SM RA SCT029 OVC036 09/07 A2933 RMK OVC V BKN PCPN 0004 PK WND 1935/0320; SLP931 P0004 T00890067,M
SLE,1996-01-19 05:00,47.00,43.00,86.02,200.00,21.00,0.07,29.37,994.70,10.00,24.00,SCT,OVC,   ,   ,2700.00,3600.00,M,M,-RA,M,M,M,31.00,200.00,M,38.78,KSLE 190500Z 20021G24KT 10SM -RA SCT027 OVC036 08/06 A2937 RMK LAST AUGMENTED OBS PCPN 0007 PK WND 2031/0404; SLP947 P0007 T00830061,M
SLE,1996-01-19 06:00,46.00,42.00,85.97,210.00,20.00,0.04,29.40,995.60,10.00,M,OVC,   ,   ,   ,4100.00,M,M,M,-RA,M,M,M,M,M,M,37.79,KSLE 190600Z 21020KT 10SM -RA OVC041 08/06 A//// RMK SLP956 P0004 T00780056,M
SLE,1996-01-19 07:00,45.00,41.00,85.90,210.00,15.00,0.02,29.45,997.30,10.00,23.00,BKN,BKN,BKN,   ,3700.00,4900.00,5500.00,M,M,M,M,M,27.00,220.00,M,37.58,KSLE 190700Z 21015G23KT 10SM BKN037 BKN049 BKN055 07/05 A2945 RMK BKN V SCT RE51 PCPN 0002 PK WND 2227/0557 PRESRR; SLP973 P0002 T00720050,M
SLE,1996-01-19 08:00,46.00,41.00,82.45,200.00,12.00,M,29.50,998.90,10.00,M,BKN,OVC,   ,   ,3900.00,4600.00,M,M,M,M,M,M,M,M,M,39.87,KSLE 190800Z 20012KT 10SM BKN039 OVC046 08/05 A2950 RMK OVC V BKN; SLP989 T00780050,M
SLE,1996-01-19 09:00,45.00,41.00,85.90,170.00,7.00,M,29.55,1000.50,10.00,M,BKN,BKN,   ,   ,4200.00,11000.00,M,M,M,M,M,M,M,M,M,40.58,KSLE 190900Z 17007KT 10SM BKN042 BKN110 07/05 A2955 RMK 6002/; SLP005 T00720050 55010,M
SLE,1996-01-19 10:00,45.00,41.00,85.90,190.00,9.00,M,29.58,1001.70,10.00,M,BKN,BKN,OVC,   ,4000.00,4800.00,6500.00,M,M,M,M,M,M,M,M,39.63,KSLE 191000Z 19009KT 10SM BKN040 BKN048 OVC065 07/05 A2958 RMK BKN V OVC; SLP017 T00720050,M
SLE,1996-01-19 11:00,44.00,42.00,92.69,180.00,11.00,M,29.61,1002.80,10.00,M,BKN,OVC,   ,   ,3300.00,4800.00,M,M,-RA,M,M,M,M,M,M,37.71,KSLE 191100Z 18011KT 10SM -RA BKN033 OVC048 07/06 A2961 RMK RB28E37B55 PCPN 0000; SLP028 T00670056,M
SLE,1996-01-19 12:00,44.00,42.00,92.69,190.00,9.00,0.04,29.63,1003.40,10.00,M,OVC,   ,   ,   ,3600.00,M,M,M,-RA,M,M,M,M,M,M,38.51,KSLE 191200Z 19009KT 10SM -RA OVC036 07/06 A2963 RMK 6006/ 70061 10048 20040 OVC V BKN PCPN 0004; SLP034 P0004 60029 70059 T00670056 55010,M
SLE,1996-01-19 13:00,45.00,42.00,89.56,190.00,10.00,0.03,29.65,1004.00,10.00,M,SCT,BKN,   ,   ,4000.00,9000.00,M,M,M,M,M,M,M,M,M,39.22,KSLE 191300Z 19010KT 10SM SCT040 BKN090 07/06 A2965 RMK BKN V OVC RE21 PCPN 0003; SLP040 P0003 T00720056,M
SLE,1996-01-19 14:00,45.00,41.00,85.90,200.00,12.00,M,29.68,1005.00,10.00,M,SCT,BKN,OVC,   ,3900.00,4900.00,8000.00,M,-RA,M,M,M,M,M,M,38.50,KSLE 191400Z 20012KT 10SM -RA SCT039 BKN049 OVC080 07/05 A//// RMK SLP050 T00720050,M
SLE,1996-01-19 15:00,44.00,41.00,88.90,190.00,11.00,0.02,29.70,1005.70,10.00,M,SCT,BKN,OVC,   ,3400.00,4400.00,7000.00,M,-RA,M,M,M,M,M,M,37.71,KSLE 191500Z 19011KT 10SM -RA SCT034 BKN044 OVC070 07/05 A//// RMK SLP057 P0002 T00670050,M
SLE,1996-01-19 16:00,44.00,41.00,88.90,190.00,13.00,0.02,29.70,1005.90,10.00,M,SCT,SCT,BKN,   ,4200.00,4900.00,6000.00,M,-RA,M,M,M,M,M,M,37.02,KSLE 191600Z 19013KT 10SM -RA SCT042 SCT049 BKN060 07/05 A2970 RMK BKN V SCT PCPN 0002; SLP059 P0002 T00670050,M
SLE,1996-01-19 17:00,45.00,42.00,89.56,190.00,10.00,0.02,29.72,1006.60,10.00,M,SCT,   ,   ,   ,4000.00,M,M,M,M,M,M,M,M,M,M,39.22,KSLE 191700Z 19010KT 10SM SCT040 07/06 A2972 RMK RE1558B14E36 PCPN 0002; SLP066 P0002 T00720056,M
SLE,1996-01-19 18:00,46.00,42.00,85.97,170.00,10.00,M,29.75,1007.50,10.00,M,SCT,BKN,BKN,   ,2600.00,3200.00,4800.00,M,M,M,M,M,M,M,M,40.57,KSLE 191800Z 17010KT 10SM SCT026 BKN032 BKN048 08/06 A2975 RMK 6009/ 10046 20034 BKN V SCT RB1658E07 PCPN 0000; SLP075 60017 T00780056 55030,M
SLE,1996-01-19 19:00,47.00,43.00,86.02,170.00,11.00,0.01,29.76,1007.90,10.00,M,SCT,BKN,OVC,   ,1600.00,3600.00,4500.00,M,RA,M,M,M,M,M,M,41.35,KSLE 191900Z 17011KT 10SM RA SCT016 BKN036 OVC045 08/06 A2976 RMK RB39 PCPN 0001; SLP079 P0001 T00830061,M
SLE,1996-01-19 20:00,46.00,43.00,88.99,180.00,11.00,0.08,29.75,1007.50,7.00,M,SCT,BKN,OVC,   ,2100.00,3500.00,4500.00,M,RA,M,M,M,M,M,M,40.21,KSLE 192000Z 18011KT 7SM RA SCT021 BKN035 OVC045 08/06 A2975 RMK PCPN 0008; SLP075 P0008 T00780061,M
SLE,1996-01-19 21:00,49.00,44.00,83.23,170.00,14.00,M,29.75,1007.30,10.00,M,SCT,BKN,OVC,   ,1900.00,2300.00,4900.00,M,M,M,M,M,M,M,M,42.97,KSLE 192100Z 17014KT 10SM SCT019 BKN023 OVC049 09/07 A2975 RMK 6009/ RE17 PCPN 0000; SLP073 T00940067 55000,M
SLE,1996-01-19 22:00,45.00,41.00,85.90,200.00,13.00,0.02,29.79,1008.80,10.00,M,SCT,OVC,   ,   ,2500.00,3500.00,M,M,-RA,M,M,M,M,M,M,38.17,KSLE 192200Z 20013KT 10SM -RA SCT025 OVC035 07/05 A2979 RMK RB38 PCPN 0002; SLP088 P0002 T00720050,M
SLE,1996-01-19 23:00,45.00,41.00,85.90,220.00,7.00,0.02,29.84,1010.40,10.00,M,BKN,OVC,   ,   ,3500.00,4300.00,M,M,M,M,M,M,M,M,M,40.58,KSLE 192300Z 22007KT 10SM BKN035 OVC043 07/05 A2984 RMK RE46 PCPN 0002; SLP104 P0002 T00720050,M
SLE,1996-01-19 23:12,M,M,M,230.00,8.00,M,29.86,1011.00,10.00,M,SCT,BKN,OVC,   ,1700.00,2400.00,3500.00,M,M,M,M,M,M,M,M,M,KSLE 192312Z 23008KT 10SM SCT017 BKN024 OVC035 A2986 RMK PRESRR; SLP110,M
SLE,1996-01-19 23:38,M,M,M,260.00,5.00,M,29.87,1011.60,10.00,M,SCT,SCT,OVC,   ,2400.00,2900.00,4600.00,M,M,M,M,M,M,M,M,M,KSLE 192338Z 26005KT 10SM SCT024 SCT029 OVC046 A2987 RMK PRESRR; SLP116,M
SLE,1996-01-20 00:00,47.00,42.00,83.09,260.00,9.00,M,29.88,1011.90,10.00,M,BKN,OVC,   ,   ,3800.00,4600.00,M,M,-RA,M,M,M,M,M,M,42.09,KSLE 200000Z 26009KT 10SM -RA BKN038 OVC046 08/06 A2988 RMK 6013/ 10049 20044 RB52 PCPN 0000 PRESRR; SLP119 60044 T00830056 55030,M
SLE,1996-01-20 01:00,45.00,40.00,82.38,270.00,7.00,M,29.94,1014.00,10.00,M,SCT,SCT,BKN,   ,2800.00,3400.00,4600.00,M,M,M,M,M,M,M,M,40.58,KSLE 200100Z 27007KT 10SM SCT028 SCT034 BKN046 07/04 A2994 RMK BKN V SCT RE01B17E22 PCPN 0000; SLP140 T00720044,M
SLE,1996-01-20 02:00,45.00,38.00,76.25,200.00,4.00,M,29.98,1015.20,10.00,M,OVC,   ,   ,   ,4400.00,M,M,M,M,M,M,M,M,M,M,42.55,KSLE 200200Z 20004KT 10SM OVC044 07/03 A2998 RMK SLP152 T00720033,M
SLE,1996-01-20 03:00,42.00,39.00,88.81,150.00,7.00,M,30.00,1015.90,10.00,M,SCT,OVC,   ,   ,4000.00,9000.00,M,M,M,M,M,M,M,M,M,37.07,KSLE 200300Z 15007KT 10SM SCT040 OVC090 06/04 A3000 RMK 6000/; SLP159 T00560039 55010,M
SLE,1996-01-20 04:00,43.00,38.00,82.24,200.00,11.00,M,30.02,1016.70,10.00,M,OVC,   ,   ,   ,3600.00,M,M,M,M,M,M,M,M,M,M,36.34,KSLE 200400Z 20011KT 10SM OVC036 06/03 A3002 RMK SLP167 T00610033,M
SLE,1996-01-20 05:00,42.00,38.00,85.13,190.00,10.00,M,30.03,1017.00,10.00,M,SCT,BKN,   ,   ,7500.00,9000.00,M,M,M,M,M,M,M,M,M,35.61,KSLE 200500Z 19010KT 10SM SCT075 BKN090 06/03 A3003 RMK AO2A SCT M90 BKN 10+ 170/42/38/1910/003LAST AUGMENTED OBS; SLP170 T00560033,M
SLE,1996-01-20 06:00,43.00,38.00,82.24,180.00,10.00,M,30.03,1016.80,10.00,M,BKN,BKN,OVC,   ,6000.00,8000.00,9000.00,M,M,M,M,M,M,M,M,36.74,KSLE 200600Z 18010KT 10SM BKN060 BKN080 OVC090 06/03 A3003 RMK 6000/ 10049 20042; SLP168 60010 T00610033 55000,M
SLE,1996-01-20 07:00,43.00,39.00,85.79,180.00,13.00,M,30.02,1016.70,10.00,M,BKN,OVC,   ,   ,7000.00,9000.00,M,M,M,M,M,M,M,M,M,35.64,KSLE 200700Z 18013KT 10SM BKN070 OVC090 06/04 A3002 RMK BKN V SCT; SLP167 T00610039,M
SLE,1996-01-20 08:00,42.00,40.00,91.98,170.00,11.00,0.01,30.00,1016.00,7.00,M,BKN,OVC,   ,   ,4000.00,4800.00,M,M,-RA,M,M,M,M,M,M,35.20,KSLE 200800Z 17011KT 7SM -RA BKN040 OVC048 06/04 A3000 RMK OVC V BKN RB22 PCPN 0001; SLP160 P0001 T00560044,M
SLE,1996-01-20 09:00,43.00,39.00,85.79,160.00,14.00,0.01,29.97,1014.90,10.00,M,BKN,OVC,   ,   ,4600.00,7500.00,M,M,-RA,M,M,M,M,M,M,35.32,KSLE 200900Z 16014KT 10SM -RA BKN046 OVC075 06/04 A2997 RMK 6002/ PCPN 0001; SLP149 P0001 T00610039 55080,M
SLE,1996-01-20 10:00,43.00,40.00,88.85,150.00,10.00,0.01,29.93,1013.50,10.00,18.00,SCT,BKN,OVC,   ,1800.00,4400.00,6500.00,M,-RA,M,M,M,M,M,M,36.74,KSLE 201000Z 15010G18KT 10SM -RA SCT018 BKN044 OVC065 06/04 A2993 RMK PCPN 0001; SLP135 P0001 T00610044,M
SLE,1996-01-20 11:00,43.00,39.00,85.79,160.00,13.00,0.01,29.87,1011.60,10.00,19.00,SCT,OVC,   ,   ,2700.00,5500.00,M,M,-RA,M,M,M,M,M,M,35.64,KSLE 201100Z 16013G19KT 10SM -RA SCT027 OVC055 06/04 A2987 RMK RE10B53 PCPN 0001; SLP116 P0001 T00610039,M
SLE,1996-01-20 12:00,43.00,39.00,85.79,170.00,18.00,0.03,29.83,1010.20,10.00,M,SCT,BKN,OVC,   ,2000.00,4000.00,5500.00,M,-RA,M,M,M,32.00,190.00,M,34.20,KSLE 201200Z 17018KT 10SM -RA SCT020 BKN040 OVC055 06/04 A2983 RMK 6007/ 70029 10049 20042 PCPN 0003 PK WND 1932/1123; SLP102 P0003 60049 70028 T00610039 55080,M
SLE,1996-01-20 13:00,43.00,40.00,88.85,170.00,23.00,0.07,29.77,1008.30,7.00,33.00,BKN,BKN,OVC,   ,3400.00,8500.00,12000.00,M,-RA,M,M,M,33.00,180.00,M,33.07,KSLE 201300Z 17023G33KT 7SM -RA BKN034 BKN085 OVC120 06/04 A2977 RMK PCPN 0007 PK WND 1833/1246 PRESFR; SLP083 P0007 T00610044,M
SLE,1996-01-20 14:00,44.00,40.00,85.25,180.00,24.00,0.07,29.74,1007.20,10.00,30.00,SCT,BKN,OVC,   ,1800.00,4000.00,6500.00,M,M,M,M,M,36.00,180.00,M,34.33,KSLE 201400Z 18024G30KT 10SM SCT018 BKN040 OVC065 07/04 A2974 RMK RE04B30E56 PCPN 0007 PK WND 1836/1340 PRESFR SMF SA SCT 20 41/40/1505/026; SLP072 P0007 8/347 T00670044 51010,M
SLE,1996-01-20 15:00,43.00,41.00,92.65,180.00,20.00,0.12,29.70,1005.90,7.00,30.00,SCT,BKN,OVC,   ,3800.00,5500.00,7000.00,M,M,M,M,M,39.00,170.00,M,33.72,KSLE 201500Z 18020G30KT 7SM SCT038 BKN055 OVC070 06/05 A2970 RMK 6026/ RB00E42 PCPN 0012 PK WND 1739/1404 PRESFR; SLP059 P0012 T00610050 55060,M
SLE,1996-01-20 16:00,44.00,42.00,92.69,170.00,20.00,0.08,29.66,1004.30,4.00,M,BKN,OVC,   ,   ,3600.00,4800.00,M,M,+RA FG,M,M,M,M,M,M,35.16,KSLE 201600Z 17020KT 4SM +RA FG BKN036 OVC048 07/06 A//// RMK SLP043 P0008 T00670056,M
SLE,1996-01-20 17:00,46.00,43.00,88.99,170.00,21.00,0.07,29.61,1002.60,5.00,30.00,SCT,BKN,OVC,   ,1500.00,3600.00,4700.00,M,RA FG,M,M,M,31.00,170.00,M,37.58,KSLE 201700Z 17021G30KT 5SM RA FG SCT015 BKN036 OVC047 08/06 A2961 RMK BKN V OVC PCPN 0007 PK WND 1731/1623 PRESFR; SLP026 P0007 T00780061,M
SLE,1996-01-20 17:06,M,M,M,180.00,22.00,M,29.60,1002.50,3.00,31.00,SCT,BKN,OVC,   ,1700.00,2600.00,3600.00,M,+RA FG,M,M,M,31.00,180.00,M,M,KSLE 201706Z 18022G31KT 3SM +RA FG SCT017 BKN026 OVC036 A2960 RMK PCPN 0003 PK WND 1831/1658; SLP025,M
SLE,1996-01-20 17:20,45.86,43.00,89.60,180.00,23.00,M,29.59,1001.90,5.00,30.00,SCT,BKN,OVC,   ,1700.00,3200.00,4800.00,M,RA FG,M,M,M,31.00,180.00,M,36.94,KSLE 201720Z 18023G30KT 5SM RA FG SCT017 BKN032 OVC048 08/06 A2959 RMK PCPN 0007 PK WND 1831/1658; SLP019 T00770061,M
SLE,1996-01-20 17:30,45.86,43.00,89.60,190.00,17.00,M,29.60,1002.40,7.00,33.00,SCT,BKN,OVC,   ,1500.00,2300.00,3800.00,M,RA,M,M,M,33.00,170.00,M,38.23,KSLE 201730Z 19017G33KT 7SM RA SCT015 BKN023 OVC038 08/06 A2960 RMK OVC V BKN PCPN 0008 PK WND 1733/1722 PRESFR; SLP024 T00770061,M
SLE,1996-01-20 17:43,M,M,M,210.00,19.00,M,29.62,1003.10,2.50,28.00,SCT,BKN,OVC,   ,1500.00,2200.00,3900.00,M,+RA FG,M,M,M,33.00,170.00,M,M,KSLE 201743Z 21019G28KT 21/2SM +RA FG SCT015 BKN022 OVC039 A2962 RMK PCPN 0014 PK WND 1733/1722 PRESRR; SLP031,M
SLE,1996-01-20 18:00,46.00,43.00,88.99,190.00,18.00,0.20,29.61,1002.80,3.00,29.00,SCT,SCT,OVC,   ,1500.00,2200.00,3200.00,M,+RA FG,M,M,M,33.00,170.00,M,38.23,KSLE 201800Z 19018G29KT 3SM +RA FG SCT015 SCT022 OVC032 08/06 A2961 RMK 6061/ 10046 20042 PCPN 0020 PK WND 1733/1722 PRESRR; SLP028 P0020 60031 T00780061 55050,M
SLE,1996-01-20 19:00,46.00,43.00,88.99,190.00,17.00,0.18,29.62,1003.00,10.00,M,SCT,SCT,OVC,   ,2200.00,2700.00,3700.00,M,-RA,M,M,M,27.00,200.00,M,38.47,KSLE 201900Z 19017KT 10SM -RA SCT022 SCT027 OVC037 08/06 A2962 RMK PCPN 0018 PK WND 2027/1759; SLP030 P0018 T00780061,M
SLE,1996-01-20 20:00,46.00,43.00,88.99,170.00,14.00,0.04,29.58,1001.80,4.00,22.00,BKN,BKN,   ,   ,3100.00,4600.00,M,M,RA FG,M,M,M,M,M,M,39.26,KSLE 202000Z 17014G22KT 4SM RA FG BKN031 BKN046 08/06 A2958 RMK PCPN 0004 PRESFR; SLP018 P0004 T00780061,M
SLE,1996-01-20 20:15,M,M,M,240.00,11.00,M,29.60,1002.20,4.00,M,SCT,BKN,OVC,   ,1000.00,2500.00,3300.00,M,+RA FG,M,M,M,M,M,M,M,KSLE 202015Z 24011KT 4SM +RA FG SCT010 BKN025 OVC033 A2960 RMK BKN V SCT PCPN 0005 WSHFT 1959; SLP022,M
SLE,1996-01-20 21:00,46.00,43.00,88.99,180.00,9.00,0.11,29.59,1002.10,10.00,M,BKN,OVC,   ,   ,2700.00,3600.00,M,M,-RA,M,M,M,M,M,M,40.97,KSLE 202100Z 18009KT 10SM -RA BKN027 OVC036 08/06 A2959 RMK 6033/ PCPN 0011 WSHFT 1959; SLP021 P0011 T00780061 55060,M
SLE,1996-01-20 21:04,M,M,M,170.00,10.00,M,29.57,1001.50,10.00,M,SCT,BKN,OVC,   ,2500.00,3500.00,5000.00,M,-RA,M,M,M,M,M,M,M,KSLE 202104Z 17010KT 10SM -RA SCT025 BKN035 OVC050 A2957 RMK BKN V SCT PCPN 0000; SLP015,M
SLE,1996-01-20 22:00,46.00,43.00,88.99,170.00,11.00,0.02,29.58,1001.60,10.00,M,SCT,OVC,   ,   ,2700.00,3300.00,M,M,-RA,M,M,M,M,M,M,40.21,KSLE 202200Z 17011KT 10SM -RA SCT027 OVC033 08/06 A2958 RMK OVC V BKN RE23B39 PCPN 0002 PRESFR; SLP016 P0002 T00780061,M
SLE,1996-01-20 23:00,45.00,43.00,92.72,170.00,14.00,0.02,29.58,1001.60,5.00,M,BKN,OVC,   ,   ,2900.00,3500.00,M,M,-RA FG,M,M,M,M,M,M,37.87,KSLE 202300Z 17014KT 5SM -RA FG BKN029 OVC035 07/06 A2958 RMK PCPN 0002; SLP016 P0002 T00720061,M
SLE,1996-01-21 00:00,45.00,43.00,92.72,210.00,8.00,0.10,29.58,1001.80,2.00,M,BKN,BKN,OVC,   ,1000.00,1700.00,2300.00,M,RA FG,M,M,M,M,M,M,40.08,KSLE 210000Z 21008KT 2SM RA FG BKN010 BKN017 OVC023 07/06 A2958 RMK 6046/ 10046 20042 PCPN 0010; SLP018 P0010 60003 T00720061 55050,M
SLE,1996-01-21 00:15,M,M,M,200.00,12.00,M,29.59,1002.00,5.00,19.00,SCT,BKN,OVC,   ,1200.00,2700.00,3500.00,M,RA FG,M,M,M,M,M,M,M,KSLE 210015Z 20012G19KT 5SM RA FG SCT012 BKN027 OVC035 A2959 RMK PCPN 0003; SLP020,M
SLE,1996-01-21 00:27,M,M,M,190.00,12.00,M,29.58,1001.80,5.00,24.00,SCT,SCT,BKN,   ,2300.00,3100.00,4900.00,M,FG,M,M,M,M,M,M,M,KSLE 210027Z 19012G24KT 5SM FG SCT023 SCT031 BKN049 A2958 RMK BKN V SCT RE26 PCPN 0003; SLP018,M
SLE,1996-01-21 01:00,44.00,40.00,85.25,200.00,10.00,0.03,29.60,1002.20,5.00,M,SCT,BKN,BKN,   ,3000.00,3500.00,4400.00,M,-RA FG,M,M,M,M,M,M,38.09,KSLE 210100Z 20010KT 5SM -RA FG SCT030 BKN035 BKN044 07/04 A2960 RMK BKN V SCT RE26B54 PCPN 0003; SLP022 P0003 T00670044,M
SLE,1996-01-21 02:00,43.00,39.00,85.79,190.00,11.00,M,29.61,1002.70,10.00,M,SCT,   ,   ,   ,9500.00,M,M,M,M,M,M,M,M,M,M,36.34,KSLE 210200Z 19011KT 10SM SCT095 06/04 A2961 RMK RE06 PCPN 0000; SLP027 T00610039,M
SLE,1996-01-21 03:00,43.00,40.00,88.85,200.00,10.00,0.04,29.63,1003.30,7.00,M,SCT,OVC,   ,   ,1900.00,2700.00,M,M,-RA,M,M,M,M,M,M,36.74,KSLE 210300Z 20010KT 7SM -RA SCT019 OVC027 06/04 A2963 RMK 6007/ RB25 PCPN 0004; SLP033 P0004 T00610044 55030,M
SLE,1996-01-21 03:10,M,M,M,190.00,14.00,M,29.62,1003.20,10.00,M,SCT,BKN,OVC,   ,2300.00,5000.00,8000.00,M,M,M,M,M,M,M,M,M,KSLE 210310Z 19014KT 10SM SCT023 BKN050 OVC080 A2962 RMK OVC V BKN RE07 PCPN 0000; SLP032,M
SLE,1996-01-21 04:00,42.00,39.00,88.81,200.00,15.00,0.07,29.65,1004.00,10.00,M,OVC,   ,   ,   ,3000.00,M,M,M,RA,M,M,M,M,M,M,33.85,KSLE 210400Z 20015KT 10SM RA OVC030 06/04 A2965 RMK RE07B28 PCPN 0007; SLP040 P0007 T00560039,M
SLE,1996-01-21 04:04,M,M,M,200.00,14.00,M,29.65,1004.10,7.00,23.00,OVC,   ,   ,   ,2800.00,M,M,M,RA,M,M,M,M,M,M,M,KSLE 210404Z 20014G23KT 7SM RA OVC028 A2965 RMK PCPN 0002; SLP041,M
SLE,1996-01-21 04:32,M,M,M,180.00,13.00,M,29.64,1003.90,10.00,M,BKN,BKN,OVC,   ,4100.00,6000.00,8000.00,M,-RA,M,M,M,M,M,M,M,KSLE 210432Z 18013KT 10SM -RA BKN041 BKN060 OVC080 A2964 RMK PCPN 0007; SLP039,M
SLE,1996-01-21 05:00,42.00,39.00,88.81,180.00,12.00,0.09,29.65,1004.20,10.00,M,SCT,BKN,OVC,   ,2800.00,4100.00,8000.00,M,RA,M,M,M,M,M,M,34.83,KSLE 210500Z 18012KT 10SM RA SCT028 BKN041 OVC080 06/04 A2965 RMK LAST AUGMENTED OBS OVC V BKN PCPN 0009; SLP042 P0009 T00560039,M
SLE,1996-01-21 05:20,41.00,38.00,88.76,180.00,11.00,M,29.65,1004.20,10.00,M,BKN,BKN,BKN,   ,2700.00,3600.00,5000.00,M,-RA,M,M,M,M,M,M,33.84,KSLE 210520Z 18011KT 10SM -RA BKN027 BKN036 BKN050 05/03 A2965 RMK BKN V SCT PCPN 0000; SLP042 T00500033,M
SLE,1996-01-21 06:00,42.00,39.00,88.81,170.00,15.00,0.01,29.65,1004.20,7.00,M,SCT,BKN,OVC,   ,3300.00,4000.00,7500.00,M,-RA,M,M,M,M,M,M,33.85,KSLE 210600Z 17015KT 7SM -RA SCT033 BKN040 OVC075 06/04 A//// RMK SLP042 P0001 T00560039,M
SLE,1996-01-21 07:00,42.00,39.00,88.81,180.00,16.00,0.04,29.66,1004.60,10.00,23.00,SCT,OVC,   ,   ,2700.00,3900.00,M,M,-RA,M,M,M,M,M,M,33.56,KSLE 210700Z 18016G23KT 10SM -RA SCT027 OVC039 06/04 A2966 RMK OVC V BKN PCPN 0004; SLP046 P0004 T00560039,M
SLE,1996-01-21 08:00,41.00,38.00,88.76,170.00,17.00,0.03,29.65,1004.00,10.00,29.00,BKN,BKN,BKN,   ,2800.00,3900.00,4600.00,M,-RA,M,M,M,29.00,170.00,M,31.87,KSLE 210800Z 17017G29KT 10SM -RA BKN028 BKN039 BKN046 05/03 A2965 RMK BKN V OVC PCPN 0003 PK WND 1729/0748; SLP040 P0003 T00500033,M
SLE,1996-01-21 08:05,M,M,M,170.00,17.00,M,29.64,1003.70,10.00,25.00,SCT,BKN,BKN,   ,2800.00,3500.00,4400.00,M,M,M,M,M,M,M,M,M,KSLE 210805Z 17017G25KT 10SM SCT028 BKN035 BKN044 A2964 RMK BKN V SCT RE0758 PCPN 0000; SLP037,M
SLE,1996-01-21 09:00,42.00,38.00,85.13,170.00,24.00,0.02,29.62,1003.10,10.00,27.00,SCT,BKN,OVC,   ,2200.00,3900.00,4700.00,M,-RA,M,M,M,32.00,180.00,M,31.66,KSLE 210900Z 17024G27KT 10SM -RA SCT022 BKN039 OVC047 06/03 A2962 RMK 6009/ RE0758B19 PCPN 0002 PK WND 1832/0839; SLP031 P0002 T00560033 55080,M
SLE,1996-01-21 09:26,M,M,M,180.00,20.00,M,29.62,1003.10,10.00,25.00,SCT,OVC,   ,   ,1900.00,2500.00,M,M,RA,M,M,M,29.00,160.00,M,M,KSLE 210926Z 18020G25KT 10SM RA SCT019 OVC025 A2962 RMK PCPN 0003 PK WND 1629/0901; SLP031,M
SLE,1996-01-21 10:00,41.00,38.00,88.76,170.00,20.00,0.13,29.62,1003.20,4.00,30.00,OVC,   ,   ,   ,1900.00,M,M,M,+RA FG,M,M,M,31.00,180.00,M,31.09,KSLE 211000Z 17020G30KT 4SM +RA FG OVC019 05/03 A2962 RMK PCPN 0013 PK WND 1831/0938; SLP032 P0013 T00500033,M
SLE,1996-01-21 11:00,40.00,38.00,92.56,180.00,23.00,0.12,29.63,1003.30,7.00,34.00,SCT,OVC,   ,   ,1500.00,2700.00,M,M,RA,M,M,M,35.00,180.00,M,28.96,KSLE 211100Z 18023G34KT 7SM RA SCT015 OVC027 04/03 A2963 RMK PCPN 0012 PK WND 1835/1024; SLP033 P0012 T00440033,M
SLE,1996-01-21 11:10,M,M,M,180.00,23.00,M,29.63,1003.50,7.00,32.00,SCT,BKN,OVC,   ,1500.00,3400.00,6000.00,M,-RA,M,M,M,32.00,200.00,M,M,KSLE 211110Z 18023G32KT 7SM -RA SCT015 BKN034 OVC060 A2963 RMK PCPN 0002 PK WND 2032/1059; SLP035,M
SLE,1996-01-21 12:00,39.00,37.00,92.53,180.00,19.00,0.03,29.65,1004.20,10.00,28.00,BKN,OVC,   ,   ,3500.00,4300.00,M,M,M,M,M,M,32.00,200.00,M,28.72,KSLE 211200Z 18019G28KT 10SM BKN035 OVC043 04/03 A2965 RMK 6037/ 70169 10046 20039 BKN V SCT RE27B43E50 PCPN 0003 PK WND 2032/1059; SLP042 P0003 60008 70169 T00390028 55030,M
SLE,1996-01-21 13:00,40.00,38.00,92.56,180.00,16.00,0.04,29.69,1005.60,10.00,21.00,SCT,SCT,OVC,   ,1500.00,2300.00,2700.00,M,M,M,M,M,26.00,190.00,M,30.74,KSLE 211300Z 18016G21KT 10SM SCT015 SCT023 OVC027 04/03 A2969 RMK RB1157E49 PCPN 0004 PK WND 1926/1157; SLP056 P0004 T00440033,M
SLE,1996-01-21 13:20,38.84,36.86,92.52,160.00,12.00,M,29.71,1006.10,10.00,M,SCT,OVC,   ,   ,2400.00,3400.00,M,M,-RA,M,M,M,M,M,M,30.71,KSLE 211320Z 16012KT 10SM -RA SCT024 OVC034 04/03 A2971 RMK OVC V BKN RB16 PCPN 0000; SLP061 T00380027,M
SLE,1996-01-21 14:00,40.00,38.00,92.56,160.00,8.00,M,29.74,1007.10,10.00,M,OVC,   ,   ,   ,2600.00,M,M,M,-RA,M,M,M,M,M,M,33.87,KSLE 211400Z 16008KT 10SM -RA OVC026 04/03 A2974 RMK RB16 PCPN 0000; SLP071 T00440033,M
SLE,1996-01-21 14:23,M,M,M,160.00,9.00,M,29.76,1007.70,10.00,M,SCT,OVC,   ,   ,2400.00,3300.00,M,M,M,M,M,M,M,M,M,M,KSLE 211423Z 16009KT 10SM SCT024 OVC033 A2976 RMK RE23 PCPN 0000; SLP077,M
SLE,1996-01-21 15:00,41.00,38.00,88.76,180.00,7.00,M,29.78,1008.60,10.00,M,SCT,BKN,OVC,   ,2900.00,4100.00,5000.00,M,M,M,M,M,M,M,M,35.75,KSLE 211500Z 18007KT 10SM SCT029 BKN041 OVC050 05/03 A2978 RMK 6004/ RE23 PCPN 0000; SLP086 T00500033 55030,M
SLE,1996-01-21 16:00,41.00,37.00,85.67,180.00,10.00,M,29.82,1009.90,10.00,M,BKN,OVC,   ,   ,3800.00,4400.00,M,M,M,M,M,M,M,M,M,34.25,KSLE 211600Z 18010KT 10SM BKN038 OVC044 05/03 A2982 RMK RB05E23 PCPN 0000; SLP099 T00500028,M
SLE,1996-01-21 17:00,41.00,36.00,82.09,190.00,11.00,M,29.85,1010.80,10.00,M,BKN,BKN,OVC,   ,4100.00,4700.00,6000.00,M,M,M,M,M,M,M,M,33.84,KSLE 211700Z 19011KT 10SM BKN041 BKN047 OVC060 05/02 A2985 RMK BKN V SCT RB35E45 PCPN 0000; SLP108 T00500022,M
SLE,1996-01-21 18:00,42.00,36.00,78.74,200.00,11.00,M,29.89,1012.20,10.00,M,SCT,BKN,OVC,   ,3600.00,4400.00,6500.00,M,M,M,M,M,M,M,M,35.20,KSLE 211800Z 20011KT 10SM SCT036 BKN044 OVC065 06/02 A2989 RMK 6004/ 10043 20039; SLP122 60038 T00560022 55010,M
SLE,1996-01-21 19:00,43.00,37.00,79.38,180.00,10.00,M,29.91,1013.10,10.00,M,SCT,BKN,   ,   ,4900.00,6000.00,M,M,M,M,M,M,M,M,M,36.74,KSLE 211900Z 18010KT 10SM SCT049 BKN060 06/03 A2991 RMK SLP131 T00610028,M
SLE,1996-01-21 20:00,44.00,38.00,78.91,190.00,13.00,M,29.92,1013.20,10.00,M,SCT,SCT,OVC,   ,4100.00,5000.00,6500.00,M,M,M,M,M,M,M,M,37.02,KSLE 212000Z 19013KT 10SM SCT041 SCT050 OVC065 07/03 A2992 RMK SLP132 T00670033,M
SLE,1996-01-21 21:00,45.00,38.00,76.25,190.00,9.00,M,29.92,1013.10,10.00,M,BKN,   ,   ,   ,7000.00,M,M,M,M,M,M,M,M,M,M,39.63,KSLE 212100Z 19009KT 10SM BKN070 07/03 A2992 RMK 50009; SLP131 T00720033,M
SLE,1996-01-21 22:00,40.00,36.00,85.61,150.00,9.00,0.03,29.92,1013.20,4.00,M,BKN,BKN,OVC,   ,1800.00,2200.00,4700.00,M,RA FG,M,M,M,M,M,M,33.36,KSLE 212200Z 15009KT 4SM RA FG BKN018 BKN022 OVC047 04/02 A2992 RMK RB37 PCPN 0003; SLP132 P0003 T00440022,M
SLE,1996-01-21 22:15,M,M,M,190.00,10.00,M,29.93,1013.60,10.00,M,SCT,SCT,BKN,   ,2600.00,4500.00,5000.00,M,M,M,M,M,M,M,M,M,KSLE 212215Z 19010KT 10SM SCT026 SCT045 BKN050 A2993 RMK RE07 PCPN 0000; SLP136,M
SLE,1996-01-21 23:00,40.00,36.00,85.61,170.00,6.00,M,29.94,1013.90,10.00,M,SCT,BKN,OVC,   ,2000.00,3200.00,4000.00,M,M,M,M,M,M,M,M,35.07,KSLE 212300Z 17006KT 10SM SCT020 BKN032 OVC040 04/02 A2994 RMK RE07 PCPN 0000; SLP139 T00440022,M
SLE,1996-01-21 23:17,M,M,M,200.00,7.00,M,29.95,1014.20,10.00,M,SCT,BKN,OVC,   ,2300.00,2800.00,3600.00,M,-RA,M,M,M,M,M,M,M,KSLE 212317Z 20007KT 10SM -RA SCT023 BKN028 OVC036 A2995 RMK RB2258 PCPN 0001; SLP142,M
SLE,1996-01-21 23:26,M,M,M,190.00,7.00,M,29.95,1014.20,10.00,M,SCT,BKN,OVC,   ,2400.00,3900.00,5000.00,M,-RA,M,M,M,M,M,M,M,KSLE 212326Z 19007KT 10SM -RA SCT024 BKN039 OVC050 A2995 RMK RB2258 PCPN 0001; SLP142,M
SLE,1996-01-22 00:00,42.00,38.00,85.13,190.00,6.00,0.01,29.95,1014.30,10.00,M,SCT,SCT,BKN,   ,3800.00,6500.00,8000.00,M,M,M,M,M,M,M,M,37.67,KSLE 220000Z 19006KT 10SM SCT038 SCT065 BKN080 06/03 A2995 RMK 6004/ 10045 20039 RB2258E52 PCPN 0001; SLP143 P0001 60013 T00560033 55030,M
SLE,1996-01-22 01:00,38.00,36.00,92.49,160.00,5.00,M,29.99,1015.60,10.00,M,BKN,BKN,   ,   ,6500.00,8500.00,M,M,M,M,M,M,M,M,M,33.45,KSLE 220100Z 16005KT 10SM BKN065 BKN085 03/02 A2999 RMK BKN V SCT; SLP156 T00330022,M
SLE,1996-01-22 02:00,38.00,37.00,96.52,160.00,6.00,M,30.01,1016.40,10.00,M,OVC,   ,   ,   ,7500.00,M,M,M,M,M,M,M,M,M,M,32.68,KSLE 220200Z 16006KT 10SM OVC075 03/03 A3001 RMK SLP164 T00330028,M
SLE,1996-01-22 03:00,37.00,35.00,92.46,160.00,6.00,M,30.04,1017.20,10.00,M,SCT,SCT,BKN,   ,2100.00,3400.00,8500.00,M,M,M,M,M,M,M,M,31.60,KSLE 220300Z 16006KT 10SM SCT021 SCT034 BKN085 03/02 A3004 RMK BKN V OVC; SLP172 T00280017 55010,M
SLE,1996-01-22 03:40,M,M,M,180.00,6.00,M,30.04,1017.40,10.00,M,SCT,BKN,   ,   ,1100.00,3700.00,M,M,M,M,M,M,M,M,M,M,KSLE 220340Z 18006KT 10SM SCT011 BKN037 A3004 RMK SLP174,M
SLE,1996-01-22 04:00,37.00,34.00,88.57,190.00,3.00,M,30.05,1017.70,10.00,M,BKN,   ,   ,   ,3900.00,M,M,M,M,M,M,M,M,M,M,34.45,KSLE 220400Z 19003KT 10SM BKN039 03/01 A3005 RMK SLP177 T00280011,M
SLE,1996-01-22 05:00,36.00,34.00,92.43,160.00,4.00,M,30.07,1018.20,10.00,M,SCT,BKN,BKN,   ,2900.00,3900.00,7000.00,M,M,M,M,M,M,M,M,32.04,KSLE 220500Z 16004KT 10SM SCT029 BKN039 BKN070 02/01 A3007 RMK LAST AUGMENTED OBS; SLP182 T00220011,M
SLE,1996-01-22 06:00,35.00,33.00,92.40,140.00,5.00,M,30.09,1018.80,10.00,M,SCT,SCT,SCT,   ,3900.00,4900.00,7500.00,M,M,M,M,M,M,M,M,30.03,KSLE 220600Z 14005KT 10SM SCT039 SCT049 SCT075 02/01 A3009 RMK 10045 20034; SLP188 60017 T00170006 55030,M
SLE,1996-01-22 07:00,34.00,33.00,96.46,160.00,6.00,M,30.10,1019.30,7.00,M,SCT,BKN,   ,   ,3800.00,7000.00,M,M,M,M,M,M,M,M,M,27.91,KSLE 220700Z 16006KT 7SM SCT038 BKN070 01/01 A3010 RMK SLP193 T00110006,M
SLE,1996-01-22 08:00,35.00,34.00,95.79,180.00,5.00,M,30.12,1020.10,7.00,M,SCT,OVC,   ,   ,5000.00,7000.00,M,M,M,M,M,M,M,M,M,30.03,KSLE 220800Z 18005KT 7SM SCT050 OVC070 02/01 A3012 RMK SLP201 T00170011,M
SLE,1996-01-22 08:05,M,M,M,170.00,5.00,M,30.12,1020.10,10.00,M,SCT,SCT,OVC,   ,700.00,5000.00,7000.00,M,M,M,M,M,M,M,M,M,KSLE 220805Z 17005KT 10SM SCT007 SCT050 OVC070 A3012 RMK SLP201,M
SLE,1996-01-22 09:00,36.00,35.00,96.49,180.00,5.00,M,30.13,1020.30,10.00,M,OVC,   ,   ,   ,6500.00,M,M,M,M,M,M,M,M,M,M,31.10,KSLE 220900Z 18005KT 10SM OVC065 02/02 A3013 RMK 51014; SLP203 T00220017,M
SLE,1996-01-22 10:00,34.00,33.00,96.46,170.00,5.00,M,30.13,1020.60,10.00,M,SCT,SCT,BKN,   ,4400.00,6500.00,8000.00,M,M,M,M,M,M,M,M,28.75,KSLE 221000Z 17005KT 10SM SCT044 SCT065 BKN080 01/01 A3013 RMK SLP206 T00110006,M
SLE,1996-01-22 11:00,35.00,33.00,92.40,0.00,0.00,M,30.15,1021.10,10.00,M,SCT,BKN,   ,   ,1000.00,7000.00,M,M,M,M,M,M,M,M,M,35.06,KSLE 221100Z 00000KT 10SM SCT010 BKN070 02/01 A3015 RMK SLP211 T00170006,M
SLE,1996-01-22 11:40,M,M,M,180.00,4.00,M,30.16,1021.50,10.00,M,SCT,BKN,   ,   ,800.00,7000.00,M,M,M,M,M,M,M,M,M,M,KSLE 221140Z 18004KT 10SM SCT008 BKN070 A3016 RMK SLP215,M
SLE,1996-01-22 12:00,35.00,33.00,92.40,180.00,5.00,M,30.17,1021.70,10.00,M,BKN,OVC,   ,   ,800.00,7000.00,M,M,M,M,M,M,M,M,M,30.03,KSLE 221200Z 18005KT 10SM BKN008 OVC070 02/01 A3017 RMK 70008 10045 20033; SLP217 60014 70008 T00170006 55030,M
SLE,1996-01-22 12:19,M,M,M,190.00,3.00,M,30.17,1021.80,10.00,M,SCT,OVC,   ,   ,800.00,7000.00,M,M,M,M,M,M,M,M,M,M,KSLE 221219Z 19003KT 10SM SCT008 OVC070 A3017 RMK SLP218,M
SLE,1996-01-22 12:33,M,M,M,190.00,4.00,M,30.17,1021.80,10.00,M,BKN,OVC,   ,   ,600.00,7000.00,M,M,M,M,M,M,M,M,M,M,KSLE 221233Z 19004KT 10SM BKN006 OVC070 A3017 RMK SLP218,M
SLE,1996-01-22 12:43,M,M,M,180.00,3.00,M,30.17,1021.90,10.00,M,SCT,OVC,   ,   ,600.00,7000.00,M,M,M,M,M,M,M,M,M,M,KSLE 221243Z 18003KT 10SM SCT006 OVC070 A3017 RMK SLP219,M
SLE,1996-01-22 13:00,35.00,33.00,92.40,190.00,3.00,M,30.18,1022.10,10.00,M,SCT,OVC,   ,   ,600.00,7000.00,M,M,M,M,M,M,M,M,M,32.19,KSLE 221300Z 19003KT 10SM SCT006 OVC070 02/01 A3018 RMK SLP221 T00170006,M
SLE,1996-01-22 14:00,35.00,33.00,92.40,180.00,5.00,M,30.19,1022.50,10.00,M,OVC,   ,   ,   ,7000.00,M,M,M,M,M,M,M,M,M,M,30.03,KSLE 221400Z 18005KT 10SM OVC070 02/01 A3019 RMK SLP225 T00170006,M
SLE,1996-01-22 15:00,33.00,32.00,95.75,180.00,6.00,M,30.19,1022.60,10.00,M,SCT,   ,   ,   ,7000.00,M,M,M,M,M,M,M,M,M,M,26.83,KSLE 221500Z 18006KT 10SM SCT070 01/00 A3019 RMK $; SLP226 T00060000 55010,M
SLE,1996-01-22 15:30,34.00,32.00,92.36,180.00,12.00,M,30.20,1022.80,10.00,M,SCT,   ,   ,   ,800.00,M,M,M,M,M,M,M,M,M,M,24.52,KSLE 221530Z 18012KT 10SM SCT008 01/00 A3020 RMK $; SLP228 T00110000,M
SLE,1996-01-22 15:39,M,M,M,170.00,10.00,M,30.20,1022.80,10.00,M,BKN,   ,   ,   ,600.00,M,M,M,M,M,M,M,M,M,M,M,KSLE 221539Z 17010KT 10SM BKN006 A3020 RMK $; SLP228,M
SLE,1996-01-22 16:00,34.00,32.00,92.36,170.00,8.00,M,30.20,1022.80,10.00,M,OVC,   ,   ,   ,600.00,M,M,M,M,M,M,M,M,M,M,26.55,KSLE 221600Z 17008KT 10SM OVC006 01/00 A3020 RMK $; SLP228 T00110000,M
SLE,1996-01-22 17:00,35.00,33.00,92.40,170.00,9.00,M,30.21,1023.30,10.00,M,BKN,   ,   ,   ,600.00,M,M,M,M,M,M,M,M,M,M,27.32,KSLE 221700Z 17009KT 10SM BKN006 02/01 A3021 RMK $; SLP233 T00170006,M
SLE,1996-01-22 18:00,36.00,34.00,92.43,160.00,11.00,M,30.21,1023.10,10.00,M,BKN,OVC,   ,   ,600.00,6000.00,M,M,M,M,M,M,M,M,M,27.47,KSLE 221800Z 16011KT 10SM BKN006 OVC060 02/01 A3021 RMK 10037 20033; SLP231 60006 T00220011 55010,M
SLE,1996-01-22 18:09,M,M,M,160.00,13.00,M,30.20,1023.00,6.00,M,CLR,   ,   ,   ,M,M,M,M,M,M,M,M,M,M,M,M,KSLE 221809Z 16013KT 6SM CLR A3020 RMK $; SLP230,M
SLE,1996-01-22 19:00,38.00,35.00,89.25,170.00,14.00,M,30.20,1022.90,10.00,M,OVC,   ,   ,   ,6000.00,M,M,M,M,M,M,M,M,M,M,28.82,KSLE 221900Z 17014KT 10SM OVC060 03/02 A3020 RMK $; SLP229 T00330017,M
SLE,1996-01-22 20:00,39.00,35.00,85.55,180.00,16.00,M,30.18,1022.30,10.00,M,OVC,   ,   ,   ,6000.00,M,M,M,M,M,M,M,M,M,M,29.57,KSLE 222000Z 18016KT 10SM OVC060 04/02 A3018 RMK $; SLP223 T00390017,M
SLE,1996-01-22 20:39,M,M,M,180.00,15.00,M,30.16,1021.60,10.00,M,BKN,OVC,   ,   ,1400.00,6000.00,M,M,M,M,M,M,M,M,M,M,KSLE 222039Z 18015KT 10SM BKN014 OVC060 A3016 RMK BKN V SCT $; SLP216,M
SLE,1996-01-22 21:00,40.00,36.00,85.61,180.00,16.00,M,30.15,1021.20,10.00,M,BKN,BKN,OVC,   ,1400.00,6000.00,11000.00,M,M,M,M,M,M,M,M,30.74,KSLE 222100Z 18016KT 10SM BKN014 BKN060 OVC110 04/02 A3015 RMK BKN V SCT $; SLP212 T00440022 550//,M
SLE,1996-01-22 21:03,M,M,M,170.00,16.00,M,30.15,1021.00,10.00,M,SCT,BKN,OVC,   ,1400.00,6000.00,11000.00,M,M,M,M,M,M,M,M,M,KSLE 222103Z 17016KT 10SM SCT014 BKN060 OVC110 A3015 RMK $; SLP210,M
SLE,1996-01-22 22:00,41.00,36.00,82.09,180.00,19.00,M,30.12,1020.10,10.00,M,SCT,OVC,   ,   ,1600.00,9000.00,M,M,M,M,M,M,M,M,M,31.34,KSLE 222200Z 18019KT 10SM SCT016 OVC090 05/02 A3012 RMK OVC V BKN $; SLP201 T00500022,M
SLE,1996-01-22 22:34,M,M,M,170.00,14.00,M,30.11,1019.70,10.00,M,SCT,BKN,OVC,   ,1600.00,2900.00,4400.00,M,M,M,M,M,M,M,M,M,KSLE 222234Z 17014KT 10SM SCT016 BKN029 OVC044 A3011 RMK OVC V BKN $; SLP197,M
SLE,1996-01-22 23:00,41.00,36.00,82.09,170.00,15.00,M,30.09,1019.30,10.00,M,BKN,OVC,   ,   ,3300.00,4400.00,M,M,-RA,M,M,M,M,M,M,32.45,KSLE 222300Z 17015KT 10SM -RA BKN033 OVC044 05/02 A3009 RMK BKN V OVC RB41 PCPN 0000 $; SLP193 T00500022,M
SLE,1996-01-23 00:00,41.00,35.00,79.21,170.00,20.00,M,30.06,1018.00,10.00,24.00,OVC,   ,   ,   ,6000.00,M,M,M,M,M,M,M,26.00,170.00,M,31.09,KSLE 230000Z 17020G24KT 10SM OVC060 05/02 A3006 RMK 6000/ 10041 20033 RE10 PCPN 0000 PK WND 1726/2330 $; SLP180 60031 T00500017 55080,M
SLE,1996-01-23 00:41,M,M,M,170.00,17.00,M,30.04,1017.40,10.00,24.00,BKN,BKN,OVC,   ,2600.00,4100.00,5000.00,M,-RA,M,M,M,M,M,M,M,KSLE 230041Z 17017G24KT 10SM -RA BKN026 BKN041 OVC050 A3004 RMK RB19 PCPN 0000 $; SLP174,M
SLE,1996-01-23 01:00,40.00,34.00,79.12,170.00,20.00,0.01,30.04,1017.30,10.00,30.00,OVC,   ,   ,   ,2200.00,M,M,M,M,M,M,M,30.00,170.00,M,29.66,KSLE 230100Z 17020G30KT 10SM OVC022 04/01 A3004 RMK RB19E56 PCPN 0001 PK WND 1730/0049 $; SLP173 P0001 T00440011,M
SLE,1996-01-23 02:00,39.00,36.00,88.66,180.00,19.00,0.04,30.02,1016.80,10.00,22.00,OVC,   ,   ,   ,2000.00,M,M,M,M,M,M,M,30.00,170.00,M,28.72,KSLE 230200Z 18019G22KT 10SM OVC020 04/02 A3002 RMK RB0057E55 PCPN 0004 PK WND 1730/0105 $; SLP168 P0004 T00390022,M
SLE,1996-01-23 03:00,39.00,36.00,88.66,170.00,15.00,0.07,29.99,1015.80,5.00,24.00,OVC,   ,   ,   ,1800.00,M,M,M,RA FG,M,M,M,M,M,M,29.88,KSLE 230300Z 17015G24KT 5SM RA FG OVC018 04/02 A2999 RMK 6012/ RB01 PCPN 0007 $; SLP158 P0007 T00390022 55080,M
SLE,1996-01-23 03:42,M,M,M,180.00,22.00,M,29.99,1015.70,10.00,26.00,BKN,BKN,OVC,   ,1300.00,2100.00,3900.00,M,-SN,M,M,M,27.00,180.00,M,M,KSLE 230342Z 18022G26KT 10SM -SN BKN013 BKN021 OVC039 A2999 RMK BKN V SCT RE04SB04 PCPN 0003 PK WND 1827/0311 $; SLP157,M
SLE,1996-01-23 04:00,39.00,36.00,88.66,180.00,19.00,0.03,29.99,1015.80,10.00,24.00,SCT,BKN,OVC,   ,1300.00,2800.00,4200.00,M,M,M,M,M,27.00,180.00,M,28.72,KSLE 230400Z 18019G24KT 10SM SCT013 BKN028 OVC042 04/02 A2999 RMK BKN V SCT RE04SB04E53 PCPN 0003 PK WND 1827/0311 $; SLP158 P0003 T00390022,M
SLE,1996-01-23 04:16,M,M,M,170.00,17.00,M,29.99,1015.90,10.00,23.00,SCT,BKN,OVC,   ,1300.00,3700.00,6000.00,M,-RA,M,M,M,M,M,M,M,KSLE 230416Z 17017G23KT 10SM -RA SCT013 BKN037 OVC060 A2999 RMK BKN V SCT RB05 PCPN 0000 $; SLP159,M
SLE,1996-01-23 05:00,39.00,36.00,88.66,180.00,14.00,0.01,30.01,1016.20,10.00,M,BKN,BKN,OVC,   ,3000.00,4000.00,7500.00,M,M,M,M,M,M,M,M,30.21,KSLE 230500Z 18014KT 10SM BKN030 BKN040 OVC075 04/02 A//// RMK 162/39 ; SLP162 P0001 T00390022,M
SLE,1996-01-23 06:00,38.00,36.00,92.49,170.00,14.00,0.01,29.99,1015.80,10.00,M,SCT,BKN,OVC,   ,3900.00,7000.00,8500.00,M,M,M,M,M,M,M,M,28.82,KSLE 230600Z 17014KT 10SM SCT039 BKN070 OVC085 03/02 A2999 RMK LAST AUGMENTED OBS 6017/ 10041 20033 BKN V OVC RB02E39 PCPN 0001 $; SLP158 P0001 60002 T00330022 55060,M
SLE,1996-01-23 07:00,38.00,36.00,92.49,170.00,11.00,M,30.00,1016.00,10.00,M,BKN,OVC,   ,   ,3900.00,8500.00,M,M,M,M,M,M,M,M,M,29.97,KSLE 230700Z 17011KT 10SM BKN039 OVC085 03/02 A3000 RMK $; SLP160 T00330022,M
SLE,1996-01-23 08:00,38.00,37.00,96.52,190.00,10.00,M,30.00,1016.00,10.00,M,BKN,BKN,BKN,   ,4500.00,8000.00,9000.00,M,M,M,M,M,M,M,M,30.42,KSLE 230800Z 19010KT 10SM BKN045 BKN080 BKN090 03/03 A3000 RMK BKN V SCT $; SLP160 T00330028,M
SLE,1996-01-23 09:00,39.00,37.00,92.53,210.00,7.00,M,30.01,1016.30,10.00,M,SCT,OVC,   ,   ,2700.00,4100.00,M,M,M,M,M,M,M,M,M,33.34,KSLE 230900Z 21007KT 10SM SCT027 OVC041 04/03 A3001 RMK $; SLP163 T00390028 55030,M
SLE,1996-01-23 09:04,M,M,M,190.00,11.00,M,30.01,1016.20,7.00,M,BKN,OVC,   ,   ,2500.00,4000.00,M,M,RA,M,M,M,M,M,M,M,KSLE 230904Z 19011KT 7SM RA BKN025 OVC040 A3001 RMK RB0857 PCPN 0001 $; SLP162,M
SLE,1996-01-23 09:16,M,M,M,180.00,11.00,M,30.00,1016.00,10.00,M,SCT,BKN,OVC,   ,2500.00,6000.00,8000.00,M,-RA,M,M,M,M,M,M,M,KSLE 230916Z 18011KT 10SM -RA SCT025 BKN060 OVC080 A3000 RMK BKN V SCT RB0857 PCPN 0001 $; SLP160,M
SLE,1996-01-23 10:00,38.00,36.00,92.49,190.00,9.00,0.01,30.00,1016.10,10.00,M,CLR,   ,   ,   ,M,M,M,M,M,M,M,M,M,M,M,30.90,KSLE 231000Z 19009KT 10SM CLR/// 03/02 A3000 RMK CLR BLO RB0857E19 PCPN 0001 $; SLP161 P0001 T00330022 51020,M
SLE,1996-01-23 11:00,39.00,37.00,92.53,190.00,9.00,M,30.01,1016.30,10.00,M,SCT,BKN,   ,   ,6000.00,10000.00,M,M,M,M,M,M,M,M,M,32.24,KSLE 231100Z 19009KT 10SM SCT060 BKN100 04/03 A3001 RMK $; SLP163 T00390028,M
SLE,1996-01-23 12:00,39.00,37.00,92.53,180.00,10.00,M,30.00,1016.00,10.00,M,SCT,   ,   ,   ,8500.00,M,M,M,M,M,M,M,M,M,M,31.77,KSLE 231200Z 18010KT 10SM SCT085 04/03 A3000 RMK 6001/ 7//// 10041 20038 $; SLP160 60001 T00390028 55080,M
SLE,1996-01-23 13:00,40.00,37.00,89.34,190.00,13.00,M,30.00,1015.80,10.00,M,SCT,BKN,OVC,   ,3300.00,4300.00,10000.00,M,M,M,M,M,M,M,M,31.71,KSLE 231300Z 19013KT 10SM SCT033 BKN043 OVC100 04/03 A3000 RMK BKN V SCT $; SLP158 T00440028,M
SLE,1996-01-23 14:00,40.00,37.00,89.34,180.00,10.00,M,29.99,1015.80,10.00,M,SCT,SCT,BKN,   ,4900.00,9000.00,11000.00,M,M,M,M,M,M,M,M,32.90,KSLE 231400Z 18010KT 10SM SCT049 SCT090 BKN110 04/03 A2999 RMK $; SLP158 T00440028,M
SLE,1996-01-23 15:00,40.00,38.00,92.56,170.00,12.00,0.01,29.99,1015.60,10.00,M,SCT,BKN,   ,   ,3400.00,4300.00,M,M,M,M,M,M,M,M,M,32.08,KSLE 231500Z 17012KT 10SM SCT034 BKN043 04/03 A2999 RMK 6001/ RB09E30 PCPN 0001 $; SLP156 P0001 T00440033 55060,M
SLE,1996-01-23 15:34,M,M,M,170.00,9.00,M,29.99,1015.70,10.00,M,SCT,SCT,   ,   ,900.00,11000.00,M,M,M,M,M,M,M,M,M,M,KSLE 231534Z 17009KT 10SM SCT009 SCT110 A2999 RMK $; SLP157,M
SLE,1996-01-23 16:00,40.00,38.00,92.56,160.00,12.00,M,29.99,1015.60,10.00,M,SCT,BKN,BKN,   ,900.00,4200.00,6000.00,M,M,M,M,M,M,M,M,32.08,KSLE 231600Z 16012KT 10SM SCT009 BKN042 BKN060 04/03 A2999 RMK BKN V SCT $; SLP156 T00440033,M
SLE,1996-01-23 17:00,41.00,39.00,92.59,170.00,12.00,M,29.99,1015.60,10.00,M,SCT,BKN,OVC,   ,2900.00,4200.00,9500.00,M,-RA,M,M,M,M,M,M,33.46,KSLE 231700Z 17012KT 10SM -RA SCT029 BKN042 OVC095 05/04 A2999 RMK RB1559 PCPN 0000 $; SLP156 T00500039,M
SLE,1996-01-23 17:13,M,M,M,180.00,10.00,M,29.99,1015.70,10.00,M,BKN,BKN,OVC,   ,2700.00,4100.00,9000.00,M,M,M,M,M,M,M,M,M,KSLE 231713Z 18010KT 10SM BKN027 BKN041 OVC090 A2999 RMK BKN V OVC RE1657 $; SLP157,M
SLE,1996-01-23 18:00,42.00,39.00,88.81,170.00,11.00,M,29.98,1015.40,10.00,M,BKN,BKN,OVC,   ,2900.00,3600.00,5000.00,M,M,M,M,M,M,M,M,35.20,KSLE 231800Z 17011KT 10SM BKN029 BKN036 OVC050 06/04 A2998 RMK 6001/ 10042 20036 BKN V SCT RE1657B31E45 PCPN 0000 $; SLP154 60001 T00560039 55080,M
SLE,1996-01-23 19:00,43.00,40.00,88.85,170.00,14.00,0.01,29.97,1014.90,10.00,M,SCT,BKN,OVC,   ,1300.00,4300.00,5000.00,M,M,M,M,M,M,M,M,35.32,KSLE 231900Z 17014KT 10SM SCT013 BKN043 OVC050 06/04 A2997 RMK BKN V SCT RB10E23 PCPN 0001 $; SLP149 P0001 T00610044,M
SLE,1996-01-23 20:00,43.00,40.00,88.85,180.00,14.00,M,29.95,1014.10,10.00,21.00,SCT,BKN,OVC,   ,1300.00,2900.00,4300.00,M,-RA,M,M,M,M,M,M,35.32,KSLE 232000Z 18014G21KT 10SM -RA SCT013 BKN029 OVC043 06/04 A2995 RMK RB42 PCPN 0000 $; SLP141 T00610044,M
SLE,1996-01-23 21:00,42.00,40.00,91.98,170.00,16.00,0.01,29.92,1013.10,10.00,M,SCT,BKN,OVC,   ,1100.00,1600.00,3300.00,M,-RA,M,M,M,M,M,M,33.56,KSLE 232100Z 17016KT 10SM -RA SCT011 BKN016 OVC033 06/04 A2992 RMK 6002/ PCPN 0001 $; SLP131 P0001 T00560044 55080,M
SLE,1996-01-23 21:03,M,M,M,170.00,13.00,M,29.91,1012.90,10.00,M,BKN,BKN,OVC,   ,1400.00,2000.00,2900.00,M,-RA,M,M,M,M,M,M,M,KSLE 232103Z 17013KT 10SM -RA BKN014 BKN020 OVC029 A2991 RMK BKN V OVC PCPN 0000 $; SLP129,M
SLE,1996-01-23 21:35,M,M,M,180.00,17.00,M,29.89,1012.20,10.00,M,SCT,BKN,OVC,   ,1400.00,2600.00,3100.00,M,-RA,M,M,M,M,M,M,M,KSLE 232135Z 18017KT 10SM -RA SCT014 BKN026 OVC031 A2989 RMK PCPN 0001 $; SLP122,M
SLE,1996-01-23 22:00,42.00,39.00,88.81,180.00,13.00,0.01,29.88,1012.00,10.00,21.00,BKN,BKN,OVC,   ,1600.00,2800.00,3500.00,M,-RA,M,M,M,M,M,M,34.48,KSLE 232200Z 18013G21KT 10SM -RA BKN016 BKN028 OVC035 06/04 A2988 RMK BKN V SCT PCPN 0001 $; SLP120 P0001 T00560039,M
SLE,1996-01-23 23:00,41.00,39.00,92.59,170.00,15.00,0.03,29.85,1011.00,7.00,M,SCT,BKN,OVC,   ,1200.00,1700.00,2500.00,M,-RA,M,M,M,M,M,M,32.45,KSLE 232300Z 17015KT 7SM -RA SCT012 BKN017 OVC025 05/04 A//// RMK SLP110 P0003 T00500039,M
SLE,1996-01-23 23:20,41.00,38.84,91.94,170.00,13.00,M,29.84,1010.60,10.00,19.00,BKN,OVC,   ,   ,1300.00,3800.00,M,M,-RA,M,M,M,M,M,M,33.10,KSLE 232320Z 17013G19KT 10SM -RA BKN013 OVC038 05/04 A2984 RMK PCPN 0001 $; SLP106 T00500038,M
SLE,1996-01-24 00:00,41.00,38.00,88.76,180.00,9.00,0.02,29.84,1010.40,10.00,M,BKN,OVC,   ,   ,1300.00,3000.00,M,M,-RA,M,M,M,M,M,M,34.70,KSLE 240000Z 18009KT 10SM -RA BKN013 OVC030 05/03 A2984 RMK 6008/ 10044 20038 PCPN 0002 $; SLP104 P0002 60028 T00500033 55060,M
SLE,1996-01-24 00:28,M,M,M,190.00,16.00,M,29.83,1010.30,7.00,M,SCT,OVC,   ,   ,1100.00,2700.00,M,M,RA,M,M,M,M,M,M,M,KSLE 240028Z 19016KT 7SM RA SCT011 OVC027 A2983 RMK PCPN 0005 $; SLP103,M
SLE,1996-01-24 01:00,38.00,36.00,92.49,170.00,9.00,0.12,29.82,1009.90,5.00,18.00,OVC,   ,   ,   ,2700.00,M,M,M,RA FG,M,M,M,M,M,M,30.90,KSLE 240100Z 17009G18KT 5SM RA FG OVC027 03/02 A2982 RMK OVC V BKN PCPN 0012 $; SLP099 P0012 T00330022,M
SLE,1996-01-24 01:36,M,M,M,160.00,9.00,M,29.79,1008.90,10.00,M,SCT,OVC,   ,   ,3100.00,4300.00,M,M,-RA,M,M,M,M,M,M,M,KSLE 240136Z 16009KT 10SM -RA SCT031 OVC043 A2979 RMK PCPN 0003 $; SLP089,M
SLE,1996-01-24 02:00,39.00,37.00,92.53,160.00,8.00,0.04,29.78,1008.40,10.00,M,BKN,OVC,   ,   ,2900.00,4100.00,M,M,-RA,M,M,M,M,M,M,32.76,KSLE 240200Z 16008KT 10SM -RA BKN029 OVC041 04/03 A2978 RMK PCPN 0004 $; SLP084 P0004 T00390028,M
SLE,1996-01-24 03:00,40.00,38.00,92.56,170.00,9.00,0.07,29.74,1007.10,7.00,M,SCT,BKN,OVC,   ,1200.00,2500.00,3800.00,M,RA,M,M,M,M,M,M,33.36,KSLE 240300Z 17009KT 7SM RA SCT012 BKN025 OVC038 04/03 A2974 RMK 6023/ PCPN 0007 $; SLP071 P0007 T00440033 55080,M
SLE,1996-01-24 03:05,M,M,M,180.00,10.00,M,29.74,1007.20,10.00,M,BKN,OVC,   ,   ,1400.00,2500.00,M,M,-RA,M,M,M,M,M,M,M,KSLE 240305Z 18010KT 10SM -RA BKN014 OVC025 A2974 RMK PCPN 0001 $; SLP072,M
SLE,1996-01-24 03:24,M,M,M,190.00,11.00,M,29.74,1007.10,10.00,M,SCT,OVC,   ,   ,1400.00,2700.00,M,M,RA,M,M,M,M,M,M,M,KSLE 240324Z 19011KT 10SM RA SCT014 OVC027 A2974 RMK PCPN 0003 $; SLP071,M
SLE,1996-01-24 04:00,39.00,36.00,88.66,190.00,9.00,0.07,29.72,1006.50,10.00,M,OVC,   ,   ,   ,2700.00,M,M,M,RA,M,M,M,M,M,M,32.24,KSLE 240400Z 19009KT 10SM RA OVC027 04/02 A2972 RMK PCPN 0007 $; SLP065 P0007 T00390022,M
SLE,1996-01-24 05:00,38.00,36.00,92.49,200.00,5.00,0.06,29.71,1006.20,10.00,M,BKN,OVC,   ,   ,2900.00,5000.00,M,M,-RA,M,M,M,M,M,M,33.45,KSLE 240500Z 20005KT 10SM -RA BKN029 OVC050 03/02 A2971 RMK PCPN 0006 PRESFR $; SLP062 P0006 T00330022,M
SLE,1996-01-24 06:00,38.00,36.00,92.49,200.00,8.00,M,29.72,1006.40,10.00,M,SCT,SCT,BKN,   ,2700.00,3400.00,9000.00,M,M,M,M,M,M,M,M,31.43,KSLE 240600Z 20008KT 10SM SCT027 SCT034 BKN090 03/02 A2972 RMK 6036/ 10044 20038 BKN V SCT RE47 PCPN 0000 $; SLP064 60012 T00330022 55060,M
SLE,1996-01-24 06:12,M,M,M,180.00,9.00,M,29.73,1006.70,10.00,M,BKN,BKN,   ,   ,2900.00,3400.00,M,M,M,M,M,M,M,M,M,M,KSLE 240612Z 18009KT 10SM BKN029 BKN034 A2973 RMK $; SLP067,M
SLE,1996-01-24 07:00,38.00,36.00,92.49,200.00,8.00,0.03,29.74,1007.00,10.00,M,SCT,BKN,BKN,   ,2100.00,2800.00,7000.00,M,M,M,M,M,M,M,M,31.43,KSLE 240700Z 20008KT 10SM SCT021 BKN028 BKN070 03/02 A2974 RMK BKN V SCT RB19E55 PCPN 0003 $; SLP070 P0003 T00330022,M
SLE,1996-01-24 07:03,M,M,M,190.00,7.00,M,29.74,1007.00,10.00,M,SCT,BKN,   ,   ,2100.00,7000.00,M,M,M,M,M,M,M,M,M,M,KSLE 240703Z 19007KT 10SM SCT021 BKN070 A2974 RMK $; SLP070,M
SLE,1996-01-24 08:00,38.00,36.00,92.49,190.00,7.00,M,29.76,1007.70,10.00,M,SCT,BKN,   ,   ,3800.00,5000.00,M,M,M,M,M,M,M,M,M,32.02,KSLE 240800Z 19007KT 10SM SCT038 BKN050 03/02 A2976 RMK $; SLP077 T00330022,M
SLE,1996-01-24 09:00,39.00,36.00,88.66,200.00,9.00,0.01,29.77,1008.30,10.00,M,SCT,BKN,   ,   ,4800.00,8000.00,M,M,M,M,M,M,M,M,M,32.24,KSLE 240900Z 20009KT 10SM SCT048 BKN080 04/02 A2977 RMK 6004/ RB09E54 PCPN 0001 $; SLP083 P0001 T00390022 55010,M
SLE,1996-01-24 10:00,39.00,35.00,85.55,190.00,9.00,M,29.79,1008.80,10.00,M,SCT,BKN,   ,   ,6500.00,8000.00,M,M,M,M,M,M,M,M,M,32.24,KSLE 241000Z 19009KT 10SM SCT065 BKN080 04/02 A2979 RMK RB0859E11B42E51 PCPN 0000 $; SLP088 T00390017,M
SLE,1996-01-24 11:00,38.00,35.00,89.25,180.00,10.00,M,29.81,1009.50,10.00,M,SCT,SCT,   ,   ,4400.00,6000.00,M,M,M,M,M,M,M,M,M,30.42,KSLE 241100Z 18010KT 10SM SCT044 SCT060 03/02 A2981 RMK RB05E54 PCPN 0000 $; SLP095 T00330017,M
SLE,1996-01-24 12:00,38.00,35.00,89.25,180.00,9.00,M,29.81,1009.60,10.00,M,SCT,SCT,   ,   ,4400.00,10000.00,M,M,M,M,M,M,M,M,M,30.90,KSLE 241200Z 18009KT 10SM SCT044 SCT100 03/02 A2981 RMK 6004/ 70049 10044 20037 $; SLP096 60013 70047 T00330017 55010,M
SLE,1996-01-24 13:00,37.00,34.00,88.57,170.00,11.00,M,29.81,1009.70,10.00,M,SCT,   ,   ,   ,4000.00,M,M,M,M,M,M,M,M,M,M,28.84,KSLE 241300Z 17011KT 10SM SCT040 03/01 A2981 RMK $; SLP097 T00280011,M
SLE,1996-01-24 13:30,38.00,36.00,92.49,180.00,13.00,M,29.82,1009.70,10.00,M,SCT,BKN,BKN,   ,2200.00,2800.00,4000.00,M,-RA,M,M,M,M,M,M,29.18,KSLE 241330Z 18013KT 10SM -RA SCT022 BKN028 BKN040 03/02 A2982 RMK RB15 PCPN 0002 $; SLP097 T00330022,M
SLE,1996-01-24 14:00,38.00,35.00,89.25,170.00,8.00,0.03,29.82,1009.80,10.00,M,BKN,OVC,   ,   ,2700.00,3600.00,M,M,-RA,M,M,M,M,M,M,31.43,KSLE 241400Z 17008KT 10SM -RA BKN027 OVC036 03/02 A2982 RMK RB15 PCPN 0003 $; SLP098 P0003 T00330017,M
SLE,1996-01-24 14:10,M,M,M,180.00,10.00,M,29.82,1009.70,10.00,M,BKN,BKN,OVC,   ,3300.00,4300.00,7000.00,M,-RA,M,M,M,M,M,M,M,KSLE 241410Z 18010KT 10SM -RA BKN033 BKN043 OVC070 A2982 RMK BKN V SCT PCPN 0000 $; SLP097,M
SLE,1996-01-24 14:20,38.00,34.88,88.61,190.00,12.00,M,29.82,1009.80,10.00,M,BKN,BKN,OVC,   ,2500.00,3800.00,7000.00,M,-RA,M,M,M,M,M,M,29.56,KSLE 241420Z 19012KT 10SM -RA BKN025 BKN038 OVC070 03/02 A2982 RMK PCPN 0000 $; SLP098 T00330016,M
SLE,1996-01-24 15:00,38.00,36.00,92.49,180.00,10.00,0.03,29.82,1009.90,7.00,M,BKN,BKN,OVC,   ,2100.00,3000.00,3700.00,M,-RA,M,M,M,M,M,M,30.42,KSLE 241500Z 18010KT 7SM -RA BKN021 BKN030 OVC037 03/02 A2982 RMK 6006/ PCPN 0003 $; SLP099 P0003 T00330022 55030,M
SLE,1996-01-24 15:15,M,M,M,180.00,13.00,M,29.82,1009.70,7.00,M,SCT,BKN,BKN,   ,3400.00,5000.00,8000.00,M,-RA,M,M,M,M,M,M,M,KSLE 241515Z 18013KT 7SM -RA SCT034 BKN050 BKN080 A2982 RMK PCPN 0001 $; SLP097,M
SLE,1996-01-24 16:00,37.00,35.00,92.46,180.00,10.00,0.04,29.82,1009.90,7.00,M,BKN,BKN,OVC,   ,2000.00,3000.00,4700.00,M,-RA,M,M,M,M,M,M,29.29,KSLE 241600Z 18010KT 7SM -RA BKN020 BKN030 OVC047 03/02 A//// RMK SLP099 P0004 T00280017,M
SLE,1996-01-24 16:31,M,M,M,180.00,15.00,M,29.83,1010.40,5.00,M,SCT,BKN,OVC,   ,1000.00,2600.00,3700.00,M,-RASN,M,M,M,M,M,M,M,KSLE 241631Z 18015KT 5SM -RASN SCT010 BKN026 OVC037 A2983 RMK VSBY S-SW 3 CLD TPNG HILLS ALQDS BKN V OVC RE06B25SB25 PCPN 0002 $; SLP104,M
SLE,1996-01-24 17:00,35.00,33.00,92.40,180.00,14.00,0.04,29.84,1010.40,7.00,M,SCT,BKN,OVC,   ,2000.00,2500.00,3500.00,M,-RA,M,M,M,M,M,M,25.11,KSLE 241700Z 18014KT 7SM -RA SCT020 BKN025 OVC035 02/01 A//// RMK SLP104 P0004 T00170006,M
SLE,1996-01-24 17:27,M,M,M,170.00,11.00,M,29.84,1010.50,10.00,M,SCT,BKN,   ,   ,3300.00,6000.00,M,M,-RA,M,M,M,M,M,M,M,KSLE 241727Z 17011KT 10SM -RA SCT033 BKN060 A2984 RMK PCPN 0000 $; SLP105,M
SLE,1996-01-24 18:00,37.00,35.00,92.46,180.00,14.00,M,29.85,1010.90,10.00,M,BKN,BKN,   ,   ,2500.00,9500.00,M,M,-RA,M,M,M,M,M,M,27.66,KSLE 241800Z 18014KT 10SM -RA BKN025 BKN095 03/02 A2985 RMK 6014/ 10039 20035 BKN V SCT RE29PB53E55RB55 PCPN 0000 $; SLP109 60008 T00280017 55030,M
SLE,1996-01-24 18:31,M,M,M,170.00,10.00,M,29.85,1011.00,10.00,M,SCT,BKN,OVC,   ,900.00,2100.00,3000.00,M,-RA,M,M,M,M,M,M,M,KSLE 241831Z 17010KT 10SM -RA SCT009 BKN021 OVC030 A2985 RMK PCPN 0002 $; SLP110,M
SLE,1996-01-24 19:00,39.00,37.00,92.53,170.00,12.00,0.02,29.85,1010.90,10.00,M,BKN,BKN,OVC,   ,1100.00,1900.00,3000.00,M,M,M,M,M,M,M,M,30.94,KSLE 241900Z 17012KT 10SM BKN011 BKN019 OVC030 04/03 A2985 RMK VSBY S-SW 3 CLDS TPNG HILLS W BKN V SCT RE50 PCPN 0002 $; SLP109 P0002 T00390028 510/2,M
SLE,1996-01-24 19:11,M,M,M,180.00,12.00,M,29.86,1011.30,10.00,M,SCT,BKN,OVC,   ,1100.00,1900.00,3100.00,M,-RA,M,M,M,M,M,M,M,KSLE 241911Z 18012KT 10SM -RA SCT011 BKN019 OVC031 A2986 RMK OVC V BKN RB1859 PCPN 0002 $; SLP113,M
SLE,1996-01-24 19:24,M,M,M,170.00,13.00,M,29.85,1011.10,10.00,M,SCT,BKN,BKN,   ,900.00,2500.00,3600.00,M,-RA,M,M,M,M,M,M,M,KSLE 241924Z 17013KT 10SM -RA SCT009 BKN025 BKN036 A2985 RMK RB1859 PCPN 0002 $; SLP111,M
SLE,1996-01-24 19:36,M,M,M,160.00,13.00,M,29.85,1011.00,10.00,M,SCT,SCT,BKN,   ,900.00,2800.00,7000.00,M,M,M,M,M,M,M,M,M,KSLE 241936Z 16013KT 10SM SCT009 SCT028 BKN070 A2985 RMK BKN V SCT RB1859E29SB29E34 PCPN 0002 $; SLP110,M
SLE,1996-01-24 20:00,39.00,36.00,88.66,170.00,13.00,0.02,29.85,1010.80,10.00,M,SCT,SCT,BKN,   ,1000.00,1300.00,2200.00,M,-RA,M,M,M,M,M,M,30.56,KSLE 242000Z 17013KT 10SM -RA SCT010 SCT013 BKN022 04/02 A//// RMK 108/39 ; SLP108 P0002 T00390022,M
SLE,1996-01-24 21:00,39.00,36.00,88.66,170.00,14.00,0.06,29.83,1010.30,10.00,M,SCT,BKN,OVC,   ,1100.00,1400.00,3100.00,M,-RA,M,M,M,M,M,M,30.21,KSLE 242100Z 17014KT 10SM -RA SCT011 BKN014 OVC031 04/02 A2983 RMK 6010/ PCPN 0006 $; SLP103 P0006 T00390022 55080,M
SLE,1996-01-24 21:07,M,M,M,170.00,12.00,M,29.83,1010.30,10.00,M,SCT,BKN,BKN,   ,900.00,1400.00,3000.00,M,M,M,M,M,M,M,M,M,KSLE 242107Z 17012KT 10SM SCT009 BKN014 BKN030 A2983 RMK BKN V SCT RE07 PCPN 0001 $; SLP103,M
SLE,1996-01-24 21:18,M,M,M,180.00,10.00,M,29.83,1010.30,10.00,M,BKN,BKN,   ,   ,1600.00,7000.00,M,M,M,M,M,M,M,M,M,M,KSLE 242118Z 18010KT 10SM BKN016 BKN070 A2983 RMK RE07 PCPN 0001 $; SLP103,M
SLE,1996-01-24 22:00,40.00,37.00,89.34,180.00,11.00,0.03,29.83,1010.20,7.00,M,SCT,BKN,OVC,   ,1100.00,1600.00,2700.00,M,RA,M,M,M,M,M,M,32.48,KSLE 242200Z 18011KT 7SM RA SCT011 BKN016 OVC027 04/03 A2983 RMK RE07B23 PCPN 0003 $; SLP102 P0003 T00440028,M
SLE,1996-01-24 22:24,M,M,M,170.00,9.00,M,29.82,1009.90,10.00,M,SCT,BKN,OVC,   ,1300.00,3300.00,5000.00,M,-RA,M,M,M,M,M,M,M,KSLE 242224Z 17009KT 10SM -RA SCT013 BKN033 OVC050 A2982 RMK PCPN 0001 $; SLP099,M
SLE,1996-01-24 22:38,M,M,M,170.00,13.00,M,29.82,1009.80,10.00,M,SCT,BKN,BKN,   ,1300.00,2500.00,3400.00,M,-RA,M,M,M,M,M,M,M,KSLE 242238Z 17013KT 10SM -RA SCT013 BKN025 BKN034 A2982 RMK BKN V SCT PCPN 0001 $; SLP098,M
SLE,1996-01-24 23:00,41.00,37.00,85.67,170.00,11.00,0.01,29.82,1009.80,10.00,M,SCT,SCT,BKN,   ,1500.00,6000.00,8500.00,M,M,M,M,M,M,M,M,33.84,KSLE 242300Z 17011KT 10SM SCT015 SCT060 BKN085 05/03 A2982 RMK RE43 PCPN 0001 $; SLP098 P0001 T00500028,M
SLE,1996-01-24 23:25,38.00,36.00,92.49,180.00,12.00,M,29.83,1010.10,5.00,M,BKN,BKN,OVC,   ,1100.00,1700.00,3900.00,M,-RA FG,M,M,M,M,M,M,29.56,KSLE 242325Z 18012KT 5SM -RA FG BKN011 BKN017 OVC039 03/02 A2983 RMK BKN V SCT RB13 PCPN 0002 $; SLP101 T00330022,M
SLE,1996-01-24 23:58,M,M,M,170.00,10.00,M,29.82,1009.90,10.00,M,SCT,SCT,BKN,   ,900.00,2000.00,3200.00,M,-RA,M,M,M,M,M,M,M,KSLE 242358Z 17010KT 10SM -RA SCT009 SCT020 BKN032 A2982 RMK BKN V SCT PCPN 0000 $; SLP099,M
SLE,1996-01-25 00:00,38.00,36.00,92.49,170.00,10.00,0.05,29.82,1009.90,10.00,M,SCT,BKN,BKN,   ,1100.00,2000.00,3200.00,M,-RA,M,M,M,M,M,M,30.42,KSLE 250000Z 17010KT 10SM -RA SCT011 BKN020 BKN032 03/02 A2982 RMK 6019/ 10041 20035 BKN V SCT RB13 PCPN 0005 $; SLP099 P0005 60005 T00330022 55060,M
SLE,1996-01-25 01:00,38.00,36.00,92.49,170.00,12.00,M,29.83,1010.10,10.00,M,BKN,OVC,   ,   ,1400.00,2000.00,M,M,-RA,M,M,M,M,M,M,29.56,KSLE 250100Z 17012KT 10SM -RA BKN014 OVC020 03/02 A//// RMK SLP101 T00330022,M
SLE,1996-01-25 01:12,M,M,M,180.00,13.00,M,29.83,1010.10,10.00,M,SCT,BKN,OVC,   ,900.00,1600.00,6000.00,M,-RA,M,M,M,M,M,M,M,KSLE 250112Z 18013KT 10SM -RA SCT009 BKN016 OVC060 A2983 RMK PCPN 0000 $; SLP101,M
SLE,1996-01-25 01:25,36.86,34.00,89.20,180.00,12.00,M,29.82,1010.10,10.00,M,SCT,BKN,OVC,   ,1100.00,6000.00,9000.00,M,-RA,M,M,M,M,M,M,28.19,KSLE 250125Z 18012KT 10SM -RA SCT011 BKN060 OVC090 03/01 A2982 RMK PCPN 0000 $; SLP101 T00270011,M
SLE,1996-01-25 02:00,37.00,35.00,92.46,180.00,10.00,M,29.83,1010.20,10.00,M,SCT,BKN,OVC,   ,4500.00,4900.00,9000.00,M,-RA,M,M,M,M,M,M,29.29,KSLE 250200Z 18010KT 10SM -RA SCT045 BKN049 OVC090 03/02 A2983 RMK PCPN 0000 $; SLP102 T00280017,M
SLE,1996-01-25 02:34,M,M,M,180.00,14.00,M,29.83,1010.30,10.00,M,SCT,BKN,OVC,   ,900.00,5000.00,7000.00,M,-RA,M,M,M,M,M,M,M,KSLE 250234Z 18014KT 10SM -RA SCT009 BKN050 OVC070 A2983 RMK PCPN 0000 $; SLP103,M
SLE,1996-01-25 03:00,38.00,36.00,92.49,180.00,12.00,M,29.84,1010.60,10.00,M,BKN,BKN,OVC,   ,900.00,2900.00,4900.00,M,-RA,M,M,M,M,M,M,29.56,KSLE 250300Z 18012KT 10SM -RA BKN009 BKN029 OVC049 03/02 A2984 RMK 6000/ PCPN 0000 $; SLP106 T00330022 55030,M
SLE,1996-01-25 03:14,M,M,M,190.00,12.00,M,29.84,1010.50,10.00,M,SCT,SCT,BKN,   ,900.00,4900.00,6000.00,M,-RA,M,M,M,M,M,M,M,KSLE 250314Z 19012KT 10SM -RA SCT009 SCT049 BKN060 A2984 RMK PCPN 0000 $; SLP105,M
SLE,1996-01-25 04:00,37.00,35.00,92.46,170.00,10.00,0.01,29.84,1010.80,10.00,M,SCT,SCT,BKN,   ,4000.00,5000.00,6500.00,M,-RA,M,M,M,M,M,M,29.29,KSLE 250400Z 17010KT 10SM -RA SCT040 SCT050 BKN065 03/02 A2984 RMK PCPN 0001 $; SLP108 P0001 T00280017,M
SLE,1996-01-25 04:22,M,M,M,170.00,8.00,M,29.85,1011.00,10.00,M,SCT,SCT,BKN,   ,700.00,4000.00,10000.00,M,-RA,M,M,M,M,M,M,M,KSLE 250422Z 17008KT 10SM -RA SCT007 SCT040 BKN100 A2985 RMK PCPN 0000 $; SLP110,M
SLE,1996-01-25 04:38,M,M,M,170.00,8.00,M,29.85,1011.10,10.00,M,BKN,BKN,   ,   ,700.00,9000.00,M,M,-RA,M,M,M,M,M,M,M,KSLE 250438Z 17008KT 10SM -RA BKN007 BKN090 A2985 RMK PCPN 0000 $; SLP111,M
SLE,1996-01-25 05:00,36.00,34.00,92.43,170.00,4.00,M,29.86,1011.40,10.00,M,OVC,   ,   ,   ,700.00,M,M,M,-RA,M,M,M,M,M,M,32.04,KSLE 250500Z 17004KT 10SM -RA OVC007 02/01 A2986 RMK LAST AUGMENTED OBS PCPN 0000 $; SLP114 T00220011,M
SLE,1996-01-25 06:00,37.00,35.00,92.46,170.00,5.00,M,29.88,1011.90,10.00,M,OVC,   ,   ,   ,700.00,M,M,M,-RA,M,M,M,M,M,M,32.38,KSLE 250600Z 17005KT 10SM -RA OVC007 03/02 A2988 RMK 6001/ 10041 20035 PCPN 0000 $; SLP119 60013 T00280017 55030,M
SLE,1996-01-25 07:00,36.00,35.00,96.49,220.00,3.00,M,29.90,1012.60,10.00,M,BKN,OVC,   ,   ,700.00,7500.00,M,M,-RA,M,M,M,M,M,M,33.22,KSLE 250700Z 22003KT 10SM -RA BKN007 OVC075 02/02 A2990 RMK PCPN 0000 $; SLP126 T00220017,M
SLE,1996-01-25 07:22,M,M,M,220.00,8.00,M,29.91,1012.90,10.00,M,SCT,BKN,OVC,   ,700.00,1300.00,4100.00,M,-RA,M,M,M,M,M,M,M,KSLE 250722Z 22008KT 10SM -RA SCT007 BKN013 OVC041 A2991 RMK PCPN 0000 $; SLP129,M
SLE,1996-01-25 07:34,M,M,M,180.00,6.00,M,29.90,1012.60,10.00,M,SCT,BKN,OVC,   ,1400.00,2600.00,7000.00,M,-RA,M,M,M,M,M,M,M,KSLE 250734Z 18006KT 10SM -RA SCT014 BKN026 OVC070 A2990 RMK BKN V OVC PCPN 0000 $; SLP126,M
SLE,1996-01-25 08:00,35.00,33.00,92.40,160.00,5.00,M,29.90,1012.80,10.00,M,SCT,SCT,BKN,   ,2400.00,8000.00,10000.00,M,-RA,M,M,M,M,M,M,30.03,KSLE 250800Z 16005KT 10SM -RA SCT024 SCT080 BKN100 02/01 A2990 RMK PCPN 0000 $; SLP128 T00170006,M
SLE,1996-01-25 08:03,M,M,M,170.00,7.00,M,29.91,1012.90,10.00,M,SCT,SCT,BKN,   ,600.00,8000.00,10000.00,M,-RA,M,M,M,M,M,M,M,KSLE 250803Z 17007KT 10SM -RA SCT006 SCT080 BKN100 A2991 RMK PCPN 0000 $; SLP129,M
SLE,1996-01-25 08:14,M,M,M,180.00,5.00,M,29.91,1012.90,10.00,M,BKN,BKN,   ,   ,600.00,10000.00,M,M,-RA,M,M,M,M,M,M,M,KSLE 250814Z 18005KT 10SM -RA BKN006 BKN100 A2991 RMK PCPN 0000 $; SLP129,M
SLE,1996-01-25 09:00,36.00,35.00,96.49,0.00,0.00,0.02,29.91,1013.00,10.00,M,SCT,OVC,   ,   ,600.00,1800.00,M,M,-RA,M,M,M,M,M,M,35.96,KSLE 250900Z 00000KT 10SM -RA SCT006 OVC018 02/02 A2991 RMK 6002/ PCPN 0002 $; SLP130 P0002 T00220017 55010,M
SLE,1996-01-25 09:16,M,M,M,150.00,4.00,M,29.91,1013.10,10.00,M,SCT,SCT,OVC,   ,1800.00,3700.00,4700.00,M,-RA,M,M,M,M,M,M,M,KSLE 250916Z 15004KT 10SM -RA SCT018 SCT037 OVC047 A2991 RMK OVC V BKN PCPN 0001 $; SLP131,M
SLE,1996-01-25 09:41,M,M,M,170.00,5.00,M,29.92,1013.30,10.00,M,SCT,BKN,OVC,   ,600.00,3700.00,4800.00,M,-RA,M,M,M,M,M,M,M,KSLE 250941Z 17005KT 10SM -RA SCT006 BKN037 OVC048 A2992 RMK PCPN 0001 $; SLP133,M
SLE,1996-01-25 10:00,36.00,35.00,96.49,170.00,6.00,0.01,29.92,1013.40,10.00,M,BKN,OVC,   ,   ,600.00,5000.00,M,M,-RA,M,M,M,M,M,M,30.30,KSLE 251000Z 17006KT 10SM -RA BKN006 OVC050 02/02 A2992 RMK BKN V SCT PCPN 0001 $; SLP134 P0001 T00220017,M
SLE,1996-01-25 10:08,M,M,M,170.00,5.00,M,29.92,1013.40,10.00,M,SCT,OVC,   ,   ,600.00,5000.00,M,M,-RA,M,M,M,M,M,M,M,KSLE 251008Z 17005KT 10SM -RA SCT006 OVC050 A2992 RMK PCPN 0000 $; SLP134,M
SLE,1996-01-25 11:00,35.00,34.00,95.79,190.00,6.00,M,29.94,1014.00,10.00,M,BKN,OVC,   ,   ,600.00,3300.00,M,M,-RA,M,M,M,M,M,M,29.22,KSLE 251100Z 19006KT 10SM -RA BKN006 OVC033 02/01 A2994 RMK BKN V SCT PCPN 0000 $; SLP140 T00170011,M
SLE,1996-01-25 11:05,M,M,M,180.00,5.00,M,29.94,1014.10,10.00,M,SCT,BKN,OVC,   ,600.00,3100.00,8000.00,M,-RA,M,M,M,M,M,M,M,KSLE 251105Z 18005KT 10SM -RA SCT006 BKN031 OVC080 A2994 RMK PCPN 0000 $; SLP141,M
SLE,1996-01-25 11:19,M,M,M,160.00,4.00,M,29.95,1014.20,10.00,M,BKN,OVC,   ,   ,600.00,3100.00,M,M,-RA,M,M,M,M,M,M,M,KSLE 251119Z 16004KT 10SM -RA BKN006 OVC031 A2995 RMK OVC V BKN PCPN 0000 $; SLP142,M
SLE,1996-01-25 12:00,36.00,35.00,96.49,160.00,3.00,M,29.95,1014.50,10.00,M,SCT,BKN,OVC,   ,600.00,3900.00,8500.00,M,-RA,M,M,M,M,M,M,33.22,KSLE 251200Z 16003KT 10SM -RA SCT006 BKN039 OVC085 02/02 A2995 RMK 6003/ 70037 10041 20035 PCPN 0000 $; SLP145 60015 70035 T00220017 55030,M
SLE,1996-01-25 13:00,36.00,34.00,92.43,180.00,5.00,M,29.96,1014.80,10.00,M,BKN,BKN,OVC,   ,4900.00,7000.00,9000.00,M,-RA,M,M,M,M,M,M,31.10,KSLE 251300Z 18005KT 10SM -RA BKN049 BKN070 OVC090 02/01 A2996 RMK PCPN 0000 $; SLP148 T00220011,M
SLE,1996-01-25 13:35,M,M,M,170.00,3.00,M,29.97,1015.10,7.00,M,BKN,BKN,OVC,   ,2900.00,4300.00,8000.00,M,-RA,M,M,M,M,M,M,M,KSLE 251335Z 17003KT 7SM -RA BKN029 BKN043 OVC080 A2997 RMK BKN V SCT PCPN 0000 $; SLP151,M
SLE,1996-01-25 13:42,M,M,M,180.00,3.00,M,29.97,1015.20,10.00,M,SCT,BKN,OVC,   ,2900.00,6000.00,8000.00,M,-RA,M,M,M,M,M,M,M,KSLE 251342Z 18003KT 10SM -RA SCT029 BKN060 OVC080 A2997 RMK PCPN 0000 $; SLP152,M
SLE,1996-01-25 14:00,34.00,33.00,96.46,150.00,4.00,M,29.98,1015.30,10.00,M,SCT,SCT,BKN,   ,500.00,2200.00,6500.00,M,-RA,M,M,M,M,M,M,29.73,KSLE 251400Z 15004KT 10SM -RA SCT005 SCT022 BKN065 01/01 A2998 RMK BKN V SCT PCPN 0000 $; SLP153 T00110006,M
SLE,1996-01-25 15:00,35.00,34.00,95.79,130.00,3.00,M,30.00,1016.10,10.00,M,BKN,OVC,   ,   ,400.00,5000.00,M,M,-RA,M,M,M,M,M,M,32.19,KSLE 251500Z 13003KT 10SM -RA BKN004 OVC050 02/01 A3000 RMK 6000/ PCPN 0000 $; SLP161 T00170011 55030,M
SLE,1996-01-25 15:22,M,M,M,140.00,4.00,M,30.01,1016.30,10.00,M,SCT,OVC,   ,   ,400.00,4300.00,M,M,-RA,M,M,M,M,M,M,M,KSLE 251522Z 14004KT 10SM -RA SCT004 OVC043 A3001 RMK PCPN 0000 $; SLP163,M
SLE,1996-01-25 16:00,34.00,33.00,96.46,160.00,5.00,M,30.02,1016.70,7.00,M,BKN,BKN,   ,   ,400.00,4700.00,M,M,M,M,M,M,M,M,M,28.75,KSLE 251600Z 16005KT 7SM BKN004 BKN047 01/01 A3002 RMK BKN V OVC RE24 PCPN 0000 $; SLP167 T00110006,M
SLE,1996-01-25 17:00,36.00,35.00,96.49,190.00,4.00,M,30.05,1017.60,10.00,M,OVC,   ,   ,   ,400.00,M,M,M,M,M,M,M,M,M,M,32.04,KSLE 251700Z 19004KT 10SM OVC004 02/02 A3005 RMK BINOVC W-NW $; SLP176 T00220017,M
SLE,1996-01-25 18:00,38.00,36.00,92.49,180.00,6.00,M,30.07,1018.50,10.00,M,OVC,   ,   ,   ,400.00,M,M,M,M,M,M,M,M,M,M,32.68,KSLE 251800Z 18006KT 10SM OVC004 03/02 A3007 RMK 6000/ 10038 20034 $; SLP185 60024 T00330022 55030,M
SLE,1996-01-25 18:10,M,M,M,170.00,6.00,M,30.07,1018.40,10.00,M,BKN,BKN,   ,   ,600.00,4200.00,M,M,M,M,M,M,M,M,M,M,KSLE 251810Z 17006KT 10SM BKN006 BKN042 A3007 RMK BINQVC SW-W-NW BKN V OVC $; SLP184,M
SLE,1996-01-25 18:20,38.00,36.86,95.84,170.00,5.00,M,30.07,1018.40,10.00,M,SCT,BKN,OVC,   ,600.00,2400.00,7000.00,M,M,M,M,M,M,M,M,33.45,KSLE 251820Z 17005KT 10SM SCT006 BKN024 OVC070 03/03 A3007 RMK BINQVC SW-W-NW BKN V SCT $; SLP184 T00330027,M
SLE,1996-01-25 18:31,M,M,M,180.00,6.00,M,30.07,1018.60,10.00,M,SCT,BKN,OVC,   ,600.00,4200.00,6000.00,M,M,M,M,M,M,M,M,M,KSLE 251831Z 18006KT 10SM SCT006 BKN042 OVC060 A3007 RMK BINQVC SW-W-NW BKN V SCT $; SLP186,M
SLE,1996-01-25 19:00,39.00,37.00,92.53,170.00,6.00,M,30.08,1018.80,10.00,M,SCT,BKN,OVC,   ,800.00,5000.00,10000.00,M,M,M,M,M,M,M,M,33.98,KSLE 251900Z 17006KT 10SM SCT008 BKN050 OVC100 04/03 A3008 RMK BINQVC SW-W-NW BKN V OVC $; SLP188 T00390028,M
SLE,1996-01-25 20:00,42.00,37.00,82.17,210.00,8.00,M,30.09,1019.00,10.00,M,SCT,BKN,OVC,   ,1200.00,3000.00,8000.00,M,M,M,M,M,M,M,M,36.53,KSLE 252000Z 21008KT 10SM SCT012 BKN030 OVC080 06/03 A3009 RMK BKN V SCT $; SLP190 T00560028,M
SLE,1996-01-25 21:00,44.00,37.00,76.16,210.00,10.00,M,30.08,1018.70,10.00,M,SCT,   ,   ,   ,1500.00,M,M,M,M,M,M,M,M,M,M,38.09,KSLE 252100Z 21010KT 10SM SCT015 07/03 A3008 RMK $; SLP187 T00670028 55000,M
SLE,1996-01-25 22:00,42.00,36.00,78.74,210.00,9.00,M,30.08,1018.70,10.00,M,BKN,BKN,OVC,   ,3000.00,3700.00,4700.00,M,RA,M,M,M,M,M,M,36.05,KSLE 252200Z 21009KT 10SM RA BKN030 BKN037 OVC047 06/02 A3008 RMK BKN V SCT RB54 PCPN 0000 $; SLP187 T00560022,M
SLE,1996-01-25 22:09,M,M,M,290.00,10.00,M,30.09,1019.10,1.75,23.00,SCT,BKN,OVC,   ,1200.00,1800.00,3500.00,M,+RASN FG,M,M,M,M,M,M,M,KSLE 252209Z 29010G23KT 13/4SM +RASN FG SCT012 BKN018 OVC035 A3009 RMK SB09 PCPN 0005 PRESRR $; SLP191,M
SLE,1996-01-25 22:17,M,M,M,310.00,3.00,M,30.09,1019.00,10.00,M,SCT,BKN,OVC,   ,1400.00,2100.00,3800.00,M,-RA,M,M,M,M,M,M,M,KSLE 252217Z 31003KT 10SM -RA SCT014 BKN021 OVC038 A3009 RMK CB SE SB09E11 PCPN 0008 PRESRR $; SLP190,M
SLE,1996-01-25 22:38,M,M,M,130.00,6.00,M,30.09,1019.20,10.00,M,SCT,BKN,OVC,   ,800.00,3200.00,8000.00,M,M,M,M,M,M,M,M,M,KSLE 252238Z 13006KT 10SM SCT008 BKN032 OVC080 A3009 RMK RE32SB09E11 PCPN 0008 PRESRR $; SLP192,M
SLE,1996-01-25 23:00,37.00,35.00,92.46,170.00,3.00,0.08,30.09,1019.20,10.00,M,SCT,BKN,   ,   ,800.00,8000.00,M,M,M,M,M,M,M,M,M,34.45,KSLE 252300Z 17003KT 10SM SCT008 BKN080 03/02 A3009 RMK BKN V SCT RE32SB09E11 PCPN 0008 PRESRR $; SLP192 P0008 T00280017,M
SLE,1996-01-26 00:00,40.00,36.00,85.61,240.00,9.00,0.01,30.10,1019.50,10.00,M,SCT,BKN,OVC,   ,3900.00,5500.00,8500.00,M,-RA,M,M,M,M,M,M,33.36,KSLE 260000Z 24009KT 10SM -RA SCT039 BKN055 OVC085 04/02 A3010 RMK CB SW MVG NE 6008/ 10045 20034 RB50 PCPN 0001 $; SLP195 P0001 60008 T00440022 55030,M
SLE,1996-01-26 00:13,M,M,M,260.00,9.00,M,30.10,1019.60,10.00,M,BKN,OVC,   ,   ,2900.00,3700.00,M,M,-RA,M,M,M,M,M,M,M,KSLE 260013Z 26009KT 10SM -RA BKN029 OVC037 A3010 RMK CB OVRHD OV C V BKN PCPN 0000 $; SLP196,M
SLE,1996-01-26 00:43,M,M,M,200.00,6.00,M,30.11,1019.60,10.00,M,SCT,BKN,OVC,   ,2400.00,5000.00,8000.00,M,M,M,M,M,M,M,M,M,KSLE 260043Z 20006KT 10SM SCT024 BKN050 OVC080 A3011 RMK CB SW MVG NE RE22 PCPN 0000 $; SLP196,M
SLE,1996-01-26 01:00,39.00,36.00,88.66,210.00,3.00,M,30.11,1019.60,10.00,M,SCT,BKN,OVC,   ,2500.00,7500.00,9000.00,M,-RA,M,M,M,M,M,M,36.71,KSLE 260100Z 21003KT 10SM -RA SCT025 BKN075 OVC090 04/02 A3011 RMK CB ALQDS RE22B51 PCPN 0000 $; SLP196 T00390022,M
SLE,1996-01-26 02:00,36.00,35.00,96.49,180.00,3.00,M,30.11,1019.80,10.00,M,BKN,   ,   ,   ,4500.00,M,M,M,M,M,M,M,M,M,M,33.22,KSLE 260200Z 18003KT 10SM BKN045 02/02 A3011 RMK CB ALQDS RE00 PCPN 0000 $; SLP198 T00220017,M
SLE,1996-01-26 03:00,37.00,35.00,92.46,140.00,4.00,M,30.12,1020.00,10.00,M,SCT,SCT,BKN,   ,3700.00,4400.00,5500.00,M,M,M,M,M,M,M,M,33.31,KSLE 260300Z 14004KT 10SM SCT037 SCT044 BKN055 03/02 A3012 RMK 6000/ $; SLP200 T00280017 55020,M
SLE,1996-01-26 04:00,36.00,34.00,92.43,150.00,8.00,M,30.11,1019.70,10.00,M,SCT,SCT,   ,   ,5000.00,6000.00,M,M,M,M,M,M,M,M,M,28.99,KSLE 260400Z 15008KT 10SM SCT050 SCT060 02/01 A3011 RMK $; SLP197 T00220011,M
SLE,1996-01-26 04:06,M,M,M,160.00,10.00,M,30.11,1019.80,10.00,M,SCT,   ,   ,   ,900.00,M,M,M,M,M,M,M,M,M,M,M,KSLE 260406Z 16010KT 10SM SCT009 A3011 RMK $; SLP198,M
SLE,1996-01-26 05:00,37.00,35.00,92.46,180.00,9.00,M,30.12,1020.10,10.00,M,SCT,SCT,OVC,   ,2800.00,3800.00,6000.00,M,M,M,M,M,M,M,M,29.78,KSLE 260500Z 18009KT 10SM SCT028 SCT038 OVC060 03/02 A3012 RMK 10+P- 201/37/35/1809/012/ LAST AUGMENTED OBS PB54 PCPN 0000 $; SLP201 T00280017,M
SLE,1996-01-26 06:00,37.00,36.00,95.82,170.00,5.00,M,30.12,1020.20,10.00,M,SCT,BKN,OVC,   ,900.00,2700.00,3400.00,M,M,M,M,M,M,M,M,32.38,KSLE 260600Z 17005KT 10SM SCT009 BKN027 OVC034 03/02 A3012 RMK 6000/ 10045 20034 PE22RB22E42 PCPN 0000 $; SLP202 60003 T00280022 55030,M
SLE,1996-01-26 06:07,M,M,M,170.00,6.00,M,30.13,1020.30,10.00,M,SCT,BKN,OVC,   ,900.00,3000.00,4800.00,M,M,M,M,M,M,M,M,M,KSLE 260607Z 17006KT 10SM SCT009 BKN030 OVC048 A3013 RMK $; SLP203,M
SLE,1996-01-26 07:00,37.00,35.00,92.46,170.00,6.00,M,30.13,1020.30,10.00,M,BKN,   ,   ,   ,900.00,M,M,M,M,M,M,M,M,M,M,31.60,KSLE 260700Z 17006KT 10SM BKN009 03/02 A3013 RMK $; SLP203 T00280017,M
SLE,1996-01-26 08:00,36.00,34.00,92.43,170.00,9.00,M,30.12,1020.10,10.00,M,SCT,SCT,BKN,   ,700.00,2100.00,5500.00,M,M,M,M,M,M,M,M,28.44,KSLE 260800Z 17009KT 10SM SCT007 SCT021 BKN055 02/01 A3012 RMK PB30E33RB33E54 PCPN 0000 $; SLP201 T00220011,M
SLE,1996-01-26 08:01,M,M,M,160.00,10.00,M,30.12,1020.10,10.00,M,SCT,SCT,BKN,   ,700.00,2900.00,5000.00,M,M,M,M,M,M,M,M,M,KSLE 260801Z 16010KT 10SM SCT007 SCT029 BKN050 A3012 RMK FIRST A UGMENTED OB $; SLP201,M
SLE,1996-01-26 08:34,M,M,M,160.00,8.00,M,30.12,1020.00,10.00,M,BKN,OVC,   ,   ,700.00,6000.00,M,M,M,M,M,M,M,M,M,M,KSLE 260834Z 16008KT 10SM BKN007 OVC060 A3012 RMK BKN V SCT $; SLP200,M
SLE,1996-01-26 09:00,37.00,35.00,92.46,180.00,8.00,M,30.12,1020.00,10.00,M,BKN,BKN,OVC,   ,700.00,4700.00,5500.00,M,M,M,M,M,M,M,M,30.32,KSLE 260900Z 18008KT 10SM BKN007 BKN047 OVC055 03/02 A3012 RMK 6000/ BKN V OVC $; SLP200 T00280017 55080,M
SLE,1996-01-26 10:00,36.00,35.00,96.49,180.00,6.00,M,30.12,1020.00,10.00,M,BKN,BKN,OVC,   ,700.00,3400.00,4400.00,M,M,M,M,M,M,M,M,30.30,KSLE 261000Z 18006KT 10SM BKN007 BKN034 OVC044 02/02 A3012 RMK BKN V SCT $; SLP200 T00220017,M
SLE,1996-01-26 10:04,M,M,M,180.00,8.00,M,30.12,1020.20,10.00,M,SCT,BKN,OVC,   ,700.00,3600.00,4600.00,M,M,M,M,M,M,M,M,M,KSLE 261004Z 18008KT 10SM SCT007 BKN036 OVC046 A3012 RMK $; SLP202,M
SLE,1996-01-26 11:00,36.00,34.00,92.43,170.00,7.00,M,30.13,1020.40,10.00,M,BKN,OVC,   ,   ,700.00,5500.00,M,M,M,M,M,M,M,M,M,29.61,KSLE 261100Z 17007KT 10SM BKN007 OVC055 02/01 A3013 RMK $; SLP204 T00220011,M
SLE,1996-01-26 11:42,M,M,M,180.00,8.00,M,30.13,1020.30,10.00,M,SCT,OVC,   ,   ,700.00,4700.00,M,M,M,M,M,M,M,M,M,M,KSLE 261142Z 18008KT 10SM SCT007 OVC047 A3013 RMK $; SLP203,M
SLE,1996-01-26 12:00,36.00,35.00,96.49,170.00,6.00,M,30.12,1020.30,10.00,M,SCT,OVC,   ,   ,700.00,4500.00,M,M,M,M,M,M,M,M,M,30.30,KSLE 261200Z 17006KT 10SM SCT007 OVC045 02/02 A3012 RMK 6000/ 70009 10045 20035 $; SLP203 60002 70008 T00220017 55000,M
SLE,1996-01-26 12:16,M,M,M,160.00,6.00,M,30.12,1020.20,10.00,M,BKN,BKN,   ,   ,700.00,4500.00,M,M,M,M,M,M,M,M,M,M,KSLE 261216Z 16006KT 10SM BKN007 BKN045 A3012 RMK BKN V OVC $; SLP202,M
SLE,1996-01-26 13:00,36.00,34.00,92.43,180.00,7.00,M,30.12,1020.20,10.00,M,OVC,   ,   ,   ,700.00,M,M,M,M,M,M,M,M,M,M,29.61,KSLE 261300Z 18007KT 10SM OVC007 02/01 A3012 RMK OVC V BKN $; SLP202 T00220011,M
SLE,1996-01-26 14:00,36.00,34.00,92.43,160.00,7.00,M,30.12,1020.30,10.00,M,BKN,OVC,   ,   ,700.00,6000.00,M,M,M,M,M,M,M,M,M,29.61,KSLE 261400Z 16007KT 10SM BKN007 OVC060 02/01 A3012 RMK $; SLP203 T00220011,M
SLE,1996-01-26 15:00,36.00,34.00,92.43,180.00,8.00,M,30.13,1020.40,10.00,M,OVC,   ,   ,   ,700.00,M,M,M,M,M,M,M,M,M,M,28.99,KSLE 261500Z 18008KT 10SM OVC007 02/01 A3013 RMK $; SLP204 T00220011 55030,M
SLE,1996-01-26 15:42,M,M,M,180.00,10.00,M,30.12,1020.20,10.00,M,SCT,   ,   ,   ,700.00,M,M,M,M,M,M,M,M,M,M,M,KSLE 261542Z 18010KT 10SM SCT007 A3012 RMK $; SLP202,M
SLE,1996-01-26 16:00,36.00,34.00,92.43,170.00,6.00,M,30.13,1020.30,10.00,M,CLR,   ,   ,   ,M,M,M,M,M,M,M,M,M,M,M,30.30,KSLE 261600Z 17006KT 10SM CLR/// 02/01 A3013 RMK CLR BLO $; SLP203 T00220011 51020,M
SLE,1996-01-26 16:09,M,M,M,170.00,5.00,M,30.13,1020.30,10.00,M,SCT,SCT,   ,   ,900.00,4900.00,M,M,M,M,M,M,M,M,M,M,KSLE 261609Z 17005KT 10SM SCT009 SCT049 A3013 RMK $; SLP203,M
SLE,1996-01-26 16:19,M,M,M,150.00,3.00,M,30.13,1020.40,10.00,M,BKN,BKN,   ,   ,900.00,4900.00,M,M,M,M,M,M,M,M,M,M,KSLE 261619Z 15003KT 10SM BKN009 BKN049 A3013 RMK $; SLP204,M
SLE,1996-01-26 17:00,38.00,36.00,92.49,180.00,5.00,M,30.13,1020.40,10.00,M,OVC,   ,   ,   ,900.00,M,M,M,M,M,M,M,M,M,M,33.45,KSLE 261700Z 18005KT 10SM OVC009 03/02 A3013 RMK $; SLP204 T00330022,M
SLE,1996-01-26 18:00,39.00,36.00,88.66,170.00,8.00,M,30.13,1020.50,10.00,M,OVC,   ,   ,   ,900.00,M,M,M,M,M,M,M,M,M,M,32.76,KSLE 261800Z 17008KT 10SM OVC009 04/02 A3013 RMK 10039 20034 $; SLP205 60001 T00390022 55030,M
SLE,1996-01-26 19:00,40.00,37.00,89.34,190.00,9.00,M,30.13,1020.30,10.00,M,OVC,   ,   ,   ,900.00,M,M,M,M,M,M,M,M,M,M,33.36,KSLE 261900Z 19009KT 10SM OVC009 04/03 A3013 RMK $; SLP203 T00440028,M
SLE,1996-01-26 19:12,M,M,M,160.00,9.00,M,30.12,1020.00,10.00,M,OVC,   ,   ,   ,1100.00,M,M,M,M,M,M,M,M,M,M,M,KSLE 261912Z 16009KT 10SM OVC011 A3012 RMK $; SLP200,M
SLE,1996-01-26 20:00,41.00,37.00,85.67,170.00,8.00,M,30.10,1019.30,10.00,M,OVC,   ,   ,   ,1400.00,M,M,M,M,M,M,M,M,M,M,35.20,KSLE 262000Z 17008KT 10SM OVC014 05/03 A3010 RMK $; SLP193 T00500028,M
SLE,1996-01-26 21:00,42.00,38.00,85.13,160.00,6.00,M,30.06,1018.00,10.00,M,SCT,BKN,OVC,   ,1400.00,1900.00,2400.00,M,M,M,M,M,M,M,M,37.67,KSLE 262100Z 16006KT 10SM SCT014 BKN019 OVC024 06/03 A3006 RMK $; SLP180 T00560033 55080,M
SLE,1996-01-26 21:08,M,M,M,140.00,7.00,M,30.05,1017.60,10.00,M,BKN,OVC,   ,   ,1400.00,2200.00,M,M,M,M,M,M,M,M,M,M,KSLE 262108Z 14007KT 10SM BKN014 OVC022 A3005 RMK $; SLP176,M
SLE,1996-01-26 21:16,M,M,M,140.00,6.00,M,30.04,1017.40,10.00,M,BKN,OVC,   ,   ,1700.00,2300.00,M,M,M,M,M,M,M,M,M,M,KSLE 262116Z 14006KT 10SM BKN017 OVC023 A3004 RMK $; SLP174,M
SLE,1996-01-26 22:00,43.00,38.00,82.24,170.00,5.00,M,30.03,1017.00,10.00,M,OVC,   ,   ,   ,1700.00,M,M,M,M,M,M,M,M,M,M,39.44,KSLE 262200Z 17005KT 10SM OVC017 06/03 A3003 RMK $; SLP170 T00610033,M
SLE,1996-01-26 23:00,43.00,38.00,82.24,160.00,4.00,M,30.00,1015.80,10.00,M,OVC,   ,   ,   ,2300.00,M,M,M,M,M,M,M,M,M,M,40.24,KSLE 262300Z 16004KT 10SM OVC023 06/03 A3000 RMK $; SLP158 T00610033,M
SLE,1996-01-27 00:00,43.00,38.00,82.24,0.00,0.00,M,29.98,1015.10,10.00,M,OVC,   ,   ,   ,2500.00,M,M,M,M,M,M,M,M,M,M,42.98,KSLE 270000Z 00000KT 10SM OVC025 06/03 A2998 RMK 6000/ 10043 20035 RB39E49 PCPN 0000 $; SLP151 60028 T00610033 55060,M
SLE,1996-01-27 00:26,M,M,M,320.00,6.00,M,29.96,1014.80,7.00,M,SCT,BKN,OVC,   ,800.00,1400.00,2000.00,M,M,M,M,M,M,M,M,M,KSLE 270026Z 32006KT 7SM SCT008 BKN014 OVC020 A2996 RMK VSBY W-N 2 RB2357E20 PCPN 0000 $; SLP148,M
SLE,1996-01-27 00:36,M,M,M,20.00,5.00,M,29.96,1014.70,5.00,M,BKN,OVC,   ,   ,800.00,1400.00,M,M,FG,M,M,M,M,M,M,M,KSLE 270036Z 02005KT 5SM FG BKN008 OVC014 A2996 RMK VSBY W-N 2 CIG 4V11 RB2357E20 PCPN 0000 $; SLP147,M
SLE,1996-01-27 01:00,41.00,40.00,95.90,20.00,4.00,M,29.95,1014.20,10.00,M,SCT,OVC,   ,   ,500.00,2700.00,M,M,M,M,M,M,M,M,M,37.93,KSLE 270100Z 02004KT 10SM SCT005 OVC027 05/04 A2995 RMK VSBY S-NW 2 RB2357E20 PCPN 0000 $; SLP142 T00500044,M
SLE,1996-01-27 01:40,M,M,M,30.00,5.00,M,29.91,1013.00,10.00,M,SCT,BKN,OVC,   ,2100.00,3500.00,7000.00,M,M,M,M,M,M,M,M,M,KSLE 270140Z 03005KT 10SM SCT021 BKN035 OVC070 A2991 RMK $; SLP130,M
SLE,1996-01-27 02:00,40.00,39.00,96.55,30.00,5.00,M,29.90,1012.50,10.00,M,SCT,SCT,OVC,   ,3500.00,5500.00,7000.00,M,M,M,M,M,M,M,M,35.80,KSLE 270200Z 03005KT 10SM SCT035 SCT055 OVC070 04/04 A2990 RMK VSBY S- NW 3 $; SLP125 T00440039,M
SLE,1996-01-27 03:00,40.00,38.00,92.56,10.00,3.00,M,29.85,1011.00,10.00,M,BKN,   ,   ,   ,3900.00,M,M,M,M,M,M,M,M,M,M,37.74,KSLE 270300Z 01003KT 10SM BKN039 04/03 A2985 RMK VSBY SW-NW 3 6000/ $; SLP110 T00440033 55080,M
SLE,1996-01-27 04:00,39.00,38.00,95.86,320.00,5.00,M,29.84,1010.60,4.00,M,BKN,BKN,OVC,   ,400.00,6000.00,9500.00,M,FG,M,M,M,M,M,M,34.73,KSLE 270400Z 32005KT 4SM FG BKN004 BKN060 OVC095 04/03 A2984 RMK $; SLP106 T00390033,M
SLE,1996-01-27 04:23,M,M,M,10.00,5.00,M,29.82,1010.00,5.00,M,SCT,OVC,   ,   ,200.00,2900.00,M,M,-RA FG,M,M,M,M,M,M,M,KSLE 270423Z 01005KT 5SM -RA FG SCT002 OVC029 A2982 RMK RB05 PCPN 0001 $; SLP100,M
SLE,1996-01-27 04:33,M,M,M,0.00,0.00,M,29.81,1009.80,5.00,M,BKN,OVC,   ,   ,3200.00,4000.00,M,M,-RA FG,M,M,M,M,M,M,M,KSLE 270433Z 00000KT 5SM -RA FG BKN032 OVC040 A2981 RMK RB05 PCPN 0001 $; SLP098,M
SLE,1996-01-27 04:42,M,M,M,0.00,0.00,M,29.81,1009.40,7.00,M,SCT,OVC,   ,   ,600.00,3200.00,M,M,-RA,M,M,M,M,M,M,M,KSLE 270442Z 00000KT 7SM -RA SCT006 OVC032 A2981 RMK RB05 PCPN 0002 $; SLP094,M
SLE,1996-01-27 05:00,39.00,38.00,95.86,0.00,0.00,0.02,29.80,1009.00,7.00,M,SCT,BKN,OVC,   ,800.00,3000.00,3600.00,M,-RA,M,M,M,M,M,M,39.02,KSLE 270500Z 00000KT 7SM -RA SCT008 BKN030 OVC036 04/03 A2980 RMK RB05 PCPN 0002 $; SLP090 P0002 T00390033,M
SLE,1996-01-27 05:05,M,M,M,10.00,3.00,M,29.79,1008.70,5.00,M,SCT,OVC,   ,   ,800.00,2800.00,M,M,RA FG,M,M,M,M,M,M,M,KSLE 270505Z 01003KT 5SM RA FG SCT008 OVC028 A2979 RMK OVC V BKN PCPN 0001 $; SLP087,M
SLE,1996-01-27 05:20,38.84,38.00,96.54,10.00,4.00,M,29.77,1008.20,7.00,M,SCT,BKN,OVC,   ,800.00,3200.00,5000.00,M,-RA,M,M,M,M,M,M,35.41,KSLE 270520Z 01004KT 7SM -RA SCT008 BKN032 OVC050 04/03 A2977 RMK PCPN 0002 $; SLP082 T00380033,M
SLE,1996-01-27 06:00,39.00,37.00,92.53,10.00,3.00,0.03,29.74,1007.20,10.00,M,OVC,   ,   ,   ,3400.00,M,M,M,-RA,M,M,M,M,M,M,36.71,KSLE 270600Z 01003KT 10SM -RA OVC034 04/03 A2974 RMK 6005/ 10043 20035 PCPN 0003 $; SLP072 P0003 60038 T00390028 55080,M
SLE,1996-01-27 06:25,38.00,36.86,95.84,360.00,3.00,M,29.71,1006.20,7.00,M,SCT,SCT,OVC,   ,500.00,4700.00,6000.00,M,-RA,M,M,M,M,M,M,35.48,KSLE 270625Z 36003KT 7SM -RA SCT005 SCT047 OVC060 03/03 A2971 RMK VSBY SW-NW 3 PCPN 0000 $; SLP062 T00330027,M
SLE,1996-01-27 06:37,M,M,M,310.00,5.00,M,29.71,1006.00,7.00,M,BKN,OVC,   ,   ,500.00,6000.00,M,M,-RA,M,M,M,M,M,M,M,KSLE 270637Z 31005KT 7SM -RA BKN005 OVC060 A2971 RMK VSBY SW-NW 3 PCPN 0000 $; SLP060,M
SLE,1996-01-27 07:00,38.00,37.00,96.52,310.00,5.00,0.01,29.70,1005.90,5.00,M,OVC,   ,   ,   ,500.00,M,M,M,-RA FG,M,M,M,M,M,M,33.45,KSLE 270700Z 31005KT 5SM -RA FG OVC005 03/03 A2970 RMK VSBY SW 2 PCPN 0001 $; SLP059 P0001 T00330028,M
SLE,1996-01-27 07:15,M,M,M,350.00,5.00,M,29.69,1005.50,4.00,M,OVC,   ,   ,   ,300.00,M,M,M,-RA FG,M,M,M,M,M,M,M,KSLE 270715Z 35005KT 4SM -RA FG OVC003 A2969 RMK PCPN 0002 $; SLP055,M
SLE,1996-01-27 07:58,M,M,M,10.00,4.00,M,29.66,1004.40,4.00,M,SCT,BKN,OVC,   ,300.00,1500.00,3300.00,M,RA FG,M,M,M,M,M,M,M,KSLE 270758Z 01004KT 4SM RA FG SCT003 BKN015 OVC033 A2966 RMK BKN V SCT PCPN 0000 $; SLP044,M
SLE,1996-01-27 08:00,37.00,37.00,100.00,10.00,4.00,0.14,29.66,1004.50,4.00,M,BKN,BKN,OVC,   ,300.00,1300.00,1800.00,M,-RA FG,M,M,M,M,M,M,33.31,KSLE 270800Z 01004KT 4SM -RA FG BKN003 BKN013 OVC018 03/03 A2966 RMK BKN V SCT PCPN 0014 $; SLP045 P0014 T00280028,M
SLE,1996-01-27 09:00,37.00,37.00,100.00,360.00,4.00,0.04,29.61,1002.90,7.00,M,SCT,BKN,OVC,   ,300.00,1500.00,2200.00,M,-RA,M,M,M,M,M,M,33.31,KSLE 270900Z 36004KT 7SM -RA SCT003 BKN015 OVC022 03/03 A2961 RMK 6019/ BKN V SCT PCPN 0004 $; SLP029 P0004 T00280028 55080,M
SLE,1996-01-27 09:28,M,M,M,360.00,6.00,M,29.58,1001.80,5.00,M,BKN,OVC,   ,   ,300.00,2100.00,M,M,-RA FG,M,M,M,M,M,M,M,KSLE 270928Z 36006KT 5SM -RA FG BKN003 OVC021 A2958 RMK PCPN 0002 PRESFR $; SLP018,M
SLE,1996-01-27 10:00,37.00,36.00,95.82,360.00,4.00,0.03,29.56,1000.90,4.00,M,OVC,   ,   ,   ,300.00,M,M,M,-RA FG,M,M,M,M,M,M,33.31,KSLE 271000Z 36004KT 4SM -RA FG OVC003 03/02 A2956 RMK OVC V BKN PCPN 0003 PRESFR $; SLP009 P0003 T00280022,M
SLE,1996-01-27 11:00,37.00,36.00,95.82,10.00,5.00,0.01,29.52,999.50,4.00,M,OVC,   ,   ,   ,300.00,M,M,M,-RA FG,M,M,M,M,M,M,32.38,KSLE 271100Z 01005KT 4SM -RA FG OVC003 03/02 A2952 RMK CIG 3V7 PCPN 0001 $; SLP995 P0001 T00280022,M
SLE,1996-01-27 12:00,37.00,36.00,95.82,10.00,6.00,0.07,29.48,998.40,5.00,M,OVC,   ,   ,   ,300.00,M,M,M,-RA FG,M,M,M,M,M,M,31.60,KSLE 271200Z 01006KT 5SM -RA FG OVC003 03/02 A2948 RMK 6030/ 70035 10043 20037 PCPN 0007 $; SLP984 P0007 60044 70035 T00280022 55060,M
SLE,1996-01-27 13:00,36.00,35.00,96.49,10.00,5.00,0.02,29.47,997.90,4.00,M,OVC,   ,   ,   ,300.00,M,M,M,-RA FG,M,M,M,M,M,M,31.10,KSLE 271300Z 01005KT 4SM -RA FG OVC003 02/02 A//// RMK SLP979 P0002 T00220017,M
SLE,1996-01-27 14:00,34.00,33.00,96.46,10.00,6.00,0.07,29.45,997.50,4.00,M,BKN,OVC,   ,   ,500.00,800.00,M,M,-RA FG,M,M,M,M,M,M,27.91,KSLE 271400Z 01006KT 4SM -RA FG BKN005 OVC008 01/01 A2945 RMK OCNL R-S- PCPN 0007 $; SLP975 P0007 T00110006,M
SLE,1996-01-27 14:40,M,M,M,20.00,6.00,M,29.45,997.40,2.50,M,OVC,   ,   ,   ,300.00,M,M,M,-RA FG,M,M,M,M,M,M,M,KSLE 271440Z 02006KT 21/2SM -RA FG OVC003 A2945 RMK RE11PB11E15RB15 PCPN 0002 $; SLP974,M
SLE,1996-01-27 15:00,34.00,33.00,96.46,360.00,7.00,0.03,29.46,997.60,5.00,M,OVC,   ,   ,   ,300.00,M,M,M,-RA FG,M,M,M,M,M,M,27.19,KSLE 271500Z 36007KT 5SM -RA FG OVC003 01/01 A2946 RMK 6012/ RE11PB11E15RB15 PCPN 0003 $; SLP976 P0003 T00110006 55060,M
SLE,1996-01-27 15:04,M,M,M,10.00,5.00,M,29.45,997.30,4.00,M,OVC,   ,   ,   ,500.00,M,M,M,-RA FG,M,M,M,M,M,M,M,KSLE 271504Z 01005KT 4SM -RA FG OVC005 A2945 RMK PCPN 0002 $; SLP973,M
SLE,1996-01-27 15:36,M,M,M,360.00,4.00,M,29.44,997.20,5.00,M,OVC,   ,   ,   ,300.00,M,M,M,-RA FG,M,M,M,M,M,M,M,KSLE 271536Z 36004KT 5SM -RA FG OVC003 A2944 RMK OVC V BKN PCPN 0006 $; SLP972,M
SLE,1996-01-27 16:00,33.00,32.00,95.75,10.00,7.00,0.10,29.45,997.30,5.00,M,OVC,   ,   ,   ,300.00,M,M,M,-RA FG,M,M,M,M,M,M,26.10,KSLE 271600Z 01007KT 5SM -RA FG OVC003 01/00 A2945 RMK PCPN 0010 $; SLP973 P0010 T00060000,M
SLE,1996-01-27 16:11,M,M,M,360.00,7.00,M,29.45,997.30,2.50,M,OVC,   ,   ,   ,300.00,M,M,M,SN FG,M,M,M,M,M,M,M,KSLE 271611Z 36007KT 21/2SM SN FG OVC003 A2945 RMK RE05SB05 PCPN 0003 $; SLP973,M
SLE,1996-01-27 17:00,33.00,32.00,95.75,360.00,5.00,0.07,29.46,997.70,2.50,M,OVC,   ,   ,   ,300.00,M,M,M,FG,M,M,M,M,M,M,27.68,KSLE 271700Z 36005KT 21/2SM FG OVC003 01/00 A2946 RMK CIG 2V6 RE05SB05E54 PCPN 0007 $; SLP977 P0007 T00060000,M
SLE,1996-01-27 17:19,M,M,M,10.00,7.00,M,29.46,997.90,4.00,M,OVC,   ,   ,   ,300.00,M,M,M,FG,M,M,M,M,M,M,M,KSLE 271719Z 01007KT 4SM FG OVC003 A2946 RMK $; SLP979,M
SLE,1996-01-27 17:27,M,M,M,20.00,5.00,M,29.47,998.10,1.75,M,OVC,   ,   ,   ,300.00,M,M,M,FG,M,M,M,M,M,M,M,KSLE 271727Z 02005KT 13/4SM FG OVC003 A2947 RMK PCPN 0002 $; SLP981,M
SLE,1996-01-27 18:00,33.00,32.00,95.75,360.00,6.00,0.05,29.50,998.90,0.75,M,OVC,   ,   ,   ,500.00,M,M,M,SN FG,M,M,M,M,M,M,26.83,KSLE 271800Z 36006KT 3/4SM SN FG OVC005 01/00 A2950 RMK 6034/ 10039 20033 SB44 PCPN 0005 $; SLP989 P0005 60010 T00060000 55030,M
SLE,1996-01-27 18:15,M,M,M,10.00,3.00,M,29.50,999.00,1.00,M,OVC,   ,   ,   ,300.00,M,M,M,SN FG,M,M,M,M,M,M,M,KSLE 271815Z 01003KT 1SM SN FG OVC003 A2950 RMK CIG 1V8 PCPN 0004 $; SLP990,M
SLE,1996-01-27 18:36,M,M,M,360.00,6.00,M,29.51,999.30,1.75,M,OVC,   ,   ,   ,300.00,M,M,M,SN FG,M,M,M,M,M,M,M,KSLE 271836Z 36006KT 13/4SM SN FG OVC003 A2951 RMK CIG 1V8 PCPN 0004 $; SLP993,M
SLE,1996-01-27 19:00,33.00,32.00,95.75,360.00,5.00,0.06,29.51,999.50,1.00,M,OVC,   ,   ,   ,300.00,M,M,M,SN FG,M,M,M,M,M,M,27.68,KSLE 271900Z 36005KT 1SM SN FG OVC003 01/00 A2951 RMK CIG 1V6 PCPN 0006 $; SLP995 P0006 T00060000,M
SLE,1996-01-27 19:29,M,M,M,360.00,6.00,M,29.53,1000.10,1.50,M,OVC,   ,   ,   ,300.00,M,M,M,SN FG,M,M,M,M,M,M,M,KSLE 271929Z 36006KT 11/2SM SN FG OVC003 A2953 RMK PCPN 0001 $; SLP001,M
SLE,1996-01-27 20:00,33.00,32.00,95.75,10.00,7.00,0.02,29.54,1000.40,1.00,M,OVC,   ,   ,   ,300.00,M,M,M,SN FG,M,M,M,M,M,M,26.10,KSLE 272000Z 01007KT 1SM SN FG OVC003 01/00 A2954 RMK CIG 2V6 PCPN 0002 $; SLP004 P0002 T00060000,M
SLE,1996-01-27 20:03,M,M,M,10.00,8.00,M,29.54,1000.60,0.75,M,OVC,   ,   ,   ,300.00,M,M,M,SN FG,M,M,M,M,M,M,M,KSLE 272003Z 01008KT 3/4SM SN FG OVC003 A2954 RMK PCPN 0000 $; SLP006,M
SLE,1996-01-27 20:22,M,M,M,20.00,5.00,M,29.56,1001.00,1.25,M,SCT,BKN,OVC,   ,200.00,1300.00,3200.00,M,SN FG,M,M,M,M,M,M,M,KSLE 272022Z 02005KT 11/4SM SN FG SCT002 BKN013 OVC032 A2956 RMK BKN V SCT PCPN 0001 $; SLP010,M
SLE,1996-01-27 20:30,33.00,32.00,96.44,10.00,5.00,M,29.56,1001.20,1.75,M,SCT,BKN,OVC,   ,500.00,1300.00,3200.00,M,SN FG,M,M,M,M,M,M,27.46,KSLE 272030Z 01005KT 13/4SM SN FG SCT005 BKN013 OVC032 01/00 A2956 RMK PCPN 0001 $; SLP012 T00050000,M
SLE,1996-01-27 20:35,M,M,M,360.00,4.00,M,29.57,1001.40,3.00,M,BKN,BKN,OVC,   ,500.00,1300.00,3200.00,M,SN FG,M,M,M,M,M,M,M,KSLE 272035Z 36004KT 3SM SN FG BKN005 BKN013 OVC032 A2957 RMK BKN V S CT PCPN 0001 $; SLP014,M
SLE,1996-01-27 20:43,M,M,M,360.00,5.00,M,29.57,1001.50,2.50,M,BKN,BKN,OVC,   ,500.00,1300.00,3200.00,M,SN FG,M,M,M,M,M,M,M,KSLE 272043Z 36005KT 21/2SM SN FG BKN005 BKN013 OVC032 A2957 RMK BKN V OVC SFC VSBY 5 PCPN 0001 $; SLP015,M
SLE,1996-01-27 21:00,33.00,32.00,95.75,0.00,0.00,0.01,29.58,1001.90,2.50,M,BKN,OVC,   ,   ,500.00,900.00,M,M,SN FG,M,M,M,M,M,M,33.08,KSLE 272100Z 00000KT 21/2SM SN FG BKN005 OVC009 01/00 A2958 RMK 6009/ CIG 3V7 SFC VSBY 5 PCPN 0001 $; SLP019 P0001 T00060000 55030,M
SLE,1996-01-27 21:24,M,M,M,0.00,0.00,M,29.60,1002.40,1.50,M,BKN,OVC,   ,   ,500.00,900.00,M,M,SN FG,M,M,M,M,M,M,M,KSLE 272124Z 00000KT 11/2SM SN FG BKN005 OVC009 A2960 RMK TWR VSBY 21/2 PCPN 0000 $; SLP024,M
SLE,1996-01-27 21:34,M,M,M,0.00,0.00,M,29.61,1002.70,2.50,M,BKN,OVC,   ,   ,500.00,800.00,M,M,SN FG,M,M,M,M,M,M,M,KSLE 272134Z 00000KT 21/2SM SN FG BKN005 OVC008 A2961 RMK BKN V OVC SFC VSBY 3 PCPN 0000 $; SLP027,M
SLE,1996-01-27 22:00,33.00,32.00,95.75,0.00,0.00,M,29.62,1003.10,1.75,M,BKN,OVC,   ,   ,500.00,1400.00,M,M,SN FG,M,M,M,M,M,M,33.08,KSLE 272200Z 00000KT 13/4SM SN FG BKN005 OVC014 01/00 A2962 RMK TWR VSBY 21/2 PCPN 0000 $; SLP031 T00060000,M
SLE,1996-01-27 22:11,M,M,M,0.00,0.00,M,29.63,1003.40,2.00,M,SCT,SCT,OVC,   ,500.00,800.00,1900.00,M,SN FG,M,M,M,M,M,M,M,KSLE 272211Z 00000KT 2SM SN FG SCT005 SCT008 OVC019 A2963 RMK TWR VSBY 21/2 PCPN 0000 $; SLP034,M
SLE,1996-01-27 22:43,M,M,M,140.00,3.00,M,29.65,1004.30,5.00,M,SCT,OVC,   ,   ,300.00,1500.00,M,M,SN FG,M,M,M,M,M,M,M,KSLE 272243Z 14003KT 5SM SN FG SCT003 OVC015 A2965 RMK PCPN 0000 $; SLP043,M
SLE,1996-01-27 23:00,34.00,33.00,96.46,170.00,4.00,M,29.66,1004.60,5.00,M,BKN,BKN,   ,   ,1500.00,8500.00,M,M,FG,M,M,M,M,M,M,29.73,KSLE 272300Z 17004KT 5SM FG BKN015 BKN085 01/01 A2966 RMK SE44 PCPN 0000 $; SLP046 T00110006,M
SLE,1996-01-27 23:07,M,M,M,160.00,4.00,M,29.68,1005.10,5.00,M,SCT,SCT,BKN,   ,1500.00,3900.00,10000.00,M,FG,M,M,M,M,M,M,M,KSLE 272307Z 16004KT 5SM FG SCT015 SCT039 BKN100 A2968 RMK $; SLP051,M
SLE,1996-01-28 00:00,35.00,33.00,92.40,140.00,5.00,M,29.72,1006.50,5.00,M,CLR,   ,   ,   ,M,M,M,M,FG,M,M,M,M,M,M,30.03,KSLE 280000Z 14005KT 5SM FG CLR/// 02/01 A2972 RMK CLR BLO 53046 6009/ 10037 20033 $; SLP065 60008 T00170006 51020,M
SLE,1996-01-28 00:35,M,M,M,160.00,7.00,M,29.74,1007.30,7.00,M,SCT,   ,   ,   ,500.00,M,M,M,M,M,M,M,M,M,M,M,KSLE 280035Z 16007KT 7SM SCT005 A2974 RMK $; SLP073,M
SLE,1996-01-28 01:00,34.00,33.00,96.46,160.00,9.00,M,29.75,1007.60,7.00,M,SCT,SCT,   ,   ,500.00,8000.00,M,M,M,M,M,M,M,M,M,25.98,KSLE 280100Z 16009KT 7SM SCT005 SCT080 01/01 A2975 RMK $; SLP076 T00110006,M
SLE,1996-01-28 02:00,34.00,33.00,96.46,160.00,10.00,M,29.77,1008.40,10.00,M,SCT,OVC,   ,   ,600.00,6000.00,M,M,M,M,M,M,M,M,M,25.45,KSLE 280200Z 16010KT 10SM SCT006 OVC060 01/01 A2977 RMK $; SLP084 T00110006,M
SLE,1996-01-28 03:00,35.00,33.00,92.40,170.00,9.00,M,29.79,1009.00,10.00,M,BKN,OVC,   ,   ,4800.00,6000.00,M,M,M,M,M,M,M,M,M,27.32,KSLE 280300Z 17009KT 10SM BKN048 OVC060 02/01 A2979 RMK $; SLP090 T00170006 55010,M
SLE,1996-01-28 03:38,M,M,M,30.00,3.00,M,29.81,1009.70,10.00,M,SCT,OVC,   ,   ,600.00,3800.00,M,M,M,M,M,M,M,M,M,M,KSLE 280338Z 03003KT 10SM SCT006 OVC038 A2981 RMK $; SLP097,M
SLE,1996-01-28 04:00,35.00,34.00,95.79,200.00,3.00,0.01,29.83,1010.10,7.00,M,SCT,BKN,OVC,   ,600.00,1600.00,3000.00,M,-RA,M,M,M,M,M,M,32.19,KSLE 280400Z 20003KT 7SM -RA SCT006 BKN016 OVC030 02/01 A2983 RMK OVC V BKN RB40 PCPN 0001 $; SLP101 P0001 T00170011,M
SLE,1996-01-28 04:37,M,M,M,0.00,0.00,M,29.84,1010.60,7.00,M,SCT,BKN,OVC,   ,2000.00,3000.00,4100.00,M,-RA,M,M,M,M,M,M,M,KSLE 280437Z 00000KT 7SM -RA SCT020 BKN030 OVC041 A2984 RMK PCPN 0003 $; SLP106,M
SLE,1996-01-28 05:00,35.00,34.00,95.79,180.00,5.00,0.05,29.84,1010.70,7.00,M,BKN,BKN,OVC,   ,2200.00,2900.00,6000.00,M,-RA,M,M,M,M,M,M,30.03,KSLE 280500Z 18005KT 7SM -RA BKN022 BKN029 OVC060 02/01 A2984 RMK PCPN 0005 $; SLP107 P0005 T00170011,M
SLE,1996-01-28 05:11,M,M,M,160.00,5.00,M,29.84,1010.70,10.00,M,SCT,OVC,   ,   ,2200.00,6000.00,M,M,-RA,M,M,M,M,M,M,M,KSLE 280511Z 16005KT 10SM -RA SCT022 OVC060 A2984 RMK PCPN 0000 $; SLP107,M
SLE,1996-01-28 06:00,36.00,34.00,92.43,150.00,5.00,M,29.85,1011.00,10.00,M,SCT,BKN,OVC,   ,6000.00,8000.00,10000.00,M,M,M,M,M,M,M,M,31.10,KSLE 280600Z 15005KT 10SM SCT060 BKN080 OVC100 02/01 A2985 RMK RE16 6006/ 10039 20033 BKN V SCT PCPN 0000 $; SLP110 60019 T00220011 55010,M
SLE,1996-01-28 07:00,36.00,34.00,92.43,170.00,12.00,M,29.84,1010.70,10.00,M,OVC,   ,   ,   ,10000.00,M,M,M,M,M,M,M,M,M,M,27.04,KSLE 280700Z 17012KT 10SM OVC100 02/01 A2984 RMK $; SLP107 T00220011,M
SLE,1996-01-28 08:00,36.00,34.00,92.43,180.00,9.00,M,29.84,1010.70,10.00,M,OVC,   ,   ,   ,11000.00,M,M,M,M,M,M,M,M,M,M,28.44,KSLE 280800Z 18009KT 10SM OVC110 02/01 A2984 RMK STFRA VCNTY STN ALQDS PRESRR $; SLP107 T00220011,M
SLE,1996-01-28 08:30,36.86,34.00,89.20,180.00,12.00,M,29.86,1011.20,10.00,M,SCT,BKN,OVC,   ,1100.00,2700.00,10000.00,M,M,M,M,M,M,M,M,28.19,KSLE 280830Z 18012KT 10SM SCT011 BKN027 OVC100 03/01 A2986 RMK $; SLP112 T00270011,M
SLE,1996-01-28 08:41,M,M,M,180.00,14.00,M,29.85,1011.10,10.00,M,SCT,SCT,OVC,   ,900.00,2700.00,9000.00,M,M,M,M,M,M,M,M,M,KSLE 280841Z 18014KT 10SM SCT009 SCT027 OVC090 A2985 RMK $; SLP111,M
SLE,1996-01-28 09:00,37.00,34.00,88.57,170.00,15.00,M,29.85,1010.90,10.00,21.00,SCT,BKN,OVC,   ,1000.00,4100.00,9500.00,M,M,M,M,M,M,M,M,27.31,KSLE 280900Z 17015G21KT 10SM SCT010 BKN041 OVC095 03/01 A2985 RMK $; SLP109 T00280011 55030,M
SLE,1996-01-28 09:17,M,M,M,180.00,15.00,M,29.84,1010.70,10.00,M,SCT,BKN,OVC,   ,1000.00,2700.00,10000.00,M,M,M,M,M,M,M,M,M,KSLE 280917Z 18015KT 10SM SCT010 BKN027 OVC100 A2984 RMK BKN V SCT $; SLP107,M
SLE,1996-01-28 09:41,M,M,M,180.00,14.00,M,29.85,1011.00,10.00,M,SCT,BKN,OVC,   ,1000.00,4000.00,8000.00,M,-RA,M,M,M,M,M,M,M,KSLE 280941Z 18014KT 10SM -RA SCT010 BKN040 OVC080 A2985 RMK OVC V BKN RB40 PCPN 0000 $; SLP110,M
SLE,1996-01-28 10:00,37.00,35.00,92.46,180.00,13.00,0.01,29.86,1011.20,10.00,20.00,SCT,OVC,   ,   ,1000.00,3100.00,M,M,-RA,M,M,M,M,M,M,28.03,KSLE 281000Z 18013G20KT 10SM -RA SCT010 OVC031 03/02 A2986 RMK OVC V BKN RB40 PCPN 0001 $; SLP112 P0001 T00280017,M
SLE,1996-01-28 10:03,M,M,M,190.00,15.00,M,29.85,1011.10,10.00,M,SCT,BKN,OVC,   ,1000.00,2700.00,3200.00,M,-RA,M,M,M,M,M,M,M,KSLE 281003Z 19015KT 10SM -RA SCT010 BKN027 OVC032 A2985 RMK PCPN 0001 $; SLP111,M
SLE,1996-01-28 11:00,37.00,35.00,92.46,190.00,13.00,0.05,29.87,1011.60,10.00,M,SCT,BKN,OVC,   ,1200.00,1900.00,3600.00,M,-RA,M,M,M,M,M,M,28.03,KSLE 281100Z 19013KT 10SM -RA SCT012 BKN019 OVC036 03/02 A2987 RMK PCPN 0005 $; SLP116 P0005 T00280017,M
SLE,1996-01-28 11:21,M,M,M,190.00,16.00,M,29.87,1011.50,10.00,21.00,SCT,BKN,OVC,   ,2900.00,3700.00,7000.00,M,-RA,M,M,M,M,M,M,M,KSLE 281121Z 19016G21KT 10SM -RA SCT029 BKN037 OVC070 A2987 RMK PCPN 0002 $; SLP115,M
SLE,1996-01-28 12:00,37.00,35.00,92.46,190.00,12.00,0.04,29.87,1011.60,10.00,M,OVC,   ,   ,   ,2900.00,M,M,M,-RA,M,M,M,M,M,M,28.42,KSLE 281200Z 19012KT 10SM -RA OVC029 03/02 A2987 RMK 6010/ 70059 10037 20034 PCPN 0004 $; SLP116 P0004 60007 70059 T00280017 55030,M
SLE,1996-01-28 12:35,M,M,M,200.00,12.00,M,29.87,1011.60,10.00,M,SCT,BKN,OVC,   ,1900.00,6000.00,7000.00,M,-RA,M,M,M,M,M,M,M,KSLE 281235Z 20012KT 10SM -RA SCT019 BKN060 OVC070 A2987 RMK PCPN 0002 $; SLP116,M
SLE,1996-01-28 13:00,37.00,35.00,92.46,190.00,11.00,0.02,29.87,1011.60,10.00,M,SCT,BKN,OVC,   ,3900.00,7000.00,8500.00,M,M,M,M,M,M,M,M,28.84,KSLE 281300Z 19011KT 10SM SCT039 BKN070 OVC085 03/02 A2987 RMK RE54 PCPN 0002 $; SLP116 P0002 T00280017,M
SLE,1996-01-28 14:00,36.00,35.00,96.49,160.00,10.00,M,29.88,1012.00,10.00,M,SCT,SCT,   ,   ,4300.00,8000.00,M,M,M,M,M,M,M,M,M,27.93,KSLE 281400Z 16010KT 10SM SCT043 SCT080 02/02 A2988 RMK $; SLP120 T00220017,M
SLE,1996-01-28 15:00,36.00,35.00,96.49,170.00,4.00,M,29.91,1012.90,10.00,M,SCT,SCT,OVC,   ,3600.00,4800.00,7000.00,M,M,M,M,M,M,M,M,32.04,KSLE 281500Z 17004KT 10SM SCT036 SCT048 OVC070 02/02 A2991 RMK 6002/ $; SLP129 T00220017 55030,M
SLE,1996-01-28 16:00,38.00,34.00,85.49,200.00,9.00,M,29.93,1013.80,10.00,M,SCT,SCT,BKN,   ,3700.00,4400.00,5000.00,M,M,M,M,M,M,M,M,30.90,KSLE 281600Z 20009KT 10SM SCT037 SCT044 BKN050 03/01 A2993 RMK BKN V SCT $; SLP138 T00330011,M
SLE,1996-01-28 16:17,M,M,M,270.00,3.00,M,29.95,1014.30,10.00,M,BKN,BKN,OVC,   ,2700.00,3500.00,5000.00,M,M,M,M,M,M,M,M,M,KSLE 281617Z 27003KT 10SM BKN027 BKN035 OVC050 A2995 RMK $; SLP143,M
SLE,1996-01-28 17:00,37.00,34.00,88.57,190.00,10.00,M,29.96,1014.60,10.00,M,SCT,BKN,OVC,   ,2500.00,4300.00,5000.00,M,M,M,M,M,M,M,M,29.29,KSLE 281700Z 19010KT 10SM SCT025 BKN043 OVC050 03/01 A2996 RMK RB37E50PB50E53 PCPN 0000 $; SLP146 T00280011,M
SLE,1996-01-28 18:00,38.00,35.00,89.25,200.00,7.00,M,29.99,1015.80,10.00,M,SCT,BKN,OVC,   ,2500.00,6000.00,7000.00,M,M,M,M,M,M,M,M,32.02,KSLE 281800Z 20007KT 10SM SCT025 BKN060 OVC070 03/02 A2999 RMK 6002/ 10038 20033 $; SLP158 60027 T00330017 55030,M
SLE,1996-01-28 18:09,M,M,M,180.00,5.00,M,30.00,1016.00,10.00,M,BKN,BKN,OVC,   ,2700.00,4700.00,6000.00,M,-RA,M,M,M,M,M,M,M,KSLE 281809Z 18005KT 10SM -RA BKN027 BKN047 OVC060 A3000 RMK RB03 PCPN 0000 $; SLP160,M
SLE,1996-01-28 18:38,M,M,M,190.00,9.00,M,30.00,1015.90,10.00,M,SCT,BKN,OVC,   ,2500.00,3900.00,5000.00,M,M,M,M,M,M,M,M,M,KSLE 281838Z 19009KT 10SM SCT025 BKN039 OVC050 A3000 RMK RB03E16 PCPN 0000 $; SLP159,M
SLE,1996-01-28 19:00,39.00,35.00,85.55,200.00,9.00,M,30.00,1016.10,10.00,M,OVC,   ,   ,   ,4400.00,M,M,M,M,M,M,M,M,M,M,32.24,KSLE 281900Z 20009KT 10SM OVC044 04/02 A3000 RMK RB03E16 PCPN 0000 $; SLP161 T00390017,M
SLE,1996-01-28 19:30,38.84,34.88,85.54,200.00,7.00,M,30.01,1016.30,10.00,M,BKN,OVC,   ,   ,2600.00,3600.00,M,M,M,M,M,M,M,M,M,33.12,KSLE 281930Z 20007KT 10SM BKN026 OVC036 04/02 A3001 RMK $; SLP163 T00380016,M
SLE,1996-01-28 20:00,40.00,35.00,82.60,230.00,8.00,M,30.00,1016.10,10.00,M,SCT,BKN,OVC,   ,2500.00,3000.00,5000.00,M,M,M,M,M,M,M,M,33.87,KSLE 282000Z 23008KT 10SM SCT025 BKN030 OVC050 04/02 A3000 RMK $; SLP161 T00440017,M
SLE,1996-01-28 21:00,41.00,36.00,82.09,200.00,9.00,M,30.00,1015.80,10.00,M,SCT,SCT,BKN,   ,4500.00,5000.00,8000.00,M,M,M,M,M,M,M,M,34.70,KSLE 282100Z 20009KT 10SM SCT045 SCT050 BKN080 05/02 A//// RMK SLP158 T00500022,M
SLE,1996-01-28 22:00,41.00,35.00,79.21,180.00,10.00,M,29.98,1015.30,10.00,M,SCT,SCT,   ,   ,4000.00,7500.00,M,M,M,M,M,M,M,M,M,34.25,KSLE 282200Z 18010KT 10SM SCT040 SCT075 05/02 A2998 RMK $; SLP153 T00500017,M
SLE,1996-01-28 23:00,39.00,36.00,88.66,190.00,10.00,0.02,29.98,1015.30,4.00,M,SCT,BKN,OVC,   ,1800.00,2200.00,5000.00,M,RA FG,M,M,M,M,M,M,31.77,KSLE 282300Z 19010KT 4SM RA FG SCT018 BKN022 OVC050 04/02 A2998 RMK RB20 PCPN 0002 $; SLP153 P0002 T00390022,M
SLE,1996-01-28 23:16,M,M,M,200.00,7.00,M,29.98,1015.20,10.00,M,SCT,BKN,OVC,   ,2000.00,5000.00,7000.00,M,M,M,M,M,M,M,M,M,KSLE 282316Z 20007KT 10SM SCT020 BKN050 OVC070 A2998 RMK RE08 PCPN 0000 $; SLP152,M
SLE,1996-01-29 00:00,40.00,36.00,85.61,180.00,8.00,M,29.98,1015.20,10.00,M,SCT,SCT,OVC,   ,4700.00,6000.00,8000.00,M,M,M,M,M,M,M,M,33.87,KSLE 290000Z 18008KT 10SM SCT047 SCT060 OVC080 04/02 A2998 RMK 6002/ 10043 20035 RE08 PCPN 0000 $; SLP152 60006 T00440022 55060,M
SLE,1996-01-29 01:00,39.00,36.00,88.66,200.00,7.00,M,29.98,1015.30,10.00,M,SCT,SCT,OVC,   ,2600.00,4300.00,6000.00,M,M,M,M,M,M,M,M,33.34,KSLE 290100Z 20007KT 10SM SCT026 SCT043 OVC060 04/02 A2998 RMK RB34E46 PCPN 0000 $; SLP153 T00390022,M
SLE,1996-01-29 02:00,38.00,36.00,92.49,190.00,8.00,M,29.97,1015.10,10.00,M,BKN,OVC,   ,   ,6000.00,7500.00,M,M,M,M,M,M,M,M,M,31.43,KSLE 290200Z 19008KT 10SM BKN060 OVC075 03/02 A2997 RMK RB08E49 PCPN 0000 $; SLP151 T00330022,M
SLE,1996-01-29 03:00,38.00,35.00,89.25,210.00,6.00,M,29.98,1015.10,10.00,M,SCT,OVC,   ,   ,3900.00,5000.00,M,M,M,M,M,M,M,M,M,32.68,KSLE 290300Z 21006KT 10SM SCT039 OVC050 03/02 A//// RMK SLP151 T00330017,M
SLE,1996-01-29 04:00,38.00,35.00,89.25,180.00,6.00,M,29.97,1015.00,10.00,M,SCT,OVC,   ,   ,4200.00,6500.00,M,M,M,M,M,M,M,M,M,32.68,KSLE 290400Z 18006KT 10SM SCT042 OVC065 03/02 A2997 RMK $; SLP150 T00330017,M
SLE,1996-01-29 05:00,38.00,35.00,89.25,190.00,8.00,M,29.97,1015.00,10.00,M,OVC,   ,   ,   ,7000.00,M,M,M,M,M,M,M,M,M,M,31.43,KSLE 290500Z 19008KT 10SM OVC070 03/02 A2997 RMK $; SLP150 T00330017,M
SLE,1996-01-29 06:00,38.00,35.00,89.25,190.00,8.00,M,29.97,1015.10,10.00,M,BKN,OVC,   ,   ,4300.00,5500.00,M,M,M,M,M,M,M,M,M,31.43,KSLE 290600Z 19008KT 10SM BKN043 OVC055 03/02 A2997 RMK 6000/ 10043 20035 $; SLP151 60001 T00330017 55050,M
SLE,1996-01-29 07:00,37.00,34.00,88.57,200.00,7.00,M,29.97,1015.10,10.00,M,BKN,BKN,OVC,   ,3500.00,4400.00,8000.00,M,M,M,M,M,M,M,M,30.92,KSLE 290700Z 20007KT 10SM BKN035 BKN044 OVC080 03/01 A2997 RMK $; SLP151 T00280011,M
SLE,1996-01-29 08:00,37.00,34.00,88.57,200.00,6.00,M,29.98,1015.20,10.00,M,OVC,   ,   ,   ,7000.00,M,M,M,M,M,M,M,M,M,M,31.60,KSLE 290800Z 20006KT 10SM OVC070 03/01 A2998 RMK $; SLP152 T00280011,M
SLE,1996-01-29 09:00,37.00,35.00,92.46,180.00,8.00,M,29.97,1015.10,10.00,M,BKN,OVC,   ,   ,7000.00,8500.00,M,M,M,M,M,M,M,M,M,30.32,KSLE 290900Z 18008KT 10SM BKN070 OVC085 03/02 A2997 RMK BKN V OVC $; SLP151 T00280017 55000,M
SLE,1996-01-29 10:00,37.00,35.00,92.46,190.00,9.00,M,29.97,1015.10,10.00,M,OVC,   ,   ,   ,7000.00,M,M,M,M,M,M,M,M,M,M,29.78,KSLE 291000Z 19009KT 10SM OVC070 03/02 A2997 RMK OVC V BKN $; SLP151 T00280017,M
SLE,1996-01-29 11:00,37.00,34.00,88.57,190.00,8.00,M,29.98,1015.30,10.00,M,OVC,   ,   ,   ,7000.00,M,M,M,M,M,M,M,M,M,M,30.32,KSLE 291100Z 19008KT 10SM OVC070 03/01 A2998 RMK $; SLP153 T00280011,M
SLE,1996-01-29 12:00,37.00,34.00,88.57,190.00,6.00,M,29.98,1015.20,10.00,M,SCT,BKN,OVC,   ,3700.00,4700.00,8500.00,M,M,M,M,M,M,M,M,31.60,KSLE 291200Z 19006KT 10SM SCT037 BKN047 OVC085 03/01 A2998 RMK 70004 10043 20036 BKN V SCT $; SLP152 60001 70004 T00280011 55000,M
SLE,1996-01-29 13:00,36.00,34.00,92.43,160.00,3.00,M,29.99,1015.60,10.00,M,SCT,SCT,OVC,   ,3400.00,4600.00,7500.00,M,M,M,M,M,M,M,M,33.22,KSLE 291300Z 16003KT 10SM SCT034 SCT046 OVC075 02/01 A2999 RMK $; SLP156 T00220011,M
SLE,1996-01-29 14:00,36.00,35.00,96.49,0.00,0.00,M,29.99,1015.80,10.00,M,SCT,SCT,OVC,   ,2500.00,3600.00,5500.00,M,M,M,M,M,M,M,M,35.96,KSLE 291400Z 00000KT 10SM SCT025 SCT036 OVC055 02/02 A2999 RMK $; SLP158 T00220017,M
SLE,1996-01-29 15:00,35.00,34.00,95.79,160.00,3.00,M,30.00,1016.20,10.00,M,SCT,BKN,BKN,   ,4600.00,5500.00,7000.00,M,M,M,M,M,M,M,M,32.19,KSLE 291500Z 16003KT 10SM SCT046 BKN055 BKN070 02/01 A3000 RMK 6000/ $; SLP162 T00170011 55010,M
SLE,1996-01-29 16:00,35.00,33.00,92.40,170.00,4.00,M,30.01,1016.40,10.00,M,SCT,OVC,   ,   ,4700.00,9000.00,M,M,M,M,M,M,M,M,M,30.99,KSLE 291600Z 17004KT 10SM SCT047 OVC090 02/01 A3001 RMK $; SLP164 T00170006,M
SLE,1996-01-29 17:00,37.00,35.00,92.46,150.00,5.00,M,30.02,1016.60,10.00,M,SCT,BKN,OVC,   ,4100.00,7000.00,8000.00,M,M,M,M,M,M,M,M,32.38,KSLE 291700Z 15005KT 10SM SCT041 BKN070 OVC080 03/02 A3002 RMK BKN V SCT $; SLP166 T00280017,M
SLE,1996-01-29 18:00,38.00,34.00,85.49,180.00,5.00,M,30.04,1017.50,10.00,M,SCT,BKN,OVC,   ,1100.00,4100.00,9000.00,M,M,M,M,M,M,M,M,33.45,KSLE 291800Z 18005KT 10SM SCT011 BKN041 OVC090 03/01 A3004 RMK 6000/ 10038 20034 BKN V SCT $; SLP175 60014 T00330011 55030,M
SLE,1996-01-29 19:00,38.00,34.00,85.49,170.00,5.00,M,30.05,1017.90,10.00,M,SCT,BKN,OVC,   ,1400.00,4400.00,8000.00,M,M,M,M,M,M,M,M,33.45,KSLE 291900Z 17005KT 10SM SCT014 BKN044 OVC080 03/01 A3005 RMK $; SLP179 T00330011,M
SLE,1996-01-29 19:18,M,M,M,310.00,6.00,M,30.05,1017.80,10.00,M,BKN,OVC,   ,   ,1200.00,4200.00,M,M,M,M,M,M,M,M,M,M,KSLE 291918Z 31006KT 10SM BKN012 OVC042 A3005 RMK $; SLP178,M
SLE,1996-01-29 19:41,M,M,M,0.00,0.00,M,30.05,1017.70,10.00,M,SCT,OVC,   ,   ,1200.00,3600.00,M,M,M,M,M,M,M,M,M,M,KSLE 291941Z 00000KT 10SM SCT012 OVC036 A3005 RMK $; SLP177,M
SLE,1996-01-29 20:00,39.00,34.00,81.95,0.00,0.00,M,30.05,1017.60,10.00,M,SCT,BKN,OVC,   ,1200.00,2800.00,3500.00,M,M,M,M,M,M,M,M,39.02,KSLE 292000Z 00000KT 10SM SCT012 BKN028 OVC035 04/01 A3005 RMK $; SLP176 T00390011,M
SLE,1996-01-29 21:00,37.00,31.00,78.31,230.00,4.00,M,30.05,1017.70,10.00,M,BKN,OVC,   ,   ,2500.00,3000.00,M,M,M,M,M,M,M,M,M,33.31,KSLE 292100Z 23004KT 10SM BKN025 OVC030 03/M01 A3005 RMK $; SLP177 T00281006 55010,M
SLE,1996-01-29 22:00,38.00,32.00,78.96,0.00,0.00,M,30.04,1017.50,10.00,M,SCT,SCT,   ,   ,4300.00,7000.00,M,M,M,M,M,M,M,M,M,37.94,KSLE 292200Z 00000KT 10SM SCT043 SCT070 03/00 A3004 RMK PB14E15RB15E27PB27E37SB01E14 PCPN 0000 $; SLP175 T00330000,M
SLE,1996-01-29 22:33,M,M,M,0.00,0.00,M,30.05,1017.80,10.00,M,SCT,BKN,   ,   ,1800.00,2300.00,M,M,M,M,M,M,M,M,M,M,KSLE 292233Z 00000KT 10SM SCT018 BKN023 A3005 RMK $; SLP178,M
SLE,1996-01-29 23:00,38.00,34.00,85.49,40.00,10.00,M,30.06,1018.20,10.00,M,BKN,OVC,   ,   ,1800.00,2300.00,M,M,M,M,M,M,M,M,M,30.42,KSLE 292300Z 04010KT 10SM BKN018 OVC023 03/01 A3006 RMK $; SLP182 T00330011,M
SLE,1996-01-29 23:09,M,M,M,60.00,10.00,M,30.07,1018.40,10.00,M,SCT,BKN,OVC,   ,800.00,2000.00,9000.00,M,M,M,M,M,M,M,M,M,KSLE 292309Z 06010KT 10SM SCT008 BKN020 OVC090 A3007 RMK $; SLP184,M
SLE,1996-01-30 00:00,36.00,32.00,85.37,30.00,6.00,M,30.09,1019.20,10.00,M,SCT,SCT,BKN,   ,1100.00,1700.00,2900.00,M,M,M,M,M,M,M,M,30.30,KSLE 300000Z 03006KT 10SM SCT011 SCT017 BKN029 02/00 A3009 RMK 6000/ 10040 20034 BKN V SCT PB44E49SB24E44 PCPN 0000 $; SLP192 60014 T00220000 55030,M
SLE,1996-01-30 00:06,M,M,M,40.00,10.00,M,30.09,1019.20,10.00,M,SCT,BKN,OVC,   ,1300.00,3100.00,8000.00,M,M,M,M,M,M,M,M,M,KSLE 300006Z 04010KT 10SM SCT013 BKN031 OVC080 A3009 RMK OVC V BKN $; SLP192,M
SLE,1996-01-30 01:00,34.00,29.00,81.57,10.00,7.00,M,30.10,1019.50,10.00,M,SCT,BKN,   ,   ,4800.00,7000.00,M,M,M,M,M,M,M,M,M,27.19,KSLE 300100Z 01007KT 10SM SCT048 BKN070 01/M02 A3010 RMK $; SLP195 T00111017,M
SLE,1996-01-30 02:00,31.00,25.00,78.35,360.00,6.00,M,30.12,1020.10,10.00,M,CLR,   ,   ,   ,M,M,M,M,M,M,M,M,M,M,M,24.23,KSLE 300200Z 36006KT 10SM CLR/// M01/M04 A3012 RMK CLR BLO $; SLP201 T10061039 51020,M
SLE,1996-01-30 03:00,29.00,22.00,74.70,10.00,9.00,M,30.14,1020.80,10.00,M,CLR,   ,   ,   ,M,M,M,M,M,M,M,M,M,M,M,19.71,KSLE 300300Z 01009KT 10SM CLR/// M02/M06 A3014 RMK CLR BLO 53016 $; SLP208 T10171056 51020,M
SLE,1996-01-30 04:00,27.00,19.00,71.69,10.00,10.00,M,30.15,1021.20,10.00,M,CLR,   ,   ,   ,M,M,M,M,M,M,M,M,M,M,M,16.65,KSLE 300400Z 01010KT 10SM CLR/// M03/M07 A3015 RMK CLR BLO $; SLP212 T10281072 51020,M
SLE,1996-01-30 04:21,M,M,M,10.00,10.00,M,30.16,1021.50,10.00,M,BKN,   ,   ,   ,1300.00,M,M,M,M,M,M,M,M,M,M,M,KSLE 300421Z 01010KT 10SM BKN013 A3016 RMK $; SLP215,M
SLE,1996-01-30 05:00,25.00,18.00,74.29,360.00,11.00,M,30.17,1021.80,10.00,M,OVC,   ,   ,   ,1300.00,M,M,M,M,M,M,M,M,M,M,13.60,KSLE 300500Z 36011KT 10SM OVC013 M04/M08 A3017 RMK $; SLP218 T10391078,M
SLE,1996-01-30 05:03,M,M,M,360.00,11.00,M,30.17,1021.80,10.00,M,OVC,   ,   ,   ,1500.00,M,M,M,M,M,M,M,M,M,M,M,KSLE 300503Z 36011KT 10SM OVC015 A3017 RMK $; SLP218,M
SLE,1996-01-30 05:25,25.00,16.88,70.91,360.00,12.00,M,30.17,1021.90,10.00,M,SCT,   ,   ,   ,1500.00,M,M,M,M,M,M,M,M,M,M,13.07,KSLE 300525Z 36012KT 10SM SCT015 M04/M08 A3017 RMK $; SLP219 T10391084,M
SLE,1996-01-30 06:00,24.00,16.00,70.81,360.00,11.00,M,30.17,1022.00,10.00,M,CLR,   ,   ,   ,M,M,M,M,M,M,M,M,M,M,M,12.46,KSLE 300600Z 36011KT 10SM CLR/// M04/M09 A3017 RMK CLR BLO 51012 10040 20024 $; SLP220 T10441089 51020,M
SLE,1996-01-30 07:00,24.00,16.00,70.81,360.00,10.00,M,30.18,1022.30,10.00,M,OVC,   ,   ,   ,1500.00,M,M,M,M,M,M,M,M,M,M,13.04,KSLE 300700Z 36010KT 10SM OVC015 M04/M09 A3018 RMK $; SLP223 T10441089,M
SLE,1996-01-30 08:00,23.00,14.00,67.96,360.00,11.00,M,30.18,1022.30,10.00,M,OVC,   ,   ,   ,1500.00,M,M,M,M,M,M,M,M,M,M,11.09,KSLE 300800Z 36011KT 10SM OVC015 M05/M10 A3018 RMK $; SLP223 T10501100,M
SLE,1996-01-30 09:00,22.00,14.00,71.12,360.00,9.00,M,30.19,1022.30,10.00,M,SCT,   ,   ,   ,1700.00,M,M,M,M,M,M,M,M,M,M,10.98,KSLE 300900Z 36009KT 10SM SCT017 M06/M10 A//// RMK SLP223 T10561100,M
SLE,1996-01-30 10:00,21.00,13.00,70.46,360.00,10.00,M,30.18,1022.10,10.00,M,CLR,   ,   ,   ,M,M,M,M,M,M,M,M,M,M,M,9.20,KSLE 301000Z 36010KT 10SM CLR/// M06/M11 A3018 RMK CLR BLO $; SLP221 T10611106 51020,M
SLE,1996-01-30 11:00,21.00,12.00,67.71,360.00,10.00,M,30.17,1021.90,10.00,M,CLR,   ,   ,   ,M,M,M,M,M,M,M,M,M,M,M,9.20,KSLE 301100Z 36010KT 10SM CLR/// M06/M11 A3017 RMK CLR BLO $; SLP219 T10611111 51020,M
SLE,1996-01-30 12:00,20.00,12.00,70.89,360.00,12.00,M,30.17,1021.90,10.00,M,CLR,   ,   ,   ,M,M,M,M,M,M,M,M,M,M,M,6.65,KSLE 301200Z 36012KT 10SM CLR/// M07/M11 A3017 RMK CLR BLO 56003 10040 20020 $; SLP219 T10671111 51020,M
SLE,1996-01-30 13:00,20.00,11.00,67.58,360.00,10.00,M,30.16,1021.60,10.00,M,CLR,   ,   ,   ,M,M,M,M,M,M,M,M,M,M,M,7.84,KSLE 301300Z 36010KT 10SM CLR/// M07/M12 A3016 RMK CLR BLO $; SLP216 T10671117 51020,M
SLE,1996-01-30 14:00,20.00,10.00,64.92,360.00,13.00,M,30.16,1021.50,10.00,M,CLR,   ,   ,   ,M,M,M,M,M,M,M,M,M,M,M,6.12,KSLE 301400Z 36013KT 10SM CLR/// M07/M12 A3016 RMK CLR BLO $; SLP215 T10671122 51020,M
SLE,1996-01-30 15:00,20.00,10.00,64.92,350.00,11.00,M,30.16,1021.60,10.00,M,CLR,   ,   ,   ,M,M,M,M,M,M,M,M,M,M,M,7.23,KSLE 301500Z 35011KT 10SM CLR/// M07/M12 A3016 RMK CLR BLO 55002 WND 31V02 $; SLP216 T10671122 51020,M
SLE,1996-01-30 16:00,20.00,10.00,64.92,350.00,11.00,M,30.16,1021.70,10.00,M,CLR,   ,   ,   ,M,M,M,M,M,M,M,M,M,M,M,7.23,KSLE 301600Z 35011KT 10SM CLR/// M07/M12 A3016 RMK CLR BLO $; SLP217 T10671122 51020,M
SLE,1996-01-30 17:00,22.00,11.00,62.13,10.00,10.00,M,30.16,1021.50,10.00,M,CLR,   ,   ,   ,M,M,M,M,M,M,M,M,M,M,M,10.33,KSLE 301700Z 01010KT 10SM CLR/// M06/M12 A3016 RMK CLR BLO $; SLP215 T10561117 51020,M
SLE,1996-01-30 18:00,26.00,11.00,52.25,10.00,12.00,M,30.16,1021.20,10.00,M,CLR,   ,   ,   ,M,M,M,M,M,M,M,M,M,M,M,14.44,KSLE 301800Z 01012KT 10SM CLR/// M03/M12 A//// RMK SLP212 T10331117,M
SLE,1996-01-30 19:00,28.00,11.00,48.15,10.00,12.00,M,30.14,1021.00,10.00,M,CLR,   ,   ,   ,M,M,M,M,M,M,M,M,M,M,M,16.96,KSLE 301900Z 01012KT 10SM CLR/// M02/M12 A3014 RMK CLR BLO $; SLP210 T10221117 51020,M
SLE,1996-01-30 20:00,30.00,12.00,46.59,10.00,11.00,M,30.13,1020.40,10.00,M,CLR,   ,   ,   ,M,M,M,M,M,M,M,M,M,M,M,19.96,KSLE 302000Z 01011KT 10SM CLR/// M01/M11 A3013 RMK CLR BLO $; SLP204 T10111111 51020,M
SLE,1996-01-30 21:00,31.00,13.00,46.74,40.00,15.00,M,30.09,1019.30,10.00,M,CLR,   ,   ,   ,M,M,M,M,M,M,M,M,M,M,M,19.38,KSLE 302100Z 04015KT 10SM CLR/// M01/M11 A3009 RMK CLR BLO 58019 WND 34V06 $; SLP193 T10061106 51020,M
SLE,1996-01-30 22:00,32.00,14.00,46.92,10.00,18.00,M,30.06,1018.10,10.00,M,CLR,   ,   ,   ,M,M,M,M,M,M,M,M,M,M,M,19.75,KSLE 302200Z 01018KT 10SM CLR/// 00/M10 A3006 RMK CLR BLO $; SLP181 T00001100 51020,M
SLE,1996-01-30 23:00,32.00,13.00,44.74,10.00,14.00,M,30.03,1017.30,10.00,20.00,CLR,   ,   ,   ,M,M,M,M,M,M,M,M,M,M,M,21.16,KSLE 302300Z 01014G20KT 10SM CLR/// 00/M11 A3003 RMK CLR BLO $; SLP173 T00001106 51020,M
SLE,1996-01-31 00:00,29.00,13.00,50.66,360.00,15.00,M,30.02,1017.00,10.00,23.00,CLR,   ,   ,   ,M,M,M,M,M,M,M,M,M,M,M,16.81,KSLE 310000Z 36015G23KT 10SM CLR/// M02/M11 A3002 RMK CLR BLO 56023 10032 2 0020 $; SLP170 T10171106 51020,M
SLE,1996-01-31 01:00,25.00,11.00,54.65,10.00,11.00,M,30.03,1017.10,10.00,M,CLR,   ,   ,   ,M,M,M,M,M,M,M,M,M,M,M,13.60,KSLE 310100Z 01011KT 10SM CLR/// M04/M12 A//// RMK SLP171 T10391117,M
SLE,1996-01-31 02:00,23.00,10.00,57.03,10.00,11.00,M,30.03,1017.10,10.00,M,CLR,   ,   ,   ,M,M,M,M,M,M,M,M,M,M,M,11.09,KSLE 310200Z 01011KT 10SM CLR/// M05/M12 A3003 RMK CLR BLO $; SLP171 T10501122 51020,M
SLE,1996-01-31 03:00,22.00,8.00,54.61,360.00,14.00,M,30.04,1017.40,10.00,M,CLR,   ,   ,   ,M,M,M,M,M,M,M,M,M,M,M,8.17,KSLE 310300Z 36014KT 10SM CLR/// M06/M13 A3004 RMK CLR BLO 53003 $; SLP174 T10561133 51020,M
SLE,1996-01-31 04:00,21.00,7.00,54.03,350.00,11.00,M,30.04,1017.50,10.00,M,SCT,   ,   ,   ,5500.00,M,M,M,M,M,M,M,M,M,M,8.59,KSLE 310400Z 35011KT 10SM SCT055 M06/M14 A3004 RMK $; SLP175 T10611139,M
SLE,1996-01-31 05:00,20.00,7.00,56.56,360.00,12.00,M,30.04,1017.60,10.00,M,SCT,   ,   ,   ,5500.00,M,M,M,M,M,M,M,M,M,M,6.65,KSLE 310500Z 36012KT 10SM SCT055 M07/M14 A3004 RMK $; SLP176 T10671139,M
SLE,1996-01-31 06:00,20.00,6.00,54.30,360.00,13.00,M,30.04,1017.50,10.00,M,SCT,   ,   ,   ,5000.00,M,M,M,M,M,M,M,M,M,M,6.12,KSLE 310600Z 36013KT 10SM SCT050 M07/M14 A3004 RMK 10032 20020 $; SLP175 60001 T10671144 55020,M
SLE,1996-01-31 07:00,19.00,7.00,58.78,350.00,14.00,M,30.04,1017.40,10.00,M,CLR,   ,   ,   ,M,M,M,M,M,M,M,M,M,M,M,4.46,KSLE 310700Z 35014KT 10SM CLR/// M07/M14 A3004 RMK CLR BLO WND 31V01 $; SLP174 T10721139 51020,M
SLE,1996-01-31 08:00,19.00,7.00,58.78,340.00,10.00,M,30.04,1017.50,10.00,M,CLR,   ,   ,   ,M,M,M,M,M,M,M,M,M,M,M,6.72,KSLE 310800Z 34010KT 10SM CLR/// M07/M14 A3004 RMK CLR BLO $; SLP175 T10721139 51020,M
SLE,1996-01-31 09:00,19.00,6.00,56.43,360.00,12.00,M,30.03,1017.30,10.00,M,SCT,   ,   ,   ,5500.00,M,M,M,M,M,M,M,M,M,M,5.51,KSLE 310900Z 36012KT 10SM SCT055 M07/M14 A3003 RMK $; SLP173 T10721144 55080,M
SLE,1996-01-31 10:00,20.00,6.00,54.30,350.00,11.00,M,30.03,1017.00,10.00,M,OVC,   ,   ,   ,5500.00,M,M,M,M,M,M,M,M,M,M,7.23,KSLE 311000Z 35011KT 10SM OVC055 M07/M14 A3003 RMK $; SLP170 T10671144,M
SLE,1996-01-31 11:00,19.00,7.00,58.78,320.00,10.00,M,30.01,1016.50,10.00,M,SCT,   ,   ,   ,5000.00,M,M,M,M,M,M,M,M,M,M,6.72,KSLE 311100Z 32010KT 10SM SCT050 M07/M14 A3001 RMK $; SLP165 T10721139,M
SLE,1996-01-31 12:00,19.00,7.00,58.78,330.00,9.00,M,30.00,1016.30,10.00,M,CLR,   ,   ,   ,M,M,M,M,M,M,M,M,M,M,M,7.40,KSLE 311200Z 33009KT 10SM CLR/// M07/M14 A3000 RMK CLR BLO 58010 10032 20019 $; SLP163 T10721139 51020,M
SLE,1996-01-31 13:00,19.00,7.00,58.78,320.00,10.00,M,30.00,1016.30,10.00,M,CLR,   ,   ,   ,M,M,M,M,M,M,M,M,M,M,M,6.72,KSLE 311300Z 32010KT 10SM CLR/// M07/M14 A3000 RMK CLR BLO $; SLP163 T10721139 51020,M
SLE,1996-01-31 14:00,19.00,7.00,58.78,330.00,9.00,M,30.00,1016.20,10.00,M,CLR,   ,   ,   ,M,M,M,M,M,M,M,M,M,M,M,7.40,KSLE 311400Z 33009KT 10SM CLR/// M07/M14 A3000 RMK CLR BLO $; SLP162 T10721139 51020,M
SLE,1996-01-31 15:00,20.00,6.00,54.30,350.00,10.00,M,30.01,1016.50,10.00,M,SCT,   ,   ,   ,5500.00,M,M,M,M,M,M,M,M,M,M,7.84,KSLE 311500Z 35010KT 10SM SCT055 M07/M14 A3001 RMK $; SLP165 T10671144 55030,M
SLE,1996-01-31 16:00,20.00,6.00,54.30,320.00,10.00,M,30.01,1016.40,10.00,M,SCT,   ,   ,   ,5000.00,M,M,M,M,M,M,M,M,M,M,7.84,KSLE 311600Z 32010KT 10SM SCT050 M07/M14 A//// RMK SLP164 T10671144,M
SLE,1996-01-31 17:00,22.00,6.00,49.92,340.00,12.00,M,30.01,1016.40,10.00,M,CLR,   ,   ,   ,M,M,M,M,M,M,M,M,M,M,M,9.17,KSLE 311700Z 34012KT 10SM CLR/// M06/M14 A3001 RMK CLR BLO $; SLP164 T10561144 51020,M
SLE,1996-01-31 18:00,26.00,8.00,45.93,340.00,10.00,M,30.01,1016.50,10.00,M,CLR,   ,   ,   ,M,M,M,M,M,M,M,M,M,M,M,15.52,KSLE 311800Z 34010KT 10SM CLR/// M03/M13 A3001 RMK CLR BLO 55001 10026 20019 $; SLP165 T10331133 51020,M
SLE,1996-01-31 19:00,29.00,8.00,40.79,360.00,13.00,M,30.01,1016.40,10.00,M,CLR,   ,   ,   ,M,M,M,M,M,M,M,M,M,M,M,17.65,KSLE 311900Z 36013KT 10SM CLR/// M02/M13 A3001 RMK CLR BLO $; SLP164 T10171133 51020,M
SLE,1996-01-31 20:00,31.00,9.00,39.19,360.00,14.00,M,29.99,1015.80,10.00,M,CLR,   ,   ,   ,M,M,M,M,M,M,M,M,M,M,M,19.77,KSLE 312000Z 36014KT 10SM CLR/// M01/M13 A2999 RMK CLR BLO $; SLP158 T10061128 51020,M
SLE,1996-01-31 21:00,32.00,9.00,37.52,350.00,16.00,M,29.97,1015.20,10.00,21.00,CLR,   ,   ,   ,M,M,M,M,M,M,M,M,M,M,M,20.42,KSLE 312100Z 35016G21KT 10SM CLR/// 00/M13 A2997 RMK CLR BLO 58013 WND 29V01 $; SLP152 T00001128 51020,M
SLE,1996-01-31 22:00,33.00,10.00,37.70,360.00,15.00,M,29.95,1014.60,10.00,21.00,CLR,   ,   ,   ,M,M,M,M,M,M,M,M,M,M,M,22.18,KSLE 312200Z 36015G21KT 10SM CLR/// 01/M12 A2995 RMK CLR BLO $; SLP146 T00061122 51020,M
SLE,1996-01-31 23:00,33.00,9.00,35.92,360.00,15.00,M,29.95,1014.60,10.00,20.00,CLR,   ,   ,   ,M,M,M,M,M,M,M,M,M,M,M,22.18,KSLE 312300Z 36015G20KT 10SM CLR/// 01/M13 A2995 RMK CLR BLO $; SLP146 T00061128 51020,M
SLE,1996-02-01 00:00,32.00,9.00,37.52,360.00,12.00,M,29.95,1014.50,10.00,M,CLR,   ,   ,   ,M,M,M,M,M,M,M,M,M,M,M,22.00,KSLE 010000Z 36012KT 10SM CLR/// 00/M13 A2995 RMK CLR BLO 56008 10034 20019 $; SLP145 T00001128 51020,M
SLE,1996-02-01 01:00,29.00,8.00,40.79,350.00,13.00,M,29.96,1014.90,10.00,M,CLR,   ,   ,   ,M,M,M,M,M,M,M,M,M,M,M,17.65,KSLE 010100Z 35013KT 10SM CLR/// M02/M13 A2996 RMK CLR BLO WND 30V01 $; SLP149 T10171133 51020,M
SLE,1996-02-01 02:00,27.00,6.00,40.45,360.00,13.00,M,29.97,1015.10,10.00,19.00,CLR,   ,   ,   ,M,M,M,M,M,M,M,M,M,M,M,15.11,KSLE 010200Z 36013G19KT 10SM CLR/// M03/M14 A2997 RMK CLR BLO $; SLP151 T10281144 51020,M
SLE,1996-02-01 03:00,25.00,5.00,41.80,360.00,13.00,M,29.98,1015.40,10.00,M,CLR,   ,   ,   ,M,M,M,M,M,M,M,M,M,M,M,12.57,KSLE 010300Z 36013KT 10SM CLR/// M04/M15 A2998 RMK CLR BLO 51009 $; SLP154 T10391150 51020,M
SLE,1996-02-01 04:00,24.00,5.00,43.40,350.00,12.00,M,29.98,1015.30,10.00,M,CLR,   ,   ,   ,M,M,M,M,M,M,M,M,M,M,M,11.92,KSLE 010400Z 35012KT 10SM CLR/// M04/M15 A2998 RMK CLR BLO $; SLP153 T10441150 51020,M
SLE,1996-02-01 05:00,22.00,4.00,45.22,310.00,9.00,M,29.98,1015.50,10.00,M,CLR,   ,   ,   ,M,M,M,M,M,M,M,M,M,M,M,10.98,KSLE 010500Z 31009KT 10SM CLR/// M06/M16 A2998 RMK CLR BLO $; SLP155 T10561156 51020,M
SLE,1996-02-01 06:00,21.00,4.00,46.98,270.00,8.00,M,29.99,1015.90,10.00,M,CLR,   ,   ,   ,M,M,M,M,M,M,M,M,M,M,M,10.59,KSLE 010600Z 27008KT 10SM CLR/// M06/M16 A2999 RMK CLR BLO 53006 10034 20019 $; SLP159 T10611156 51020,M
SLE,1996-02-01 07:00,21.00,5.00,49.37,360.00,9.00,M,30.00,1016.10,10.00,M,CLR,   ,   ,   ,M,M,M,M,M,M,M,M,M,M,M,9.86,KSLE 010700Z 36009KT 10SM CLR/// M06/M15 A3000 RMK CLR BLO $; SLP161 T10611150 51020,M
SLE,1996-02-01 08:00,20.00,4.00,49.19,320.00,7.00,M,30.00,1016.20,10.00,M,CLR,   ,   ,   ,M,M,M,M,M,M,M,M,M,M,M,10.08,KSLE 010800Z 32007KT 10SM CLR/// M07/M16 A3000 RMK CLR BLO $; SLP162 T10671156 51020,M
SLE,1996-02-01 09:00,20.00,3.00,47.19,320.00,9.00,M,30.00,1016.30,10.00,M,CLR,   ,   ,   ,M,M,M,M,M,M,M,M,M,M,M,8.52,KSLE 010900Z 32009KT 10SM CLR/// M07/M16 A3000 RMK CLR BLO 51004 $; SLP163 T10671161 51020,M
SLE,1996-02-01 10:00,18.00,5.00,56.26,270.00,8.00,M,30.01,1016.50,10.00,M,CLR,   ,   ,   ,M,M,M,M,M,M,M,M,M,M,M,6.82,KSLE 011000Z 27008KT 10SM CLR/// M08/M15 A3001 RMK CLR BLO $; SLP165 T10781150 51020,M
SLE,1996-02-01 11:00,19.00,4.00,51.11,360.00,7.00,M,30.01,1016.50,10.00,M,CLR,   ,   ,   ,M,M,M,M,M,M,M,M,M,M,M,8.98,KSLE 011100Z 36007KT 10SM CLR/// M07/M16 A3001 RMK CLR BLO $; SLP165 T10721156 51020,M
SLE,1996-02-01 12:00,18.00,4.00,53.54,290.00,6.00,M,30.00,1016.30,10.00,M,CLR,   ,   ,   ,M,M,M,M,M,M,M,M,M,M,M,8.62,KSLE 011200Z 29006KT 10SM CLR/// M08/M16 A3000 RMK CLR BLO 50001 10034 20018 $; SLP163 T10781156 51020,M
SLE,1996-02-01 13:00,17.00,5.00,58.49,350.00,4.00,M,30.00,1016.30,10.00,M,CLR,   ,   ,   ,M,M,M,M,M,M,M,M,M,M,M,9.97,KSLE 011300Z 35004KT 10SM CLR/// M08/M15 A3000 RMK CLR BLO $; SLP163 T10831150 51020,M
SLE,1996-02-01 14:00,18.00,4.00,53.54,360.00,5.00,M,30.01,1016.40,10.00,M,CLR,   ,   ,   ,M,M,M,M,M,M,M,M,M,M,M,9.72,KSLE 011400Z 36005KT 10SM CLR/// M08/M16 A3001 RMK CLR BLO $; SLP164 T10781156 51020,M
SLE,1996-02-01 15:00,19.00,3.00,49.03,360.00,8.00,M,30.02,1016.80,10.00,M,CLR,   ,   ,   ,M,M,M,M,M,M,M,M,M,M,M,8.15,KSLE 011500Z 36008KT 10SM CLR/// M07/M16 A3002 RMK CLR BLO 53005 $; SLP168 T10721161 51020,M
SLE,1996-02-01 16:00,19.00,4.00,51.11,360.00,5.00,M,30.02,1016.90,10.00,M,CLR,   ,   ,   ,M,M,M,M,M,M,M,M,M,M,M,11.00,KSLE 011600Z 36005KT 10SM CLR/// M07/M16 A3002 RMK CLR BLO $; SLP169 T10721156 51020,M
SLE,1996-02-01 17:00,22.00,4.00,45.22,360.00,8.00,M,30.02,1017.00,10.00,M,CLR,   ,   ,   ,M,M,M,M,M,M,M,M,M,M,M,11.70,KSLE 011700Z 36008KT 10SM CLR/// M06/M16 A3002 RMK CLR BLO $; SLP170 T10561156 51020,M
SLE,1996-02-01 18:00,24.00,5.00,43.40,360.00,10.00,M,30.05,1017.80,10.00,M,CLR,   ,   ,   ,M,M,M,M,M,M,M,M,M,M,M,13.04,KSLE 011800Z 36010KT 10SM CLR/// M04/M15 A3005 RMK CLR BLO 53010 10024 20017 $; SLP178 T10441150 51020,M
SLE,1996-02-01 19:00,27.00,6.00,40.45,360.00,9.00,M,30.04,1017.70,10.00,M,CLR,   ,   ,   ,M,M,M,M,M,M,M,M,M,M,M,17.25,KSLE 011900Z 36009KT 10SM CLR/// M03/M14 A3004 RMK CLR BLO $; SLP177 T10281144 51020,M
SLE,1996-02-01 20:00,30.00,7.00,37.17,10.00,9.00,M,30.03,1017.00,10.00,M,CLR,   ,   ,   ,M,M,M,M,M,M,M,M,M,M,M,21.05,KSLE 012000Z 01009KT 10SM CLR/// M01/M14 A//// RMK SLP170 T10111139,M
SLE,1996-02-01 21:00,33.00,8.00,34.50,350.00,9.00,M,30.00,1016.10,10.00,M,CLR,   ,   ,   ,M,M,M,M,M,M,M,M,M,M,M,24.86,KSLE 012100Z 35009KT 10SM CLR/// 01/M13 A3000 RMK CLR BLO 58018 $; SLP161 T00061133 51020,M
SLE,1996-02-01 22:00,34.00,9.00,34.65,360.00,10.00,M,29.99,1015.70,10.00,M,CLR,   ,   ,   ,M,M,M,M,M,M,M,M,M,M,M,25.45,KSLE 012200Z 36010KT 10SM CLR/// 01/M13 A2999 RMK CLR BLO $; SLP157 T00111128 51020,M
SLE,1996-02-01 23:00,35.00,9.00,33.19,350.00,9.00,M,29.99,1015.70,10.00,M,CLR,   ,   ,   ,M,M,M,M,M,M,M,M,M,M,M,27.32,KSLE 012300Z 35009KT 10SM CLR/// 02/M13 A2999 RMK CLR BLO $; SLP157 T00171128 51020,M
SLE,1996-02-02 00:00,33.00,10.00,37.70,360.00,12.00,M,29.98,1015.60,10.00,16.00,CLR,   ,   ,   ,M,M,M,M,M,M,M,M,M,M,M,23.38,KSLE 020000Z 36012G16KT 10SM CLR/// 01/M12 A2998 RMK CLR BLO 56004 10035 20017 $; SLP156 T00061122 51020,M
SLE,1996-02-02 01:00,30.00,9.00,40.65,360.00,12.00,M,29.99,1015.80,10.00,M,CLR,   ,   ,   ,M,M,M,M,M,M,M,M,M,M,M,19.48,KSLE 020100Z 36012KT 10SM CLR/// M01/M13 A2999 RMK CLR BLO $; SLP158 T10111128 51020,M
SLE,1996-02-02 02:00,27.00,8.00,44.25,360.00,11.00,M,30.00,1016.20,10.00,M,CLR,   ,   ,   ,M,M,M,M,M,M,M,M,M,M,M,16.10,KSLE 020200Z 36011KT 10SM CLR/// M03/M13 A3000 RMK CLR BLO $; SLP162 T10281133 51020,M
SLE,1996-02-02 03:00,25.00,7.00,45.74,360.00,9.00,M,30.01,1016.50,10.00,16.00,CLR,   ,   ,   ,M,M,M,M,M,M,M,M,M,M,M,14.78,KSLE 020300Z 36009G16KT 10SM CLR/// M04/M14 A3001 RMK CLR BLO 53008 $; SLP165 T10391139 51020,M
SLE,1996-02-02 04:00,23.00,6.00,47.70,360.00,10.00,M,30.03,1017.20,10.00,M,CLR,   ,   ,   ,M,M,M,M,M,M,M,M,M,M,M,11.68,KSLE 020400Z 36010KT 10SM CLR/// M05/M14 A3003 RMK CLR BLO $; SLP172 T10501144 51020,M
SLE,1996-02-02 05:00,22.00,6.00,49.92,360.00,9.00,M,30.04,1017.40,10.00,M,CLR,   ,   ,   ,M,M,M,M,M,M,M,M,M,M,M,10.98,KSLE 020500Z 36009KT 10SM CLR/// M06/M14 A3004 RMK CLR BLO $; SLP174 T10561144 51020,M
SLE,1996-02-02 06:00,20.00,6.00,54.30,330.00,7.00,M,30.05,1017.80,10.00,M,CLR,   ,   ,   ,M,M,M,M,M,M,M,M,M,M,M,10.08,KSLE 020600Z 33007KT 10SM CLR/// M07/M14 A3005 RMK CLR BLO 51013 10035 20017 $; SLP178 T10671144 51020,M
SLE,1996-02-02 07:00,20.00,5.00,51.68,330.00,9.00,M,30.06,1018.30,10.00,M,CLR,   ,   ,   ,M,M,M,M,M,M,M,M,M,M,M,8.52,KSLE 020700Z 33009KT 10SM CLR/// M07/M15 A3006 RMK CLR BLO $; SLP183 T10671150 51020,M
SLE,1996-02-02 08:00,20.00,5.00,51.68,350.00,8.00,M,30.07,1018.60,10.00,M,CLR,   ,   ,   ,M,M,M,M,M,M,M,M,M,M,M,9.26,KSLE 020800Z 35008KT 10SM CLR/// M07/M15 A3007 RMK CLR BLO $; SLP186 T10671150 51020,M
SLE,1996-02-02 09:00,19.00,6.00,56.43,330.00,6.00,M,30.08,1018.80,10.00,M,CLR,   ,   ,   ,M,M,M,M,M,M,M,M,M,M,M,9.92,KSLE 020900Z 33006KT 10SM CLR/// M07/M14 A3008 RMK CLR BLO 51009 $; SLP188 T10721144 51020,M
SLE,1996-02-02 10:00,19.00,5.00,53.71,340.00,7.00,M,30.09,1019.10,10.00,M,CLR,   ,   ,   ,M,M,M,M,M,M,M,M,M,M,M,8.98,KSLE 021000Z 34007KT 10SM CLR/// M07/M15 A3009 RMK CLR BLO $; SLP191 T10721150 51020,M
SLE,1996-02-02 11:00,18.00,6.00,59.10,340.00,5.00,M,30.10,1019.60,10.00,M,CLR,   ,   ,   ,M,M,M,M,M,M,M,M,M,M,M,9.72,KSLE 021100Z 34005KT 10SM CLR/// M08/M14 A3010 RMK CLR BLO $; SLP196 T10781144 51020,M
SLE,1996-02-02 12:00,17.00,6.00,61.44,340.00,6.00,M,30.12,1020.20,10.00,M,CLR,   ,   ,   ,M,M,M,M,M,M,M,M,M,M,M,7.54,KSLE 021200Z 34006KT 10SM CLR/// M08/M14 A3012 RMK CLR BLO 53014 10035 20017 $; SLP202 T10831144 51020,M
SLE,1996-02-02 13:00,16.00,6.00,64.38,320.00,6.00,M,30.13,1020.70,10.00,M,CLR,   ,   ,   ,M,M,M,M,M,M,M,M,M,M,M,6.24,KSLE 021300Z 32006KT 10SM CLR/// M09/M14 A3013 RMK CLR BLO $; SLP207 T10891144 51020,M
SLE,1996-02-02 14:00,17.00,6.00,61.44,360.00,6.00,M,30.13,1020.70,10.00,M,CLR,   ,   ,   ,M,M,M,M,M,M,M,M,M,M,M,7.54,KSLE 021400Z 36006KT 10SM CLR/// M08/M14 A3013 RMK CLR BLO $; SLP207 T10831144 51020,M
SLE,1996-02-02 15:00,17.00,6.00,61.44,360.00,5.00,M,30.13,1020.50,10.00,M,CLR,   ,   ,   ,M,M,M,M,M,M,M,M,M,M,M,8.65,KSLE 021500Z 36005KT 10SM CLR/// M08/M14 A3013 RMK CLR BLO 50004 $; SLP205 T10831144 51020,M
SLE,1996-02-02 16:00,16.00,7.00,67.07,320.00,5.00,M,30.14,1020.50,10.00,M,CLR,   ,   ,   ,M,M,M,M,M,M,M,M,M,M,M,7.37,KSLE 021600Z 32005KT 10SM CLR/// M09/M14 A//// RMK SLP205 T10891139,M
SLE,1996-02-02 17:00,20.00,7.00,56.56,360.00,9.00,M,30.14,1020.90,10.00,M,CLR,   ,   ,   ,M,M,M,M,M,M,M,M,M,M,M,8.52,KSLE 021700Z 36009KT 10SM CLR/// M07/M14 A3014 RMK CLR BLO $; SLP209 T10671139 51020,M
SLE,1996-02-02 18:00,23.00,8.00,52.18,360.00,9.00,M,30.16,1021.20,10.00,M,CLR,   ,   ,   ,M,M,M,M,M,M,M,M,M,M,M,12.32,KSLE 021800Z 36009KT 10SM CLR/// M05/M13 A//// RMK SLP212 T10501133,M
SLE,1996-02-02 19:00,27.00,8.00,44.25,20.00,6.00,M,30.16,1021.20,10.00,M,CLR,   ,   ,   ,M,M,M,M,M,M,M,M,M,M,M,19.46,KSLE 021900Z 02006KT 10SM CLR/// M03/M13 A//// RMK SLP212 T10281133,M
SLE,1996-02-02 20:00,29.00,9.00,42.48,20.00,6.00,M,30.13,1020.30,10.00,M,CLR,   ,   ,   ,M,M,M,M,M,M,M,M,M,M,M,21.84,KSLE 022000Z 02006KT 10SM CLR/// M02/M13 A//// RMK SLP203 T10171128,M
SLE,1996-02-02 21:00,32.00,10.00,39.38,350.00,10.00,M,30.10,1019.60,10.00,M,CLR,   ,   ,   ,M,M,M,M,M,M,M,M,M,M,M,22.97,KSLE 022100Z 35010KT 10SM CLR/// 00/M12 A3010 RMK CLR BLO 58014; SLP196 T00001122 51020,M
SLE,1996-02-02 22:00,34.00,11.00,37.86,10.00,9.00,M,30.09,1019.10,10.00,M,CLR,   ,   ,   ,M,M,M,M,M,M,M,M,M,M,M,25.98,KSLE 022200Z 01009KT 10SM CLR/// 01/M12 A3009 RMK CLR BLO SLP191 T00111117 51020,M
SLE,1996-02-02 23:00,35.00,11.00,36.26,360.00,9.00,M,30.07,1018.70,10.00,M,CLR,   ,   ,   ,M,M,M,M,M,M,M,M,M,M,M,27.32,KSLE 022300Z 36009KT 10SM CLR/// 02/M12 A3007 RMK CLR BLO SLP187 T00171117 51020,M
SLE,1996-02-03 00:00,34.00,12.00,39.72,20.00,8.00,M,30.09,1019.10,10.00,M,CLR,   ,   ,   ,M,M,M,M,M,M,M,M,M,M,M,26.55,KSLE 030000Z 02008KT 10SM CLR/// 01/M11 A3009 RMK CLR BLO 55007 10035 20015; SLP191 T00111111 51020,M
SLE,1996-02-03 01:00,31.00,12.00,44.92,20.00,8.00,M,30.08,1018.80,10.00,M,CLR,   ,   ,   ,M,M,M,M,M,M,M,M,M,M,M,22.78,KSLE 030100Z 02008KT 10SM CLR/// M01/M11 A3008 RMK CLR BLO SLP188 T10061111 51020,M
SLE,1996-02-03 02:00,28.00,11.00,48.15,360.00,8.00,M,30.10,1019.40,10.00,M,CLR,   ,   ,   ,M,M,M,M,M,M,M,M,M,M,M,19.24,KSLE 030200Z 36008KT 10SM CLR/// M02/M12 A3010 RMK CLR BLO SLP194 T10221117 51020,M
SLE,1996-02-03 03:00,26.00,11.00,52.25,360.00,9.00,M,30.10,1019.60,10.00,M,CLR,   ,   ,   ,M,M,M,M,M,M,M,M,M,M,M,16.13,KSLE 030300Z 36009KT 10SM CLR/// M03/M12 A3010 RMK CLR BLO 53004; SLP196 T10331117 51020,M
SLE,1996-02-03 04:00,24.00,11.00,56.74,360.00,7.00,M,30.11,1019.80,10.00,M,CLR,   ,   ,   ,M,M,M,M,M,M,M,M,M,M,M,15.13,KSLE 030400Z 36007KT 10SM CLR/// M04/M12 A3011 RMK CLR BLO SLP198 T10441117 51020,M
SLE,1996-02-03 05:00,22.00,10.00,59.69,330.00,6.00,M,30.12,1020.40,10.00,M,CLR,   ,   ,   ,M,M,M,M,M,M,M,M,M,M,M,13.39,KSLE 030500Z 33006KT 10SM CLR/// M06/M12 A3012 RMK CLR BLO SLP204 T10561122 51020,M
SLE,1996-02-03 06:00,21.00,10.00,62.00,360.00,6.00,M,30.12,1020.20,10.00,M,CLR,   ,   ,   ,M,M,M,M,M,M,M,M,M,M,M,12.31,KSLE 030600Z 36006KT 10SM CLR/// M06/M12 A3012 RMK CLR BLO 50006 10035 20015 $; SLP202 T10611122 51020,M
SLE,1996-02-03 07:00,20.00,10.00,64.92,360.00,5.00,M,30.11,1019.90,10.00,M,CLR,   ,   ,   ,M,M,M,M,M,M,M,M,M,M,M,12.07,KSLE 030700Z 36005KT 10SM CLR/// M07/M12 A3011 RMK CLR BLO $; SLP199 T10671122 51020,M
SLE,1996-02-03 08:00,20.00,9.00,61.85,360.00,6.00,M,30.12,1020.20,10.00,M,CLR,   ,   ,   ,M,M,M,M,M,M,M,M,M,M,M,11.01,KSLE 030800Z 36006KT 10SM CLR/// M07/M13 A3012 RMK CLR BLO $; SLP202 T10671128 51020,M
SLE,1996-02-03 09:00,19.00,8.00,61.72,360.00,6.00,M,30.11,1020.00,10.00,M,CLR,   ,   ,   ,M,M,M,M,M,M,M,M,M,M,M,9.92,KSLE 030900Z 36006KT 10SM CLR/// M07/M13 A3011 RMK CLR BLO 56002 $; SLP200 T10721133 51020,M
SLE,1996-02-03 10:00,19.00,8.00,61.72,360.00,5.00,M,30.11,1019.80,10.00,M,CLR,   ,   ,   ,M,M,M,M,M,M,M,M,M,M,M,11.00,KSLE 031000Z 36005KT 10SM CLR/// M07/M13 A3011 RMK CLR BLO $; SLP198 T10721133 51020,M
SLE,1996-02-03 11:00,18.00,8.00,64.65,360.00,5.00,M,30.11,1020.00,10.00,M,CLR,   ,   ,   ,M,M,M,M,M,M,M,M,M,M,M,9.72,KSLE 031100Z 36005KT 10SM CLR/// M08/M13 A3011 RMK CLR BLO $; SLP200 T10781133 51020,M
SLE,1996-02-03 12:00,18.00,8.00,64.65,360.00,7.00,M,30.10,1019.70,10.00,M,CLR,   ,   ,   ,M,M,M,M,M,M,M,M,M,M,M,7.67,KSLE 031200Z 36007KT 10SM CLR/// M08/M13 A3010 RMK CLR BLO 56002 10035 20017 $; SLP197 T10781133 51020,M
SLE,1996-02-03 13:00,17.00,8.00,67.21,360.00,6.00,M,30.09,1019.40,10.00,M,CLR,   ,   ,   ,M,M,M,M,M,M,M,M,M,M,M,7.54,KSLE 031300Z 36006KT 10SM CLR/// M08/M13 A3009 RMK CLR BLO $; SLP194 T10831133 51020,M
SLE,1996-02-03 14:00,18.00,7.00,61.57,360.00,5.00,M,30.09,1019.30,10.00,M,CLR,   ,   ,   ,M,M,M,M,M,M,M,M,M,M,M,9.72,KSLE 031400Z 36005KT 10SM CLR/// M08/M14 A3009 RMK CLR BLO $; SLP193 T10781139 51020,M
SLE,1996-02-03 15:00,19.00,8.00,61.72,10.00,6.00,M,30.09,1019.20,10.00,M,CLR,   ,   ,   ,M,M,M,M,M,M,M,M,M,M,M,9.92,KSLE 031500Z 01006KT 10SM CLR/// M07/M13 A3009 RMK CLR BLO 56006 $; SLP192 T10721133 51020,M
SLE,1996-02-03 16:00,20.00,8.00,59.40,360.00,4.00,M,30.09,1019.20,10.00,M,CLR,   ,   ,   ,M,M,M,M,M,M,M,M,M,M,M,13.34,KSLE 031600Z 36004KT 10SM CLR/// M07/M13 A3009 RMK CLR BLO $; SLP192 T10671133 51020,M
SLE,1996-02-03 17:00,21.00,8.00,56.73,360.00,6.00,M,30.10,1019.60,10.00,M,CLR,   ,   ,   ,M,M,M,M,M,M,M,M,M,M,M,12.31,KSLE 031700Z 36006KT 10SM CLR/// M06/M13 A3010 RMK CLR BLO $; SLP196 T10611133 51020,M
SLE,1996-02-03 18:00,22.00,8.00,54.61,360.00,5.00,M,30.11,1019.80,10.00,M,SCT,   ,   ,   ,12000.00,M,M,M,M,M,M,M,M,M,M,14.42,KSLE 031800Z 36005KT 10SM SCT120 M06/M13 A3011 RMK SLP198 T10561133,M
SLE,1996-02-03 19:00,24.00,8.00,49.87,10.00,7.00,M,30.09,1019.20,10.00,M,CLR,   ,   ,   ,M,M,M,M,M,M,M,M,M,M,M,15.13,KSLE 031900Z 01007KT 10SM CLR/// M04/M13 A3009 RMK CLR BLO $; SLP192 T10441133 51020,M
SLE,1996-02-03 20:00,26.00,9.00,47.82,350.00,8.00,M,30.05,1018.00,10.00,M,OVC,   ,   ,   ,8000.00,M,M,M,M,M,M,M,M,M,M,16.80,KSLE 032000Z 35008KT 10SM OVC080 M03/M13 A3005 RMK $; SLP180 T10331128,M
SLE,1996-02-03 20:22,M,M,M,360.00,8.00,M,30.04,1017.70,10.00,M,SCT,BKN,   ,   ,6000.00,9000.00,M,M,-FZRA,M,M,M,M,M,M,M,KSLE 032022Z 36008KT 10SM -FZRA SCT060 BKN090 A3004 RMK ZRB16SB13E16 PCPN 0000 $; SLP177,M
SLE,1996-02-03 20:35,M,M,M,10.00,8.00,M,30.03,1017.10,10.00,M,SCT,BKN,   ,   ,7000.00,9000.00,M,M,M,M,M,M,M,M,M,M,KSLE 032035Z 01008KT 10SM SCT070 BKN090 A3003 RMK ZRB16E29SB13E16 PCPN 0000 $; SLP171,M
SLE,1996-02-03 21:00,27.00,10.00,48.36,360.00,10.00,M,30.02,1017.00,10.00,M,OVC,   ,   ,   ,7000.00,M,M,M,M,M,M,M,M,M,M,16.65,KSLE 032100Z 36010KT 10SM OVC070 M03/M12 A3002 RMK 6000/ OVC V BKN ZRB16E29SB13E16 PCPN 0000 $; SLP170 T10281122 55080,M
SLE,1996-02-03 21:46,M,M,M,330.00,6.00,M,30.01,1016.50,10.00,M,SCT,BKN,OVC,   ,4600.00,6000.00,7000.00,M,-FZRA,M,M,M,M,M,M,M,KSLE 032146Z 33006KT 10SM -FZRA SCT046 BKN060 OVC070 A3001 RMK ZRB33 PCPN 0000 PRESFR $; SLP165,M
SLE,1996-02-03 22:00,27.00,15.00,60.41,360.00,8.00,M,29.99,1015.90,10.00,M,BKN,OVC,   ,   ,4800.00,6000.00,M,M,-FZRA,M,M,M,M,M,M,17.90,KSLE 032200Z 36008KT 10SM -FZRA BKN048 OVC060 M03/M09 A2999 RMK BKN V SCT ZRB33 PCPN 0000 PRESFR $; SLP159 T10281094,M
SLE,1996-02-03 23:00,28.00,18.00,65.47,360.00,5.00,0.01,29.98,1015.60,10.00,M,OVC,   ,   ,   ,4600.00,M,M,M,-FZRA,M,M,M,M,M,M,21.69,KSLE 032300Z 36005KT 10SM -FZRA OVC046 M02/M08 A2998 RMK PCPN 0001 $; SLP156 P0001 T10221078,M
SLE,1996-02-04 00:00,28.00,18.00,65.47,360.00,8.00,M,29.97,1015.10,7.00,M,OVC,   ,   ,   ,5500.00,M,M,M,-FZRA,M,M,M,M,M,M,19.24,KSLE 040000Z 36008KT 7SM -FZRA OVC055 M02/M08 A2997 RMK 6001/ 10028 20017 PCPN 0000 PRESFR $; SLP151 60018 T10221078 55060,M
SLE,1996-02-04 01:00,28.00,17.00,62.97,360.00,9.00,M,29.96,1014.70,10.00,M,OVC,   ,   ,   ,6000.00,M,M,M,-FZRA,M,M,M,M,M,M,18.59,KSLE 040100Z 36009KT 10SM -FZRA OVC060 M02/M08 A2996 RMK PCPN 0000 $; SLP147 T10221083,M
SLE,1996-02-04 02:00,27.00,18.00,68.44,360.00,5.00,M,29.95,1014.50,10.00,M,OVC,   ,   ,   ,6000.00,M,M,M,-FZRA,M,M,M,M,M,M,20.41,KSLE 040200Z 36005KT 10SM -FZRA OVC060 M03/M08 A2995 RMK PCPN 0000 $; SLP145 T10281078,M
SLE,1996-02-04 03:00,28.00,21.00,74.61,360.00,5.00,0.02,29.96,1014.70,7.00,M,OVC,   ,   ,   ,5000.00,M,M,M,-FZRA,M,M,M,M,M,M,21.69,KSLE 040300Z 36005KT 7SM -FZRA OVC050 M02/M06 A2996 RMK 6002/ PCPN 0002 $; SLP147 P0002 T10221061 55050,M
SLE,1996-02-04 04:00,27.00,23.00,84.80,20.00,4.00,0.07,29.97,1015.30,5.00,M,BKN,OVC,   ,   ,4800.00,6000.00,M,M,-FZRA FG,M,M,M,M,M,M,21.53,KSLE 040400Z 02004KT 5SM -FZRA FG BKN048 OVC060 M03/M05 A2997 RMK PCPN 0007 $; SLP153 P0007 T10281050,M
SLE,1996-02-04 05:00,27.00,23.00,84.80,130.00,4.00,0.03,29.98,1015.30,7.00,M,SCT,OVC,   ,   ,4300.00,7000.00,M,M,-FZRA,M,M,M,M,M,M,21.53,KSLE 040500Z 13004KT 7SM -FZRA SCT043 OVC070 M03/M05 A2998 RMK PCPN 0003 $; SLP153 P0003 T10281050,M
SLE,1996-02-04 05:35,M,M,M,360.00,4.00,M,30.00,1016.10,7.00,M,SCT,BKN,OVC,   ,1200.00,1800.00,6000.00,M,M,M,M,M,M,M,M,M,KSLE 040535Z 36004KT 7SM SCT012 BKN018 OVC060 A3000 RMK ZRE24 PCPN 0000 PRJMP 5/0511/0520 $; SLP161,M
SLE,1996-02-04 06:00,27.00,24.00,88.73,360.00,4.00,M,30.00,1016.00,7.00,M,SCT,BKN,   ,   ,1800.00,7000.00,M,M,M,M,M,M,M,M,M,21.53,KSLE 040600Z 36004KT 7SM SCT018 BKN070 M03/M04 A3000 RMK 6012/ 10028 20017 ZRE24 PCPN 0000 PRJMP 5/0511/0520 $; SLP160 60014 T10281044 55030,M
SLE,1996-02-04 07:00,28.00,24.00,84.87,50.00,4.00,0.01,30.01,1016.40,4.00,M,SCT,OVC,   ,   ,2800.00,4400.00,M,M,-FZRA FG,M,M,M,M,M,M,22.80,KSLE 040700Z 05004KT 4SM -FZRA FG SCT028 OVC044 M02/M04 A3001 RMK ZRB44 PCPN 0001 $; SLP164 P0001 T10221044,M
SLE,1996-02-04 07:05,M,M,M,40.00,3.00,M,30.01,1016.60,5.00,M,SCT,BKN,OVC,   ,600.00,4000.00,4800.00,M,-FZRA FG,M,M,M,M,M,M,M,KSLE 040705Z 04003KT 5SM -FZRA FG SCT006 BKN040 OVC048 A3001 RMK PCPN 0000 $; SLP166,M
SLE,1996-02-04 07:15,M,M,M,0.00,0.00,M,30.02,1016.80,7.00,M,BKN,BKN,OVC,   ,800.00,3700.00,4800.00,M,M,M,M,M,M,M,M,M,KSLE 040715Z 00000KT 7SM BKN008 BKN037 OVC048 A3002 RMK BKN V SCT ZRE14 PCPN 0000 $; SLP168,M
SLE,1996-02-04 08:00,28.00,25.00,88.12,30.00,4.00,M,30.03,1017.10,4.00,M,BKN,OVC,   ,   ,600.00,3300.00,M,M,-FZRA FG,M,M,M,M,M,M,22.80,KSLE 040800Z 03004KT 4SM -FZRA FG BKN006 OVC033 M02/M04 A3003 RMK BKN V SCT ZRE14B43 PCPN 0000 $; SLP171 T10221039,M
SLE,1996-02-04 08:13,M,M,M,360.00,5.00,M,30.03,1017.10,7.00,M,BKN,OVC,   ,   ,600.00,3300.00,M,M,-FZRA,M,M,M,M,M,M,M,KSLE 040813Z 36005KT 7SM -FZRA BKN006 OVC033 A3003 RMK PCPN 0000 $; SLP171,M
SLE,1996-02-04 08:27,M,M,M,20.00,4.00,M,30.03,1017.20,3.00,M,SCT,SCT,OVC,   ,600.00,1600.00,3300.00,M,-FZRA FG,M,M,M,M,M,M,M,KSLE 040827Z 02004KT 3SM -FZRA FG SCT006 SCT016 OVC033 A3003 RMK PCPN 0001 $; SLP172,M
SLE,1996-02-04 09:00,28.00,25.00,88.12,360.00,4.00,0.01,30.02,1016.90,4.00,M,SCT,BKN,OVC,   ,600.00,3500.00,6000.00,M,-FZRA FG,M,M,M,M,M,M,22.80,KSLE 040900Z 36004KT 4SM -FZRA FG SCT006 BKN035 OVC060 M02/M04 A3002 RMK PCPN VRY LGT 6002/ PCPN 0001 $; SLP169 P0001 T10221039 55000,M
SLE,1996-02-04 09:10,M,M,M,360.00,6.00,M,30.02,1016.90,4.00,M,BKN,OVC,   ,   ,600.00,3300.00,M,M,-FZRA FG,M,M,M,M,M,M,M,KSLE 040910Z 36006KT 4SM -FZRA FG BKN006 OVC033 A3002 RMK PCPN VRY LGT OVC V BKN PCPN 0000 $; SLP169,M
SLE,1996-02-04 10:00,28.00,25.00,88.12,10.00,4.00,M,30.02,1016.90,5.00,M,BKN,OVC,   ,   ,600.00,3100.00,M,M,FG,M,M,M,M,M,M,22.80,KSLE 041000Z 01004KT 5SM FG BKN006 OVC031 M02/M04 A3002 RMK CIG 5V8 ZRE38 PCPN 0000 $; SLP169 T10221039,M
SLE,1996-02-04 11:00,28.00,26.00,92.16,350.00,5.00,M,30.01,1016.70,4.00,M,BKN,OVC,   ,   ,400.00,1700.00,M,M,FG,M,M,M,M,M,M,21.69,KSLE 041100Z 35005KT 4SM FG BKN004 OVC017 M02/M03 A3001 RMK CIG 3V8 $; SLP167 T10221033,M
SLE,1996-02-04 11:31,M,M,M,360.00,5.00,M,30.01,1016.60,3.00,M,OVC,   ,   ,   ,600.00,M,M,M,-FZRA FG,M,M,M,M,M,M,M,KSLE 041131Z 36005KT 3SM -FZRA FG OVC006 A3001 RMK PCPN VRY LGT CIG 3V8 ZRB31 PCPN 0000 $; SLP166,M
SLE,1996-02-04 12:00,28.00,26.00,92.16,360.00,4.00,M,30.01,1016.50,3.00,M,BKN,OVC,   ,   ,400.00,800.00,M,M,-FZRA FG,M,M,M,M,M,M,22.80,KSLE 041200Z 36004KT 3SM -FZRA FG BKN004 OVC008 M02/M03 A3001 RMK PCPN VRY LGT 6002/ 70015 10028 20027 OVC V BKN ZRB31 PCPN 0000 $; SLP165 60004 70016 T10221033 55080,M
SLE,1996-02-04 13:00,27.00,25.00,92.12,10.00,3.00,M,30.02,1016.90,7.00,M,BKN,BKN,OVC,   ,400.00,1200.00,1800.00,M,M,M,M,M,M,M,M,22.93,KSLE 041300Z 01003KT 7SM BKN004 BKN012 OVC018 M03/M04 A3002 RMK CIG 3V7 ZRE39 PCPN 0000 $; SLP169 T10281039,M
SLE,1996-02-04 14:00,28.00,25.00,88.12,40.00,3.00,M,30.02,1016.70,5.00,M,BKN,BKN,OVC,   ,400.00,800.00,3000.00,M,FG,M,M,M,M,M,M,24.16,KSLE 041400Z 04003KT 5SM FG BKN004 BKN008 OVC030 M02/M04 A3002 RMK $; SLP167 T10221039,M
SLE,1996-02-04 15:00,28.00,25.00,88.12,360.00,3.00,M,30.01,1016.50,7.00,M,BKN,BKN,OVC,   ,600.00,3900.00,4700.00,M,M,M,M,M,M,M,M,24.16,KSLE 041500Z 36003KT 7SM BKN006 BKN039 OVC047 M02/M04 A3001 RMK 6000/ BKN V SCT $; SLP165 T10221039 55080,M
SLE,1996-02-04 15:05,M,M,M,360.00,5.00,M,30.01,1016.50,10.00,M,SCT,OVC,   ,   ,600.00,4500.00,M,M,M,M,M,M,M,M,M,M,KSLE 041505Z 36005KT 10SM SCT006 OVC045 A3001 RMK $; SLP165,M
SLE,1996-02-04 15:34,M,M,M,360.00,5.00,M,30.03,1017.20,5.00,M,BKN,OVC,   ,   ,600.00,4300.00,M,M,FG,M,M,M,M,M,M,M,KSLE 041534Z 36005KT 5SM FG BKN006 OVC043 A3003 RMK $; SLP172,M
SLE,1996-02-04 16:00,28.00,25.00,88.12,20.00,5.00,M,30.03,1017.30,5.00,M,OVC,   ,   ,   ,600.00,M,M,M,FG,M,M,M,M,M,M,21.69,KSLE 041600Z 02005KT 5SM FG OVC006 M02/M04 A3003 RMK $; SLP173 T10221039,M
SLE,1996-02-04 16:23,M,M,M,30.00,4.00,M,30.02,1017.00,5.00,M,SCT,OVC,   ,   ,600.00,4100.00,M,M,FG,M,M,M,M,M,M,M,KSLE 041623Z 03004KT 5SM FG SCT006 OVC041 A3002 RMK $; SLP170,M
SLE,1996-02-04 16:45,27.86,25.00,88.77,20.00,3.00,M,30.04,1017.30,5.00,M,BKN,BKN,OVC,   ,600.00,1400.00,3900.00,M,FG,M,M,M,M,M,M,23.96,KSLE 041645Z 02003KT 5SM FG BKN006 BKN014 OVC039 M02/M04 A3004 RMK BKN V SCT $; SLP173 T10231039,M
SLE,1996-02-04 17:00,28.00,25.00,88.12,30.00,5.00,M,30.02,1017.00,5.00,M,SCT,BKN,OVC,   ,600.00,1400.00,3900.00,M,FG,M,M,M,M,M,M,21.69,KSLE 041700Z 03005KT 5SM FG SCT006 BKN014 OVC039 M02/M04 A3002 RMK $; SLP170 T10221039,M
SLE,1996-02-04 17:16,M,M,M,360.00,4.00,M,30.02,1016.80,5.00,M,SCT,SCT,OVC,   ,600.00,1400.00,3900.00,M,FG,M,M,M,M,M,M,M,KSLE 041716Z 36004KT 5SM FG SCT006 SCT014 OVC039 A3002 RMK $; SLP168,M
SLE,1996-02-04 17:38,M,M,M,350.00,4.00,M,30.01,1016.70,5.00,M,SCT,BKN,OVC,   ,600.00,1100.00,4700.00,M,FG,M,M,M,M,M,M,M,KSLE 041738Z 35004KT 5SM FG SCT006 BKN011 OVC047 A3001 RMK OVC V BKN $; SLP167,M
SLE,1996-02-04 18:00,30.00,27.00,88.22,350.00,5.00,M,30.02,1016.60,7.00,M,SCT,BKN,OVC,   ,600.00,1100.00,5500.00,M,FG,M,M,M,M,M,M,24.04,KSLE 041800Z 35005KT 7SM FG SCT006 BKN011 OVC055 M01/M03 A3002 RMK 6000/ 10029 20022 $; SLP166 60001 T10111028 55000,M
SLE,1996-02-04 18:06,M,M,M,360.00,5.00,M,30.01,1016.70,7.00,M,BKN,BKN,BKN,   ,600.00,1100.00,5000.00,M,FG,M,M,M,M,M,M,M,KSLE 041806Z 36005KT 7SM FG BKN006 BKN011 BKN050 A3001 RMK BKN V SCT $; SLP167,M
SLE,1996-02-04 19:00,30.00,28.00,92.23,360.00,6.00,M,30.02,1016.80,5.00,M,OVC,   ,   ,   ,600.00,M,M,M,FG,M,M,M,M,M,M,23.15,KSLE 041900Z 36006KT 5SM FG OVC006 M01/M02 A3002 RMK $; SLP168 T10111022,M
SLE,1996-02-04 20:00,31.00,28.00,88.92,60.00,4.00,M,30.00,1016.10,7.00,M,OVC,   ,   ,   ,800.00,M,M,M,FG,M,M,M,M,M,M,26.16,KSLE 042000Z 06004KT 7SM FG OVC008 M01/M02 A3000 RMK $; SLP161 T10061022,M
SLE,1996-02-04 20:38,M,M,M,0.00,0.00,M,30.01,1016.20,7.00,M,SCT,BKN,OVC,   ,800.00,7000.00,9000.00,M,M,M,M,M,M,M,M,M,KSLE 042038Z 00000KT 7SM SCT008 BKN070 OVC090 A3001 RMK $; SLP162,M
SLE,1996-02-04 21:00,32.00,28.00,85.12,40.00,4.00,M,29.99,1015.60,7.00,M,SCT,BKN,OVC,   ,800.00,6500.00,8000.00,M,M,M,M,M,M,M,M,27.42,KSLE 042100Z 04004KT 7SM SCT008 BKN065 OVC080 00/M02 A2999 RMK $; SLP156 T00001022 55080,M
SLE,1996-02-04 21:16,M,M,M,30.00,3.00,M,29.98,1015.40,7.00,M,BKN,OVC,   ,   ,800.00,6000.00,M,M,M,M,M,M,M,M,M,M,KSLE 042116Z 03003KT 7SM BKN008 OVC060 A2998 RMK $; SLP154,M
SLE,1996-02-04 22:00,33.00,30.00,88.37,20.00,3.00,M,29.98,1015.30,7.00,M,SCT,OVC,   ,   ,800.00,6000.00,M,M,M,M,M,M,M,M,M,29.92,KSLE 042200Z 02003KT 7SM SCT008 OVC060 01/M01 A2998 RMK $; SLP153 T00061011,M
SLE,1996-02-04 22:39,M,M,M,30.00,3.00,M,29.96,1014.80,7.00,M,SCT,OVC,   ,   ,800.00,5000.00,M,M,M,M,M,M,M,M,M,M,KSLE 042239Z 03003KT 7SM SCT008 OVC050 A2996 RMK $; SLP148,M
SLE,1996-02-04 23:00,34.00,30.00,85.24,40.00,4.00,M,29.96,1014.70,5.00,M,SCT,OVC,   ,   ,800.00,5500.00,M,M,FG,M,M,M,M,M,M,29.73,KSLE 042300Z 04004KT 5SM FG SCT008 OVC055 01/M01 A2996 RMK $; SLP147 T00111011,M
SLE,1996-02-05 00:00,34.00,30.00,85.24,360.00,4.00,M,29.93,1013.70,7.00,M,SCT,BKN,   ,   ,800.00,6000.00,M,M,M,M,M,M,M,M,M,29.73,KSLE 050000Z 36004KT 7SM SCT008 BKN060 01/M01 A2993 RMK 10035 20027 PRESFR $; SLP137 60021 T00111011 55080,M
SLE,1996-02-05 00:36,M,M,M,10.00,6.00,M,29.92,1013.20,7.00,M,BKN,OVC,   ,   ,800.00,6000.00,M,M,M,M,M,M,M,M,M,M,KSLE 050036Z 01006KT 7SM BKN008 OVC060 A2992 RMK $; SLP132,M
SLE,1996-02-05 01:00,34.00,31.00,88.42,360.00,6.00,M,29.92,1013.20,7.00,M,SCT,OVC,   ,   ,800.00,7000.00,M,M,M,M,M,M,M,M,M,27.91,KSLE 050100Z 36006KT 7SM SCT008 OVC070 01/M01 A2992 RMK $; SLP132 T00111006,M
SLE,1996-02-05 02:00,33.00,31.00,91.66,20.00,3.00,M,29.90,1012.50,7.00,M,SCT,SCT,   ,   ,900.00,8000.00,M,M,M,M,M,M,M,M,M,29.92,KSLE 050200Z 02003KT 7SM SCT009 SCT080 01/M01 A2990 RMK $; SLP125 T00061006,M
SLE,1996-02-05 03:00,32.00,29.00,88.32,360.00,3.00,M,29.87,1011.80,7.00,M,CLR,   ,   ,   ,M,M,M,M,M,M,M,M,M,M,M,28.69,KSLE 050300Z 36003KT 7SM CLR/// 00/M02 A2987 RMK CLR BLO 58020 $; SLP118 T00001017 51020,M
SLE,1996-02-05 04:00,32.00,26.00,78.45,350.00,5.00,M,29.85,1010.90,10.00,M,CLR,   ,   ,   ,M,M,M,M,M,M,M,M,M,M,M,26.40,KSLE 050400Z 35005KT 10SM CLR/// 00/M03 A2985 RMK CLR BLO $; SLP109 T00001033 51020,M
SLE,1996-02-05 05:00,31.00,28.00,88.92,320.00,4.00,M,29.82,1010.10,10.00,M,CLR,   ,   ,   ,M,M,M,M,M,M,M,M,M,M,M,26.16,KSLE 050500Z 32004KT 10SM CLR/// M01/M02 A2982 RMK CLR BLO $; SLP101 T10061022 51020,M
SLE,1996-02-05 06:00,32.00,29.00,88.32,0.00,0.00,M,29.84,1010.80,7.00,M,BKN,OVC,   ,   ,7000.00,8500.00,M,M,-RA,M,M,M,M,M,M,32.00,KSLE 050600Z 00000KT 7SM -RA BKN070 OVC085 00/M02 A2984 RMK 6000/ 10035 20027 RB53E54PB54E56RB56 PCPN 0000 $; SLP108 60009 T00001017 55050,M
SLE,1996-02-05 07:00,32.00,30.00,92.29,0.00,0.00,0.02,29.83,1010.30,7.00,M,BKN,OVC,   ,   ,7000.00,9000.00,M,M,-RA,M,M,M,M,M,M,32.00,KSLE 050700Z 00000KT 7SM -RA BKN070 OVC090 00/M01 A2983 RMK AO2A M70 BKN OVC 7R- 103/32/30/0000/983/ PCPN 0002 PRESFR $; SLP103 P0002 T00001011,M
SLE,1996-02-05 08:00,33.00,31.00,91.66,120.00,6.00,0.06,29.90,1012.70,4.00,M,BKN,BKN,OVC,   ,4400.00,5000.00,6500.00,M,RA FG,M,M,M,M,M,M,26.83,KSLE 050800Z 12006KT 4SM RA FG BKN044 BKN050 OVC065 01/M01 A2990 RMK RB01 PCPN 0006 PRESRR $; SLP127 P0006 T00061006,M
SLE,1996-02-05 08:30,33.00,31.00,92.32,140.00,7.00,M,29.92,1013.20,7.00,M,SCT,SCT,   ,   ,600.00,7000.00,M,M,M,M,M,M,M,M,M,25.88,KSLE 050830Z 14007KT 7SM SCT006 SCT070 01/M01 A2992 RMK RE13 PCPN 0000 PRESRR $; SLP132 T00051006,M
SLE,1996-02-05 09:00,32.00,30.00,92.29,140.00,6.00,M,29.92,1013.30,5.00,M,SCT,   ,   ,   ,600.00,M,M,M,FG,M,M,M,M,M,M,25.53,KSLE 050900Z 14006KT 5SM FG SCT006 00/M01 A2992 RMK 6008/ RE13 PCPN 0000 PRESRR $; SLP133 T00001011 55030,M
SLE,1996-02-05 10:00,33.00,30.00,88.37,160.00,3.00,M,29.93,1013.50,7.00,M,SCT,BKN,   ,   ,4400.00,6000.00,M,M,M,M,M,M,M,M,M,29.92,KSLE 051000Z 16003KT 7SM SCT044 BKN060 01/M01 A2993 RMK BKN V SCT $; SLP135 T00061011,M
SLE,1996-02-05 11:00,32.00,31.00,95.73,80.00,4.00,M,29.93,1013.80,3.00,M,OVC,   ,   ,   ,7000.00,M,M,M,FG,M,M,M,M,M,M,27.42,KSLE 051100Z 08004KT 3SM FG OVC070 00/M01 A2993 RMK $; SLP138 T00001006,M
SLE,1996-02-05 12:00,33.00,31.00,91.66,0.00,0.00,M,29.94,1014.00,4.00,M,SCT,BKN,OVC,   ,1000.00,1500.00,6000.00,M,FG,M,M,M,M,M,M,33.08,KSLE 051200Z 00000KT 4SM FG SCT010 BKN015 OVC060 01/M01 A2994 RMK 6008/ 70008 10035 20031 $; SLP140 60008 70008 T00061006 55010,M
SLE,1996-02-05 13:00,32.00,31.00,95.73,0.00,0.00,M,29.93,1013.70,5.00,M,SCT,OVC,   ,   ,1000.00,6000.00,M,M,FG,M,M,M,M,M,M,32.00,KSLE 051300Z 00000KT 5SM FG SCT010 OVC060 00/M01 A//// RMK SLP137 T00001006,M
SLE,1996-02-05 13:02,M,M,M,0.00,0.00,M,29.93,1013.80,5.00,M,BKN,OVC,   ,   ,800.00,6000.00,M,M,FG,M,M,M,M,M,M,M,KSLE 051302Z 00000KT 5SM FG BKN008 OVC060 A2993 RMK $; SLP138,M
SLE,1996-02-05 13:37,M,M,M,0.00,0.00,M,29.91,1013.10,4.00,M,SCT,OVC,   ,   ,800.00,6000.00,M,M,FG,M,M,M,M,M,M,M,KSLE 051337Z 00000KT 4SM FG SCT008 OVC060 A2991 RMK $; SLP131,M
SLE,1996-02-05 14:00,32.00,31.00,95.73,0.00,0.00,M,29.92,1013.20,4.00,M,BKN,BKN,OVC,   ,7000.00,8500.00,11000.00,M,-RA FG,M,M,M,M,M,M,32.00,KSLE 051400Z 00000KT 4SM -RA FG BKN070 BKN085 OVC110 00/M01 A//// RMK R-F; SLP132 T00001006,M
SLE,1996-02-05 14:07,M,M,M,0.00,0.00,M,29.92,1013.40,4.00,M,SCT,BKN,OVC,   ,800.00,6000.00,11000.00,M,-RA FG,M,M,M,M,M,M,M,KSLE 051407Z 00000KT 4SM -RA FG SCT008 BKN060 OVC110 A2992 RMK BKN V SCT PCPN 0000 $; SLP134,M
SLE,1996-02-05 15:00,32.00,31.00,95.73,290.00,4.00,0.03,29.94,1013.90,3.00,M,SCT,BKN,OVC,   ,4500.00,6000.00,7000.00,M,-RA FG,M,M,M,M,M,M,27.42,KSLE 051500Z 29004KT 3SM -RA FG SCT045 BKN060 OVC070 00/M01 A2994 RMK 6003/ RE10B40 PCPN 0003 $; SLP139 P0003 T00001006 55050,M
SLE,1996-02-05 15:03,M,M,M,280.00,5.00,M,29.94,1013.90,2.00,M,SCT,SCT,OVC,   ,3600.00,4600.00,6000.00,M,-RA FG,M,M,M,M,M,M,M,KSLE 051503Z 28005KT 2SM -RA FG SCT036 SCT046 OVC060 A2994 RMK PCPN 0003 PRESRR $; SLP139,M
SLE,1996-02-05 15:16,M,M,M,0.00,0.00,M,29.93,1013.50,2.50,M,SCT,BKN,OVC,   ,700.00,4700.00,5000.00,M,-RA FG,M,M,M,M,M,M,M,KSLE 051516Z 00000KT 21/2SM -RA FG SCT007 BKN047 OVC050 A2993 RMK PCPN 0005 PRESRR $; SLP135,M
SLE,1996-02-05 16:00,34.00,33.00,96.46,150.00,7.00,0.10,29.93,1013.60,2.00,M,SCT,BKN,OVC,   ,3800.00,4600.00,6000.00,M,-RA FG,M,M,M,M,M,M,27.19,KSLE 051600Z 15007KT 2SM -RA FG SCT038 BKN046 OVC060 01/01 A//// RMK SLP136 P0010 T00110006,M
SLE,1996-02-05 17:00,40.00,39.00,96.55,160.00,9.00,0.06,29.93,1013.80,2.50,M,SCT,BKN,OVC,   ,3600.00,4200.00,5000.00,M,-RA FG,M,M,M,M,M,M,33.36,KSLE 051700Z 16009KT 21/2SM -RA FG SCT036 BKN042 OVC050 04/04 A2993 RMK PCPN 0006 $; SLP138 P0006 T00440039,M
SLE,1996-02-05 17:48,M,M,M,170.00,18.00,M,29.94,1014.00,4.00,M,BKN,BKN,OVC,   ,3700.00,4700.00,5000.00,M,-RA FG,M,M,M,M,M,M,M,KSLE 051748Z 17018KT 4SM -RA FG BKN037 BKN047 OVC050 A2994 RMK BKN V OVC PCPN 0009 $; SLP140,M
SLE,1996-02-05 18:00,48.00,46.00,92.81,180.00,19.00,0.11,29.94,1014.00,3.00,24.00,SCT,OVC,   ,   ,2900.00,4400.00,M,M,-RA FG,M,M,M,M,M,M,40.62,KSLE 051800Z 18019G24KT 3SM -RA FG SCT029 OVC044 09/08 A2994 RMK 6029/ 10048 20029 OVC V BKN VSBY 2V5 PCPN 0011 $; SLP140 P0011 60005 T00890078 55030,M
SLE,1996-02-05 18:03,M,M,M,170.00,18.00,M,29.94,1013.90,2.50,24.00,SCT,BKN,OVC,   ,2900.00,3900.00,4700.00,M,-RA FG,M,M,M,M,M,M,M,KSLE 051803Z 17018G24KT 21/2SM -RA FG SCT029 BKN039 OVC047 A2994 RMK PCPN 0001 $; SLP139,M
SLE,1996-02-05 18:11,M,M,M,170.00,18.00,M,29.93,1013.70,4.00,24.00,SCT,BKN,OVC,   ,2400.00,3300.00,5000.00,M,-RA FG,M,M,M,M,M,M,M,KSLE 051811Z 17018G24KT 4SM -RA FG SCT024 BKN033 OVC050 A2993 RMK BKN V SCT PCPN 0002 $; SLP137,M
SLE,1996-02-05 19:00,53.00,49.00,85.78,180.00,20.00,0.03,29.93,1013.60,10.00,23.00,SCT,BKN,OVC,   ,3500.00,4300.00,6000.00,M,-RA,M,M,M,27.00,180.00,M,53.06,KSLE 051900Z 18020G23KT 10SM -RA SCT035 BKN043 OVC060 12/09 A2993 RMK BKN V OVC PCPN 0003 PK WND 1827/1836; SLP136 P0003 T01170094,M
SLE,1996-02-05 20:00,53.00,50.00,89.31,180.00,20.00,0.11,29.92,1013.30,5.00,24.00,BKN,BKN,OVC,   ,3100.00,4000.00,4700.00,M,-RA FG,M,M,M,29.00,180.00,M,53.06,KSLE 052000Z 18020G24KT 5SM -RA FG BKN031 BKN040 OVC047 12/10 A2992 RMK PCPN 0011 PK WND 1829/1938 PRESFR; SLP133 P0011 T01170100,M
SLE,1996-02-05 21:00,53.00,50.00,89.31,190.00,17.00,0.05,29.92,1013.30,7.00,25.00,SCT,BKN,OVC,   ,2800.00,3300.00,6000.00,M,-RA,M,M,M,34.00,190.00,M,53.06,KSLE 052100Z 19017G25KT 7SM -RA SCT028 BKN033 OVC060 12/10 A2992 RMK 6019/ PCPN 0005 PK WND 1934/2020; SLP133 P0005 T01170100 55050,M
SLE,1996-02-05 21:22,M,M,M,180.00,15.00,M,29.91,1013.00,5.00,22.00,BKN,BKN,OVC,   ,2500.00,3300.00,4700.00,M,-RA FG,M,M,M,M,M,M,M,KSLE 052122Z 18015G22KT 5SM -RA FG BKN025 BKN033 OVC047 A2991 RMK BKN V SCT PCPN 0006; SLP130,M
SLE,1996-02-05 21:33,M,M,M,170.00,20.00,M,29.92,1013.10,5.00,27.00,SCT,BKN,OVC,   ,1300.00,3400.00,4300.00,M,-RA FG,M,M,M,27.00,180.00,M,M,KSLE 052133Z 17020G27KT 5SM -RA FG SCT013 BKN034 OVC043 A2992 RMK PCPN 0008 PK WND 1827/2125; SLP131,M
SLE,1996-02-05 22:00,54.00,51.00,89.95,170.00,18.00,0.10,29.92,1013.10,10.00,25.00,SCT,BKN,OVC,   ,1300.00,3900.00,4600.00,M,-RA,M,M,M,27.00,180.00,M,53.96,KSLE 052200Z 17018G25KT 10SM -RA SCT013 BKN039 OVC046 12/11 A2992 RMK PCPN 0010 PK WND 1827/2125; SLP131 P0010 T01220106,M
SLE,1996-02-05 22:09,M,M,M,170.00,20.00,M,29.90,1012.40,2.00,27.00,SCT,BKN,OVC,   ,1300.00,2800.00,4300.00,M,-RA FG,M,M,M,27.00,170.00,M,M,KSLE 052209Z 17020G27KT 2SM -RA FG SCT013 BKN028 OVC043 A2990 RMK VSBY 11/2V4 PCPN 0003 PK WND 1727/2202; SLP124,M
SLE,1996-02-05 22:22,M,M,M,170.00,20.00,M,29.89,1012.30,3.00,27.00,SCT,BKN,OVC,   ,1300.00,2700.00,4700.00,M,-RA FG,M,M,M,27.00,170.00,M,M,KSLE 052222Z 17020G27KT 3SM -RA FG SCT013 BKN027 OVC047 A2989 RMK OVC V BKN PCPN 0006 PK WND 1727/2202; SLP123,M
SLE,1996-02-05 22:41,M,M,M,170.00,19.00,M,29.89,1012.30,10.00,26.00,SCT,BKN,BKN,   ,1600.00,3900.00,6000.00,M,-RA,M,M,M,28.00,160.00,M,M,KSLE 052241Z 17019G26KT 10SM -RA SCT016 BKN039 BKN060 A2989 RMK PCPN 0007 PK WND 1628/2226; SLP123,M
SLE,1996-02-05 23:00,55.00,51.00,86.47,180.00,19.00,0.09,29.90,1012.50,5.00,26.00,SCT,BKN,OVC,   ,3900.00,4800.00,5500.00,M,-RA FG,M,M,M,28.00,160.00,M,55.04,KSLE 052300Z 18019G26KT 5SM -RA FG SCT039 BKN048 OVC055 13/11 A2990 RMK OVC V BKN PCPN 0009 PK WND 1628/2226; SLP125 P0009 T01280106,M
SLE,1996-02-06 00:00,55.00,51.00,86.47,180.00,17.00,0.15,29.89,1012.30,5.00,25.00,SCT,OVC,   ,   ,3500.00,4600.00,M,M,-RA FG,M,M,M,30.00,180.00,M,55.04,KSLE 060000Z 18017G25KT 5SM -RA FG SCT035 OVC046 13/11 A2989 RMK 6053/ 10055 20032 PCPN 0015 PK WND 1830/2332; SLP123 P0015 60010 T01280106 55070,M
SLE,1996-02-06 00:33,M,M,M,210.00,12.00,M,29.91,1013.00,2.50,23.00,SCT,BKN,OVC,   ,1400.00,3500.00,4500.00,M,-RA FG,M,M,M,26.00,180.00,M,M,KSLE 060033Z 21012G23KT 21/2SM -RA FG SCT014 BKN035 OVC045 A2991 RMK PCPN 0016 PK WND 1826/0003; SLP130,M
SLE,1996-02-06 00:38,M,M,M,210.00,11.00,M,29.92,1013.10,2.50,23.00,SCT,BKN,OVC,   ,1000.00,1400.00,4400.00,M,-RA FG,M,M,M,26.00,180.00,M,M,KSLE 060038Z 21011G23KT 21/2SM -RA FG SCT010 BKN014 OVC044 A2992 RMK BKN V SCT PCPN 0018 PK WND 1826/0003; SLP131,M
SLE,1996-02-06 01:00,53.00,51.00,92.96,200.00,14.00,0.27,29.93,1013.40,3.00,M,SCT,BKN,OVC,   ,1300.00,1800.00,2800.00,M,-RA FG,M,M,M,26.00,180.00,M,53.06,KSLE 060100Z 20014KT 3SM -RA FG SCT013 BKN018 OVC028 12/11 A2993 RMK BKN V SCT PCPN 0027 PK WND 1826/0003; SLP134 P0027 T01170106,M
SLE,1996-02-06 02:00,53.00,51.00,92.96,180.00,10.00,0.18,29.93,1013.60,7.00,M,SCT,BKN,OVC,   ,2400.00,3300.00,4100.00,M,-RA,M,M,M,M,M,M,53.06,KSLE 060200Z 18010KT 7SM -RA SCT024 BKN033 OVC041 12/11 A2993 RMK OVC V BKN PCPN 0018; SLP136 P0018 T01170106,M
SLE,1996-02-06 03:00,53.00,51.00,92.96,200.00,10.00,0.22,29.96,1014.70,5.00,M,SCT,BKN,OVC,   ,1700.00,3200.00,4100.00,M,-RA FG,M,M,M,M,M,M,53.06,KSLE 060300Z 20010KT 5SM -RA FG SCT017 BKN032 OVC041 12/11 A2996 RMK 6067/ PCPN 0022; SLP147 P0022 T01170106 55030,M
SLE,1996-02-06 04:00,53.00,51.00,92.96,180.00,13.00,0.21,29.98,1015.10,4.00,M,SCT,BKN,OVC,   ,2900.00,3400.00,6000.00,M,-RA FG,M,M,M,M,M,M,53.06,KSLE 060400Z 18013KT 4SM -RA FG SCT029 BKN034 OVC060 12/11 A2998 RMK PCPN 0021 PRESRR; SLP151 P0021 T01170106,M
SLE,1996-02-06 05:00,52.00,50.00,92.93,190.00,12.00,0.03,30.01,1016.40,10.00,M,OVC,   ,   ,   ,5000.00,M,M,M,RA,M,M,M,M,M,M,51.98,KSLE 060500Z 19012KT 10SM RA OVC050 11/10 A3001 RMK PCPN 0003 PRESRR; SLP164 P0003 T01110100,M
SLE,1996-02-06 06:00,51.00,48.00,89.22,170.00,14.00,0.11,29.99,1015.50,10.00,M,OVC,   ,   ,   ,6000.00,M,M,M,-RA,M,M,M,M,M,M,51.08,KSLE 060600Z 17014KT 10SM -RA OVC060 11/09 A2999 RMK 6102/ 10055 20032 PCPN 0011 WSHFT 0520 PRESFR; SLP155 P0011 60005 T01060089 55000,M
SLE,1996-02-06 07:00,49.00,47.00,92.84,90.00,3.00,0.11,30.04,1017.20,7.00,M,SCT,BKN,OVC,   ,2900.00,5000.00,6000.00,M,RA,M,M,M,M,M,M,48.03,KSLE 060700Z 09003KT 7SM RA SCT029 BKN050 OVC060 09/08 A3004 RMK PCPN 0011 PRESRR; SLP172 P0011 T00940083,M
SLE,1996-02-06 08:00,49.00,48.00,96.69,150.00,7.00,0.20,30.04,1017.10,7.00,M,OVC,   ,   ,   ,5000.00,M,M,M,RA,M,M,M,M,M,M,45.40,KSLE 060800Z 15007KT 7SM RA OVC050 09/09 A3004 RMK PCPN 0020; SLP171 P0020 T00940089,M
SLE,1996-02-06 09:00,49.00,48.00,96.69,160.00,8.00,0.12,30.02,1016.80,5.00,M,SCT,OVC,   ,   ,4500.00,5500.00,M,M,RA FG,M,M,M,M,M,M,44.96,KSLE 060900Z 16008KT 5SM RA FG SCT045 OVC055 09/09 A3002 RMK 6042/ PCPN 0012; SLP168 P0012 T00940089 55000,M
SLE,1996-02-06 10:00,49.00,48.00,96.69,140.00,5.00,0.19,30.00,1016.00,5.00,M,BKN,OVC,   ,   ,4000.00,4700.00,M,M,+RA FG,M,M,M,M,M,M,46.49,KSLE 061000Z 14005KT 5SM +RA FG BKN040 OVC047 09/09 A3000 RMK PCPN 0019; SLP160 P0019 T00940089,M
SLE,1996-02-06 10:23,M,M,M,130.00,5.00,M,30.01,1016.20,5.00,M,BKN,BKN,OVC,   ,2300.00,3200.00,4000.00,M,+RA FG,M,M,M,M,M,M,M,KSLE 061023Z 13005KT 5SM +RA FG BKN023 BKN032 OVC040 A3001 RMK BKN V OVC PCPN 0009; SLP162,M
SLE,1996-02-06 10:40,M,M,M,0.00,0.00,M,30.01,1016.30,2.50,M,BKN,BKN,OVC,   ,1400.00,2000.00,2400.00,M,+RA FG,M,M,M,M,M,M,M,KSLE 061040Z 00000KT 21/2SM +RA FG BKN014 BKN020 OVC024 A3001 RMK PCPN 0019; SLP163,M
SLE,1996-02-06 11:00,49.00,48.00,96.69,0.00,0.00,0.25,30.00,1016.10,4.00,M,OVC,   ,   ,   ,1400.00,M,M,M,+RA FG,M,M,M,M,M,M,48.92,KSLE 061100Z 00000KT 4SM +RA FG OVC014 09/09 A3000 RMK PCPN 0025; SLP161 P0025 T00940089,M
SLE,1996-02-06 12:00,48.00,48.00,100.00,130.00,3.00,0.08,29.96,1014.60,10.00,M,BKN,BKN,OVC,   ,1200.00,3300.00,4700.00,M,-RA,M,M,M,M,M,M,47.00,KSLE 061200Z 13003KT 10SM -RA BKN012 BKN033 OVC047 09/09 A2996 RMK 6095/ 70280 10055 20048 PCPN 0008; SLP146 P0008 60021 70280 T00890089 55080,M
SLE,1996-02-06 12:11,M,M,M,190.00,13.00,M,29.96,1014.50,10.00,M,SCT,BKN,OVC,   ,1200.00,3300.00,4800.00,M,-RA,M,M,M,M,M,M,M,KSLE 061211Z 19013KT 10SM -RA SCT012 BKN033 OVC048 A2996 RMK BKN V SCT PCPN 0001; SLP145,M
SLE,1996-02-06 13:00,54.00,51.00,89.95,170.00,16.00,0.05,29.94,1013.80,7.00,21.00,SCT,BKN,OVC,   ,3500.00,5500.00,7500.00,M,-RA,M,M,M,M,M,M,53.96,KSLE 061300Z 17016G21KT 7SM -RA SCT035 BKN055 OVC075 12/11 A2994 RMK OVC V BKN PCPN 0005; SLP138 P0005 T01220106,M
SLE,1996-02-06 14:00,55.00,51.00,86.47,170.00,22.00,0.05,29.91,1012.70,7.00,30.00,BKN,OVC,   ,   ,4800.00,7000.00,M,M,-RA,M,M,M,30.00,170.00,M,55.04,KSLE 061400Z 17022G30KT 7SM -RA BKN048 OVC070 13/11 A2991 RMK OVC V BKN PCPN 0005 PK WND 1730/1337; SLP127 P0005 T01280106,M
SLE,1996-02-06 15:00,55.00,51.00,86.47,170.00,24.00,0.08,29.90,1012.30,5.00,32.00,BKN,BKN,OVC,   ,4000.00,5000.00,7000.00,M,RA FG,M,M,M,32.00,170.00,M,55.04,KSLE 061500Z 17024G32KT 5SM RA FG BKN040 BKN050 OVC070 13/11 A2990 RMK 6018/ PCPN 0008 PK WND 1732/1454; SLP123 P0008 T01280106 55060,M
SLE,1996-02-06 16:00,54.00,51.00,89.95,170.00,24.00,0.12,29.90,1012.50,5.00,32.00,SCT,BKN,OVC,   ,4300.00,6000.00,7000.00,M,RA FG,M,M,M,34.00,170.00,M,53.96,KSLE 061600Z 17024G32KT 5SM RA FG SCT043 BKN060 OVC070 12/11 A2990 RMK PCPN 0012 PK WND 1734/1508; SLP125 P0012 T01220106,M
SLE,1996-02-06 17:00,55.00,51.00,86.47,170.00,24.00,0.08,29.90,1012.50,5.00,31.00,SCT,BKN,OVC,   ,3500.00,4800.00,5500.00,M,RA FG,M,M,M,32.00,170.00,M,55.04,KSLE 061700Z 17024G31KT 5SM RA FG SCT035 BKN048 OVC055 13/11 A2990 RMK PCPN 0008 PK WND 1732/1614; SLP125 P0008 T01280106,M
SLE,1996-02-06 18:00,55.00,52.00,89.40,180.00,21.00,0.07,29.91,1012.90,5.00,32.00,SCT,BKN,OVC,   ,3000.00,3800.00,4700.00,M,RA FG,M,M,M,32.00,170.00,M,55.04,KSLE 061800Z 18021G32KT 5SM RA FG SCT030 BKN038 OVC047 13/11 A2991 RMK 6045/ 10055 20048 BKN V SCT PCPN 0007 PK WND 1732/1700; SLP129 P0007 60005 T01280111 55030,M
SLE,1996-02-06 19:00,56.00,52.00,86.52,170.00,22.00,0.02,29.92,1013.20,10.00,30.00,SCT,SCT,OVC,   ,1400.00,2500.00,5000.00,M,-RA,M,M,M,34.00,170.00,M,55.94,KSLE 061900Z 17022G30KT 10SM -RA SCT014 SCT025 OVC050 13/11 A2992 RMK OVC V BKN PCPN 0002 PK WND 1734/1819; SLP132 P0002 T01330111,M
SLE,1996-02-06 19:25,56.00,52.88,89.44,180.00,20.00,M,29.93,1013.40,3.00,27.00,BKN,OVC,   ,   ,2400.00,3400.00,M,M,-RA FG,M,M,M,32.00,180.00,M,55.94,KSLE 061925Z 18020G27KT 3SM -RA FG BKN024 OVC034 13/12 A2993 RMK PCPN 0002 PK WND 1832/1914; SLP134 T01330116,M
SLE,1996-02-06 19:32,M,M,M,180.00,22.00,M,29.93,1013.40,2.50,32.00,BKN,OVC,   ,   ,2400.00,3400.00,M,M,FG,M,M,M,32.00,180.00,M,M,KSLE 061932Z 18022G32KT 21/2SM FG BKN024 OVC034 A2993 RMK RE28 PCPN 0003 PK WND 1832/1914; SLP134,M
SLE,1996-02-06 20:00,55.00,53.00,93.02,180.00,19.00,0.07,29.92,1013.30,4.00,29.00,SCT,BKN,OVC,   ,1300.00,2400.00,4300.00,M,RA FG,M,M,M,34.00,180.00,M,55.04,KSLE 062000Z 18019G29KT 4SM RA FG SCT013 BKN024 OVC043 13/12 A2992 RMK RE28B52 PCPN 0007 PK WND 1834/1943; SLP133 P0007 T01280117,M
SLE,1996-02-06 21:00,56.00,53.00,90.03,180.00,20.00,0.12,29.92,1013.10,4.00,26.00,SCT,BKN,OVC,   ,1100.00,2900.00,4100.00,M,RA FG,M,M,M,31.00,190.00,M,55.94,KSLE 062100Z 18020G26KT 4SM RA FG SCT011 BKN029 OVC041 13/12 A2992 RMK 6021/ PCPN 0012 PK WND 1931/2023; SLP131 P0012 T01330117 55000,M
SLE,1996-02-06 21:34,M,M,M,180.00,18.00,M,29.93,1013.30,3.00,26.00,BKN,OVC,   ,   ,3100.00,4100.00,M,M,+RA FG,M,M,M,29.00,190.00,M,M,KSLE 062134Z 18018G26KT 3SM +RA FG BKN031 OVC041 A2993 RMK BKN V SCT PCPN 0009 PK WND 1929/2121; SLP133,M
SLE,1996-02-06 22:00,56.00,53.00,90.03,180.00,19.00,0.12,29.91,1012.90,4.00,25.00,BKN,OVC,   ,   ,3400.00,4200.00,M,M,RA FG,M,M,M,29.00,190.00,M,55.94,KSLE 062200Z 18019G25KT 4SM RA FG BKN034 OVC042 13/12 A2991 RMK PCPN 0012 PK WND 1929/2121; SLP129 P0012 T01330117,M
SLE,1996-02-06 23:00,56.00,54.00,93.05,190.00,18.00,0.12,29.92,1013.10,7.00,M,SCT,OVC,   ,   ,1200.00,3600.00,M,M,-RA,M,M,M,26.00,190.00,M,55.94,KSLE 062300Z 19018KT 7SM -RA SCT012 OVC036 13/12 A2992 RMK PCPN 0012 PK WND 1926/2202; SLP131 P0012 T01330122,M
SLE,1996-02-06 23:28,M,M,M,180.00,16.00,M,29.93,1013.60,5.00,25.00,SCT,BKN,OVC,   ,1400.00,2800.00,3700.00,M,RA FG,M,M,M,M,M,M,M,KSLE 062328Z 18016G25KT 5SM RA FG SCT014 BKN028 OVC037 A2993 RMK PCPN 0002; SLP136,M
SLE,1996-02-07 00:00,56.00,54.00,93.05,180.00,17.00,0.06,29.93,1013.70,5.00,M,SCT,BKN,OVC,   ,1000.00,3100.00,3700.00,M,RA FG,M,M,M,M,M,M,55.94,KSLE 070000Z 18017KT 5SM RA FG SCT010 BKN031 OVC037 13/12 A2993 RMK 6051/ 10056 20048 PCPN 0006; SLP137 P0006 60004 T01330122 55030,M
SLE,1996-02-07 01:00,56.00,54.00,93.05,180.00,16.00,0.07,29.93,1013.50,7.00,M,SCT,OVC,   ,   ,3000.00,3600.00,M,M,-RA,M,M,M,M,M,M,55.94,KSLE 070100Z 18016KT 7SM -RA SCT030 OVC036 13/12 A2993 RMK PCPN 0007; SLP135 P0007 T01330122,M
SLE,1996-02-07 02:00,56.00,54.00,93.05,190.00,21.00,0.05,29.92,1013.30,10.00,28.00,SCT,BKN,OVC,   ,3400.00,5500.00,9000.00,M,RA,M,M,M,28.00,180.00,M,55.94,KSLE 070200Z 19021G28KT 10SM RA SCT034 BKN055 OVC090 13/12 A2992 RMK PCPN 0005 PK WND 1828/0155; SLP133 P0005 T01330122,M
SLE,1996-02-07 03:00,56.00,54.00,93.05,180.00,18.00,0.09,29.96,1014.30,4.00,M,SCT,BKN,OVC,   ,1200.00,2500.00,3600.00,M,+RA FG,M,M,M,M,M,M,55.94,KSLE 070300Z 18018KT 4SM +RA FG SCT012 BKN025 OVC036 13/12 A2996 RMK 6021/ PCPN 0009; SLP143 P0009 T01330122 55030,M
SLE,1996-02-07 04:00,56.00,54.00,93.05,190.00,16.00,0.08,29.96,1014.30,7.00,M,SCT,BKN,OVC,   ,2300.00,2900.00,4000.00,M,RA,M,M,M,M,M,M,55.94,KSLE 070400Z 19016KT 7SM RA SCT023 BKN029 OVC040 13/12 A2996 RMK PCPN 0008; SLP143 P0008 T01330122,M
SLE,1996-02-07 05:00,56.00,54.00,93.05,190.00,14.00,0.04,29.96,1014.40,7.00,M,SCT,BKN,OVC,   ,2100.00,2500.00,3700.00,M,-RA,M,M,M,M,M,M,55.94,KSLE 070500Z 19014KT 7SM -RA SCT021 BKN025 OVC037 13/12 A2996 RMK PCPN 0004; SLP144 P0004 T01330122,M
SLE,1996-02-07 06:00,56.00,54.00,93.05,190.00,14.00,0.02,29.95,1014.00,7.00,M,OVC,   ,   ,   ,2500.00,M,M,M,-RA,M,M,M,M,M,M,55.94,KSLE 070600Z 19014KT 7SM -RA OVC025 13/12 A2995 RMK 6035/ 10057 20048 PCPN 0002; SLP140 P0002 60001 T01330122 55080,M
SLE,1996-02-07 06:28,M,M,M,190.00,15.00,M,29.97,1014.70,10.00,21.00,SCT,BKN,OVC,   ,2800.00,3400.00,8000.00,M,-RA,M,M,M,M,M,M,M,KSLE 070628Z 19015G21KT 10SM -RA SCT028 BKN034 OVC080 A2997 RMK BKN V SCT PCPN 0002; SLP147,M
SLE,1996-02-07 07:00,56.00,54.00,93.05,200.00,12.00,0.07,29.98,1015.00,7.00,M,SCT,BKN,OVC,   ,1900.00,3400.00,5500.00,M,RA,M,M,M,M,M,M,55.94,KSLE 070700Z 20012KT 7SM RA SCT019 BKN034 OVC055 13/12 A2998 RMK BKN V SCT PCPN 0007; SLP150 P0007 T01330122,M
SLE,1996-02-07 08:00,56.00,54.00,93.05,190.00,12.00,0.11,29.98,1015.00,7.00,M,SCT,BKN,OVC,   ,1500.00,3100.00,5000.00,M,RA,M,M,M,M,M,M,55.94,KSLE 070800Z 19012KT 7SM RA SCT015 BKN031 OVC050 13/12 A2998 RMK BKN V SCT PCPN 0011; SLP150 P0011 T01330122,M
SLE,1996-02-07 09:00,55.00,53.00,93.02,190.00,10.00,0.09,29.99,1015.40,7.00,M,SCT,BKN,OVC,   ,1500.00,4400.00,5500.00,M,RA,M,M,M,M,M,M,55.04,KSLE 070900Z 19010KT 7SM RA SCT015 BKN044 OVC055 13/12 A2999 RMK 6027/ PCPN 0009; SLP154 P0009 T01280117 55010,M
SLE,1996-02-07 10:00,55.00,53.00,93.02,180.00,10.00,0.05,29.96,1014.50,10.00,M,SCT,OVC,   ,   ,4100.00,5000.00,M,M,-RA,M,M,M,M,M,M,55.04,KSLE 071000Z 18010KT 10SM -RA SCT041 OVC050 13/12 A2996 RMK PCPN 0005; SLP145 P0005 T01280117,M
SLE,1996-02-07 11:00,55.00,53.00,93.02,190.00,8.00,0.03,29.95,1014.10,10.00,M,BKN,OVC,   ,   ,4700.00,5500.00,M,M,-RA,M,M,M,M,M,M,55.04,KSLE 071100Z 19008KT 10SM -RA BKN047 OVC055 13/12 A2995 RMK PCPN 0003; SLP141 P0003 T01280117,M
SLE,1996-02-07 12:00,54.00,52.00,92.99,170.00,7.00,0.08,29.92,1013.10,5.00,M,OVC,   ,   ,   ,3200.00,M,M,M,RA FG,M,M,M,M,M,M,53.96,KSLE 071200Z 17007KT 5SM RA FG OVC032 12/11 A2992 RMK 6043/ 70174 10057 20054 PCPN 0008; SLP131 P0008 60023 70173 T01220111 55080,M
SLE,1996-02-07 12:13,M,M,M,210.00,3.00,M,29.93,1013.40,4.00,M,BKN,OVC,   ,   ,2600.00,3100.00,M,M,+RA FG,M,M,M,M,M,M,M,KSLE 071213Z 21003KT 4SM +RA FG BKN026 OVC031 A2993 RMK BKN V OVC PCPN 0005; SLP134,M
SLE,1996-02-07 12:25,52.88,52.00,96.74,280.00,3.00,M,29.93,1013.40,2.50,M,SCT,OVC,   ,   ,1900.00,2400.00,M,M,+RA FG,M,M,M,M,M,M,52.88,KSLE 071225Z 28003KT 21/2SM +RA FG SCT019 OVC024 12/11 A2993 RMK PCPN 0009; SLP134 T01160111,M
SLE,1996-02-07 13:00,53.00,52.00,96.10,0.00,0.00,0.19,29.93,1013.50,4.00,M,OVC,   ,   ,   ,1600.00,M,M,M,RA FG,M,M,M,M,M,M,53.06,KSLE 071300Z 00000KT 4SM RA FG OVC016 12/11 A2993 RMK VSBY SE-SW 2 PCPN 0019; SLP135 P0019 T01170111,M
SLE,1996-02-07 13:09,M,M,M,20.00,3.00,M,29.93,1013.40,3.00,M,OVC,   ,   ,   ,1200.00,M,M,M,RA FG,M,M,M,M,M,M,M,KSLE 071309Z 02003KT 3SM RA FG OVC012 A2993 RMK PCPN 0005; SLP134,M
SLE,1996-02-07 13:26,M,M,M,350.00,3.00,M,29.94,1013.70,2.50,M,SCT,OVC,   ,   ,600.00,1000.00,M,M,+RA FG,M,M,M,M,M,M,M,KSLE 071326Z 35003KT 21/2SM +RA FG SCT006 OVC010 A2994 RMK PCPN 0011; SLP137,M
SLE,1996-02-07 13:37,M,M,M,320.00,4.00,M,29.94,1013.70,3.00,M,BKN,OVC,   ,   ,800.00,1300.00,M,M,+RA FG,M,M,M,M,M,M,M,KSLE 071337Z 32004KT 3SM +RA FG BKN008 OVC013 A2994 RMK PCPN 0015; SLP137,M
SLE,1996-02-07 14:00,53.00,52.00,96.10,0.00,0.00,0.22,29.94,1013.80,3.00,M,BKN,BKN,OVC,   ,1500.00,1900.00,2900.00,M,RA FG,M,M,M,M,M,M,53.06,KSLE 071400Z 00000KT 3SM RA FG BKN015 BKN019 OVC029 12/11 A2994 RMK BKN V SCT PCPN 0022; SLP138 P0022 T01170111,M
SLE,1996-02-07 14:04,M,M,M,170.00,3.00,M,29.94,1013.80,2.50,M,BKN,OVC,   ,   ,1500.00,2700.00,M,M,RA FG,M,M,M,M,M,M,M,KSLE 071404Z 17003KT 21/2SM RA FG BKN015 OVC027 A2994 RMK BKN V SCT PCPN 0003; SLP138,M
SLE,1996-02-07 14:11,M,M,M,0.00,0.00,M,29.94,1013.80,4.00,M,SCT,BKN,OVC,   ,1700.00,2700.00,3400.00,M,RA FG,M,M,M,M,M,M,M,KSLE 071411Z 00000KT 4SM RA FG SCT017 BKN027 OVC034 A2994 RMK PCPN 0005; SLP138,M
SLE,1996-02-07 15:00,53.00,52.00,96.10,0.00,0.00,0.15,29.93,1013.50,2.50,M,SCT,OVC,   ,   ,1600.00,2400.00,M,M,RA FG,M,M,M,M,M,M,53.06,KSLE 071500Z 00000KT 21/2SM RA FG SCT016 OVC024 12/11 A2993 RMK 6055/ PCPN 0015; SLP135 P0015 T01170111 55000,M
SLE,1996-02-07 15:07,M,M,M,0.00,0.00,M,29.93,1013.40,3.00,M,SCT,BKN,OVC,   ,1300.00,2100.00,2600.00,M,RA FG,M,M,M,M,M,M,M,KSLE 071507Z 00000KT 3SM RA FG SCT013 BKN021 OVC026 A2993 RMK PCPN 0002; SLP134,M
SLE,1996-02-07 15:33,M,M,M,140.00,3.00,M,29.94,1013.70,2.50,M,BKN,OVC,   ,   ,1900.00,2300.00,M,M,+RA FG,M,M,M,M,M,M,M,KSLE 071533Z 14003KT 21/2SM +RA FG BKN019 OVC023 A2994 RMK PCPN 0009; SLP137,M
SLE,1996-02-07 16:00,52.00,52.00,100.00,140.00,4.00,0.14,29.94,1013.70,2.00,M,BKN,OVC,   ,   ,1900.00,2600.00,M,M,RA FG,M,M,M,M,M,M,51.98,KSLE 071600Z 14004KT 2SM RA FG BKN019 OVC026 11/11 A2994 RMK BKN V OVC PCPN 0014; SLP137 P0014 T01110111,M
SLE,1996-02-07 17:00,52.00,52.00,100.00,0.00,0.00,0.21,29.91,1012.80,2.50,M,OVC,   ,   ,   ,1700.00,M,M,M,RA FG,M,M,M,M,M,M,51.98,KSLE 071700Z 00000KT 21/2SM RA FG OVC017 11/11 A2991 RMK PCPN 0021; SLP128 P0021 T01110111,M
SLE,1996-02-07 17:09,M,M,M,0.00,0.00,M,29.91,1012.80,1.75,M,SCT,OVC,   ,   ,300.00,1700.00,M,M,RA FG,M,M,M,M,M,M,M,KSLE 071709Z 00000KT 13/4SM RA FG SCT003 OVC017 A2991 RMK PCPN 0002; SLP128,M
SLE,1996-02-07 17:18,M,M,M,0.00,0.00,M,29.91,1012.60,1.00,M,SCT,BKN,OVC,   ,300.00,1200.00,1900.00,M,RA FG,M,M,M,M,M,M,M,KSLE 071718Z 00000KT 1SM RA FG SCT003 BKN012 OVC019 A2991 RMK PCPN 0004; SLP126,M
SLE,1996-02-07 17:34,M,M,M,0.00,0.00,M,29.90,1012.50,2.00,M,SCT,BKN,OVC,   ,300.00,1100.00,2400.00,M,-RA FG,M,M,M,M,M,M,M,KSLE 071734Z 00000KT 2SM -RA FG SCT003 BKN011 OVC024 A2990 RMK BKN V SCT PCPN 0006; SLP125,M
SLE,1996-02-07 18:00,53.00,52.00,96.10,200.00,5.00,0.07,29.90,1012.50,2.00,M,SCT,OVC,   ,   ,900.00,2000.00,M,M,-RA FG,M,M,M,M,M,M,53.06,KSLE 071800Z 20005KT 2SM -RA FG SCT009 OVC020 12/11 A2990 RMK 6098/ 10056 20052 OVC V BKN PCPN 0007; SLP125 P0007 60010 T01170111 55080,M
SLE,1996-02-07 19:00,57.00,55.00,93.08,190.00,10.00,0.01,29.89,1012.20,7.00,M,OVC,   ,   ,   ,2800.00,M,M,M,M,M,M,M,M,M,M,57.02,KSLE 071900Z 19010KT 7SM OVC028 14/13 A//// RMK SLP122 P0001 T01390128,M
SLE,1996-02-07 20:00,58.00,56.00,93.10,180.00,11.00,0.02,29.87,1011.40,4.00,M,SCT,BKN,OVC,   ,2700.00,3400.00,4200.00,M,-RA FG,M,M,M,M,M,M,57.92,KSLE 072000Z 18011KT 4SM -RA FG SCT027 BKN034 OVC042 14/13 A2987 RMK BKN V OVC RB1857 PCPN 0002; SLP114 P0002 T01440133,M
SLE,1996-02-07 20:05,M,M,M,190.00,13.00,M,29.87,1011.50,1.25,M,BKN,OVC,   ,   ,2800.00,3300.00,M,M,RA FG,M,M,M,M,M,M,M,KSLE 072005Z 19013KT 11/4SM RA FG BKN028 OVC033 A2987 RMK OVC V BKN PCPN 0002; SLP115,M
SLE,1996-02-07 20:29,M,M,M,180.00,9.00,M,29.86,1011.10,2.50,M,BKN,BKN,OVC,   ,2200.00,2900.00,4000.00,M,+RA FG,M,M,M,M,M,M,M,KSLE 072029Z 18009KT 21/2SM +RA FG BKN022 BKN029 OVC040 A2986 RMK OVC V BKN PCPN 0014; SLP111,M
SLE,1996-02-07 21:00,58.00,56.00,93.10,170.00,14.00,0.19,29.84,1010.60,4.00,M,SCT,BKN,OVC,   ,900.00,2300.00,2900.00,M,+RA FG,M,M,M,M,M,M,57.92,KSLE 072100Z 17014KT 4SM +RA FG SCT009 BKN023 OVC029 14/13 A2984 RMK 6022/ BKN V OVC PCPN 0019; SLP106 P0019 T01440133 55080,M
SLE,1996-02-07 21:03,M,M,M,180.00,14.00,M,29.84,1010.50,2.50,M,SCT,BKN,OVC,   ,900.00,2100.00,2700.00,M,RA FG,M,M,M,M,M,M,M,KSLE 072103Z 18014KT 21/2SM RA FG SCT009 BKN021 OVC027 A2984 RMK PCPN 0003; SLP105,M
SLE,1996-02-07 21:13,M,M,M,180.00,13.00,M,29.84,1010.50,4.00,M,SCT,BKN,OVC,   ,1100.00,1500.00,2700.00,M,+RA FG,M,M,M,M,M,M,M,KSLE 072113Z 18013KT 4SM +RA FG SCT011 BKN015 OVC027 A2984 RMK PCPN 0006; SLP105,M
SLE,1996-02-07 21:29,M,M,M,190.00,12.00,M,29.86,1010.90,1.75,M,BKN,BKN,OVC,   ,1200.00,1900.00,2300.00,M,+RA FG,M,M,M,M,M,M,M,KSLE 072129Z 19012KT 13/4SM +RA FG BKN012 BKN019 OVC023 A2986 RMK BKN V OVC VSBY 11/4V4 PCPN 0017; SLP109,M
SLE,1996-02-07 21:40,M,M,M,200.00,14.00,M,29.86,1010.90,3.00,21.00,SCT,BKN,OVC,   ,900.00,1300.00,3100.00,M,RA FG,M,M,M,M,M,M,M,KSLE 072140Z 20014G21KT 3SM RA FG SCT009 BKN013 OVC031 A2986 RMK BKN V SCT PCPN 0024; SLP109,M
SLE,1996-02-07 22:00,58.00,56.00,93.10,190.00,11.00,0.34,29.86,1011.00,3.00,M,SCT,BKN,OVC,   ,1100.00,1600.00,3800.00,M,RA FG,M,M,M,M,M,M,57.92,KSLE 072200Z 19011KT 3SM RA FG SCT011 BKN016 OVC038 14/13 A2986 RMK PCPN 0034; SLP110 P0034 T01440133,M
SLE,1996-02-07 22:05,M,M,M,190.00,14.00,M,29.86,1011.00,2.50,M,BKN,BKN,OVC,   ,1400.00,2100.00,3800.00,M,RA FG,M,M,M,M,M,M,M,KSLE 072205Z 19014KT 21/2SM RA FG BKN014 BKN021 OVC038 A2986 RMK BKN V SCT VSBY 13/4V5 PCPN 0004; SLP110,M
SLE,1996-02-07 22:14,M,M,M,190.00,11.00,M,29.86,1011.10,2.50,M,SCT,BKN,OVC,   ,1200.00,1700.00,3300.00,M,+RA FG,M,M,M,M,M,M,M,KSLE 072214Z 19011KT 21/2SM +RA FG SCT012 BKN017 OVC033 A2986 RMK BKN V SCT PCPN 0009; SLP111,M
SLE,1996-02-07 23:00,58.00,56.00,93.10,180.00,13.00,0.30,29.86,1011.00,3.00,M,SCT,SCT,OVC,   ,1000.00,1700.00,2300.00,M,+RA FG,M,M,M,M,M,M,57.92,KSLE 072300Z 18013KT 3SM +RA FG SCT010 SCT017 OVC023 14/13 A2986 RMK OVC V BKN PCPN 0030; SLP110 P0030 T01440133,M
SLE,1996-02-07 23:03,M,M,M,180.00,12.00,M,29.85,1010.80,2.00,M,BKN,OVC,   ,   ,2100.00,3000.00,M,M,+RA FG,M,M,M,M,M,M,M,KSLE 072303Z 18012KT 2SM +RA FG BKN021 OVC030 A2985 RMK PCPN 0005; SLP108,M
SLE,1996-02-08 00:00,58.00,56.00,93.10,180.00,15.00,0.15,29.84,1010.40,4.00,M,SCT,BKN,OVC,   ,1500.00,3500.00,4300.00,M,-RA FG,M,M,M,M,M,M,57.92,KSLE 080000Z 18015KT 4SM -RA FG SCT015 BKN035 OVC043 14/13 A2984 RMK 6101/ 10058 20052 PCPN 0015; SLP104 P0015 60000 T01440133 55080,M
SLE,1996-02-08 01:00,59.00,56.00,89.57,170.00,18.00,0.06,29.82,1009.60,10.00,M,SCT,BKN,OVC,   ,2700.00,3700.00,5000.00,M,M,M,M,M,26.00,180.00,M,59.00,KSLE 080100Z 17018KT 10SM SCT027 BKN037 OVC050 15/13 A2982 RMK RE47 PCPN 0006 PK WND 1826/0045; SLP096 P0006 T01500133,M
SLE,1996-02-08 02:00,60.00,55.00,83.41,180.00,19.00,M,29.82,1009.80,10.00,26.00,SCT,BKN,BKN,   ,3400.00,5000.00,8000.00,M,M,M,M,M,29.00,170.00,M,60.08,KSLE 080200Z 18019G26KT 10SM SCT034 BKN050 BKN080 16/13 A2982 RMK BKN V OVC RB0059E33 PCPN 0000 PK WND 1729/0133; SLP098 T01560128,M
SLE,1996-02-08 03:00,60.00,55.00,83.41,180.00,17.00,M,29.83,1010.20,10.00,M,SCT,BKN,OVC,   ,2500.00,3300.00,4700.00,M,-RA,M,M,M,27.00,170.00,M,60.08,KSLE 080300Z 18017KT 10SM -RA SCT025 BKN033 OVC047 16/13 A2983 RMK 6006/ RB37 PCPN 0000 PK WND 1727/0217; SLP102 T01560128 55050,M
SLE,1996-02-08 04:00,60.00,55.00,83.41,180.00,17.00,0.01,29.83,1009.90,10.00,27.00,SCT,OVC,   ,   ,2800.00,3400.00,M,M,M,M,M,M,27.00,180.00,M,60.08,KSLE 080400Z 18017G27KT 10SM SCT028 OVC034 16/13 A2983 RMK RE15 PCPN 0001 PK WND 1827/0322; SLP099 P0001 T01560128,M
SLE,1996-02-08 05:00,61.00,54.00,77.66,180.00,20.00,M,29.81,1009.40,10.00,M,OVC,   ,   ,   ,3800.00,M,M,M,M,M,M,M,M,M,M,60.98,KSLE 080500Z 18020KT 10SM OVC038 16/12 A//// RMK SLP094 T01610122,M
SLE,1996-02-08 06:00,60.00,53.00,77.59,190.00,19.00,M,29.83,1009.90,10.00,M,OVC,   ,   ,   ,4000.00,M,M,M,M,M,M,M,29.00,190.00,M,60.08,KSLE 080600Z 19019KT 10SM OVC040 16/12 A2983 RMK 6007/ 10061 20052 RB38E49 PCPN 0000 PK WND 1929/0515; SLP099 60004 T01560117 55050,M
SLE,1996-02-08 07:00,61.00,52.00,72.22,180.00,18.00,M,29.80,1008.90,10.00,25.00,OVC,   ,   ,   ,4500.00,M,M,M,M,M,M,M,28.00,190.00,M,60.98,KSLE 080700Z 18018G25KT 10SM OVC045 16/11 A2980 RMK RB08E34 PCPN 0000 PK WND 1928/0630; SLP089 T01610111,M
SLE,1996-02-08 08:00,61.00,51.00,69.86,170.00,16.00,M,29.78,1008.30,10.00,26.00,BKN,BKN,OVC,   ,4900.00,6000.00,7000.00,M,-RA,M,M,M,26.00,180.00,M,60.98,KSLE 080800Z 17016G26KT 10SM -RA BKN049 BKN060 OVC070 16/11 A2978 RMK BKN V OVC RB47 PCPN 0000 PK WND 1826/0722; SLP083 T01610106,M
SLE,1996-02-08 09:00,59.00,52.00,77.49,170.00,17.00,0.02,29.75,1007.30,10.00,M,BKN,OVC,   ,   ,7000.00,10000.00,M,M,-RA,M,M,M,M,M,M,59.00,KSLE 080900Z 17017KT 10SM -RA BKN070 OVC100 15/11 A//// RMK SLP073 P0002 T01500111,M
SLE,1996-02-08 10:00,56.00,53.00,90.03,180.00,17.00,0.06,29.75,1007.40,7.00,M,BKN,OVC,   ,   ,4100.00,6000.00,M,M,-RA,M,M,M,M,M,M,55.94,KSLE 081000Z 18017KT 7SM -RA BKN041 OVC060 13/12 A2975 RMK PCPN 0006; SLP074 P0006 T01330117,M
SLE,1996-02-08 11:00,57.00,54.00,89.48,180.00,21.00,0.01,29.74,1007.00,10.00,27.00,OVC,   ,   ,   ,4700.00,M,M,M,M,M,M,M,30.00,180.00,M,57.02,KSLE 081100Z 18021G27KT 10SM OVC047 14/12 A2974 RMK RE49 PCPN 0001 PK WND 1830/1025; SLP070 P0001 T01390122,M
SLE,1996-02-08 12:00,57.00,54.00,89.48,170.00,21.00,0.01,29.71,1006.20,7.00,30.00,BKN,OVC,   ,   ,4300.00,4900.00,M,M,-RA,M,M,M,33.00,170.00,M,57.02,KSLE 081200Z 17021G30KT 7SM -RA BKN043 OVC049 14/12 A2971 RMK 6010/ 70216 10061 20056 RB1059 PCPN 0001 PK WND 1733/1136; SLP062 P0001 60013 70217 T01390122 55080,M
SLE,1996-02-08 13:00,57.00,54.00,89.48,180.00,18.00,0.08,29.70,1005.70,7.00,M,BKN,OVC,   ,   ,4300.00,6000.00,M,M,M,M,M,M,M,M,M,57.02,KSLE 081300Z 18018KT 7SM BKN043 OVC060 14/12 A//// RMK SLP057 P0008 T01390122,M
SLE,1996-02-08 14:00,58.00,53.00,83.82,180.00,21.00,M,29.68,1005.00,10.00,31.00,BKN,OVC,   ,   ,5500.00,7000.00,M,M,-RA,M,M,M,31.00,170.00,M,57.92,KSLE 081400Z 18021G31KT 10SM -RA BKN055 OVC070 14/12 A2968 RMK BKN V OVC RB1259E29B46 PCPN 0000 PK WND 1731/1349; SLP050 T01440117,M
SLE,1996-02-08 15:00,58.00,53.00,83.82,170.00,21.00,0.01,29.66,1004.30,10.00,28.00,OVC,   ,   ,   ,5500.00,M,M,M,M,M,M,M,30.00,180.00,M,57.92,KSLE 081500Z 17021G28KT 10SM OVC055 14/12 A2966 RMK 6009/ RE23 PCPN 0001 PK WND 1830/1421; SLP043 P0001 T01440117 55080,M
SLE,1996-02-08 16:00,59.00,53.00,80.64,170.00,19.00,0.01,29.64,1003.80,10.00,M,SCT,OVC,   ,   ,5000.00,6000.00,M,M,-RA,M,M,M,M,M,M,59.00,KSLE 081600Z 17019KT 10SM -RA SCT050 OVC060 15/12 A//// RMK SLP038 P0001 T01500117,M
SLE,1996-02-08 17:00,61.00,52.00,72.22,180.00,20.00,M,29.63,1003.40,10.00,28.00,BKN,OVC,   ,   ,4800.00,5500.00,M,M,M,M,M,M,30.00,190.00,M,60.98,KSLE 081700Z 18020G28KT 10SM BKN048 OVC055 16/11 A2963 RMK RE02 PCPN 0000 PK WND 1930/1608; SLP034 T01610111,M
SLE,1996-02-08 18:00,61.00,52.00,72.22,180.00,22.00,M,29.63,1003.20,10.00,30.00,SCT,BKN,OVC,   ,4000.00,5000.00,6000.00,M,M,M,M,M,30.00,180.00,M,60.98,KSLE 081800Z 18022G30KT 10SM SCT040 BKN050 OVC060 16/11 A2963 RMK 6010/ 10062 20053 RB42E54 PCPN 0000 PK WND 1830/1657; SLP032 60013 T01610111 55060,M
SLE,1996-02-08 19:00,60.00,54.00,80.19,190.00,14.00,0.13,29.64,1003.60,5.00,M,SCT,OVC,   ,   ,3200.00,4000.00,M,M,+RA,M,M,M,28.00,180.00,M,60.08,KSLE 081900Z 19014KT 5SM +RA SCT032 OVC040 16/12 A2964 RMK RB1758 PCPN 0013 PK WND 1828/1802; SLP036 P0013 T01560122,M
SLE,1996-02-08 20:00,61.00,55.00,80.78,230.00,9.00,0.07,29.63,1003.30,10.00,M,OVC,   ,   ,   ,3700.00,M,M,M,-RA,M,M,M,M,M,M,60.98,KSLE 082000Z 23009KT 10SM -RA OVC037 16/13 A2963 RMK PCPN 0007; SLP033 P0007 T01610128,M
SLE,1996-02-08 20:34,M,M,M,190.00,10.00,M,29.62,1002.80,4.00,M,BKN,OVC,   ,   ,2200.00,3500.00,M,M,+RA FG,M,M,M,M,M,M,M,KSLE 082034Z 19010KT 4SM +RA FG BKN022 OVC035 A2962 RMK OVC V BKN PCPN 0023; SLP028,M
SLE,1996-02-08 21:00,59.00,56.00,89.57,200.00,12.00,0.32,29.63,1003.30,4.00,M,BKN,OVC,   ,   ,2400.00,4100.00,M,M,+RA FG,M,M,M,M,M,M,59.00,KSLE 082100Z 20012KT 4SM +RA FG BKN024 OVC041 15/13 A2963 RMK 6051/ PCPN 0032; SLP033 P0032 T01500133 55010,M
SLE,1996-02-08 21:03,M,M,M,210.00,12.00,M,29.64,1003.50,2.50,M,BKN,OVC,   ,   ,2600.00,4100.00,M,M,RA FG,M,M,M,M,M,M,M,KSLE 082103Z 21012KT 21/2SM RA FG BKN026 OVC041 A2964 RMK PCPN 0002; SLP035,M
SLE,1996-02-08 21:20,59.00,56.00,89.57,210.00,14.00,M,29.64,1003.80,1.50,M,BKN,OVC,   ,   ,2500.00,3500.00,M,M,+RA FG,M,M,M,M,M,M,59.00,KSLE 082120Z 21014KT 11/2SM +RA FG BKN025 OVC035 15/13 A2964 RMK PCPN 0014; SLP038 T01500133,M
SLE,1996-02-08 21:33,M,M,M,210.00,11.00,M,29.64,1003.50,2.50,M,BKN,BKN,OVC,   ,2400.00,3000.00,3900.00,M,+RA FG,M,M,M,M,M,M,M,KSLE 082133Z 21011KT 21/2SM +RA FG BKN024 BKN030 OVC039 A2964 RMK PCPN 0020; SLP035,M
SLE,1996-02-08 21:40,M,M,M,200.00,10.00,M,29.63,1003.30,5.00,M,SCT,BKN,OVC,   ,1200.00,2400.00,2900.00,M,-RA FG,M,M,M,M,M,M,M,KSLE 082140Z 20010KT 5SM -RA FG SCT012 BKN024 OVC029 A2963 RMK OVC V BKN PCPN 0021; SLP033,M
SLE,1996-02-08 22:00,59.00,57.00,93.13,230.00,11.00,0.23,29.66,1004.20,3.00,M,SCT,BKN,OVC,   ,1200.00,2200.00,3100.00,M,+RA FG,M,M,M,M,M,M,59.00,KSLE 082200Z 23011KT 3SM +RA FG SCT012 BKN022 OVC031 15/14 A2966 RMK BKN V SCT PCPN 0023; SLP042 P0023 T01500139,M
SLE,1996-02-08 22:04,M,M,M,210.00,11.00,M,29.65,1003.90,2.50,M,SCT,BKN,OVC,   ,1200.00,1800.00,3100.00,M,+RA FG,M,M,M,M,M,M,M,KSLE 082204Z 21011KT 21/2SM +RA FG SCT012 BKN018 OVC031 A2965 RMK BKN V SCT PCPN 0003; SLP039,M
SLE,1996-02-08 22:22,M,M,M,200.00,11.00,M,29.66,1004.30,10.00,M,SCT,BKN,OVC,   ,1800.00,3800.00,6000.00,M,-RA,M,M,M,M,M,M,M,KSLE 082222Z 20011KT 10SM -RA SCT018 BKN038 OVC060 A2966 RMK PCPN 0006; SLP043,M
SLE,1996-02-08 23:00,59.00,56.00,89.57,200.00,9.00,0.10,29.67,1004.60,10.00,M,SCT,BKN,OVC,   ,2100.00,4000.00,8000.00,M,-RA,M,M,M,M,M,M,59.00,KSLE 082300Z 20009KT 10SM -RA SCT021 BKN040 OVC080 15/13 A2967 RMK PCPN 0010; SLP046 P0010 T01500133,M
SLE,1996-02-09 00:00,58.00,55.00,90.11,200.00,10.00,0.07,29.69,1005.30,7.00,M,BKN,OVC,   ,   ,4600.00,5500.00,M,M,-RA,M,M,M,M,M,M,57.92,KSLE 090000Z 20010KT 7SM -RA BKN046 OVC055 14/13 A2969 RMK 6092/ 10062 20056 PCPN 0007; SLP053 P0007 60017 T01440128 55010,M
SLE,1996-02-09 01:00,57.00,53.00,86.58,200.00,16.00,0.06,29.70,1005.70,7.00,M,SCT,BKN,OVC,   ,4700.00,6000.00,9000.00,M,-RA,M,M,M,M,M,M,57.02,KSLE 090100Z 20016KT 7SM -RA SCT047 BKN060 OVC090 14/12 A2970 RMK PCPN 0006; SLP057 P0006 T01390117,M
SLE,1996-02-09 02:00,56.00,54.00,93.05,180.00,11.00,0.08,29.71,1005.80,10.00,M,OVC,   ,   ,   ,6500.00,M,M,M,-RA,M,M,M,M,M,M,55.94,KSLE 090200Z 18011KT 10SM -RA OVC065 13/12 A2971 RMK PCPN 0008; SLP058 P0008 T01330122,M
SLE,1996-02-09 03:00,56.00,54.00,93.05,190.00,10.00,0.09,29.72,1006.40,7.00,M,OVC,   ,   ,   ,6000.00,M,M,M,RA,M,M,M,M,M,M,55.94,KSLE 090300Z 19010KT 7SM RA OVC060 13/12 A2972 RMK 6023/ OVC V BKN PCPN 0009; SLP064 P0009 T01330122 55030,M
SLE,1996-02-09 04:00,55.00,53.00,93.02,200.00,7.00,0.06,29.74,1007.00,10.00,M,SCT,BKN,OVC,   ,2200.00,5500.00,7000.00,M,-RA,M,M,M,M,M,M,55.04,KSLE 090400Z 20007KT 10SM -RA SCT022 BKN055 OVC070 13/12 A2974 RMK ASOS SCT M55 BKN 70 OVC 10+R- 55/53/2007/974; SLP070 P0006 T01280117,M
SLE,1996-02-09 05:00,55.00,52.00,89.40,210.00,8.00,0.04,29.75,1007.60,10.00,M,BKN,OVC,   ,   ,7000.00,8000.00,M,M,-RA,M,M,M,M,M,M,55.04,KSLE 090500Z 21008KT 10SM -RA BKN070 OVC080 13/11 A//// RMK SLP076 P0004 T01280111,M
SLE,1996-02-09 06:00,54.00,52.00,92.99,230.00,5.00,0.04,29.79,1008.90,10.00,M,SCT,OVC,   ,   ,2100.00,6000.00,M,M,-RA,M,M,M,M,M,M,53.96,KSLE 090600Z 23005KT 10SM -RA SCT021 OVC060 12/11 A2979 RMK 6037/ 10062 20054 PCPN 0004; SLP089 P0004 60023 T01220111 55030,M
SLE,1996-02-09 06:04,M,M,M,270.00,10.00,M,29.80,1009.00,7.00,M,SCT,BKN,OVC,   ,800.00,2100.00,6000.00,M,RA,M,M,M,M,M,M,M,KSLE 090604Z 27010KT 7SM RA SCT008 BKN021 OVC060 A2980 RMK PCPN 0001; SLP090,M
SLE,1996-02-09 07:00,51.00,49.00,92.28,270.00,8.00,0.05,29.83,1009.90,10.00,M,OVC,   ,   ,   ,3500.00,M,M,M,-RA,M,M,M,M,M,M,51.08,KSLE 090700Z 27008KT 10SM -RA OVC035 11/09 A2983 RMK PCPN 0005; SLP099 P0005 T01060094,M
SLE,1996-02-09 08:00,50.00,47.00,89.17,290.00,7.00,0.04,29.86,1011.20,10.00,M,OVC,   ,   ,   ,6000.00,M,M,M,-RA,M,M,M,M,M,M,46.72,KSLE 090800Z 29007KT 10SM -RA OVC060 10/08 A2986 RMK PCPN 0004; SLP112 P0004 T01000083,M
SLE,1996-02-09 09:00,50.00,47.00,89.17,280.00,8.00,0.03,29.90,1012.30,10.00,M,OVC,   ,   ,   ,6000.00,M,M,M,-RA,M,M,M,M,M,M,46.29,KSLE 090900Z 28008KT 10SM -RA OVC060 10/08 A2990 RMK 6012/ OVC V BKN PCPN 0003; SLP123 P0003 T01000083 55030,M
SLE,1996-02-09 10:00,50.00,46.00,86.19,280.00,9.00,M,29.94,1013.80,10.00,M,OVC,   ,   ,   ,5000.00,M,M,M,-RA,M,M,M,M,M,M,45.90,KSLE 091000Z 28009KT 10SM -RA OVC050 10/08 A2994 RMK RE14B50 PCPN 0000; SLP138 T01000078,M
SLE,1996-02-09 11:00,49.00,44.00,83.23,290.00,9.00,M,29.97,1014.80,10.00,M,BKN,BKN,OVC,   ,6000.00,7000.00,9000.00,M,M,M,M,M,M,M,M,44.55,KSLE 091100Z 29009KT 10SM BKN060 BKN070 OVC090 09/07 A2997 RMK BKN V SCT RE28 PCPN 0000; SLP148 T00940067,M
SLE,1996-02-09 12:00,48.00,43.00,82.59,280.00,14.00,M,30.01,1016.20,10.00,M,SCT,SCT,OVC,   ,3900.00,4700.00,7500.00,M,M,M,M,M,M,M,M,41.81,KSLE 091200Z 28014KT 10SM SCT039 SCT047 OVC075 09/06 A3001 RMK 6012/ 70151 10062 20048; SLP162 60037 70150 T00890061 55010,M
SLE,1996-02-09 12:15,M,M,M,280.00,12.00,M,30.03,1016.90,10.00,M,BKN,BKN,OVC,   ,2900.00,3800.00,7000.00,M,M,M,M,M,M,M,M,M,KSLE 091215Z 28012KT 10SM BKN029 BKN038 OVC070 A3003 RMK SLP169,M
SLE,1996-02-09 13:00,46.00,41.00,82.45,290.00,10.00,M,30.07,1018.40,10.00,M,OVC,   ,   ,   ,2700.00,M,M,M,M,M,M,M,M,M,M,40.57,KSLE 091300Z 29010KT 10SM OVC027 08/05 A3007 RMK SLP184 T00780050,M
SLE,1996-02-09 13:37,M,M,M,10.00,5.00,M,30.11,1019.80,10.00,M,BKN,OVC,   ,   ,1300.00,2000.00,M,M,-RA,M,M,M,M,M,M,M,KSLE 091337Z 01005KT 10SM -RA BKN013 OVC020 A3011 RMK RB01 PCPN 0000 PRESRR; SLP198,M
SLE,1996-02-09 14:00,45.00,42.00,89.56,40.00,5.00,M,30.13,1020.20,10.00,M,OVC,   ,   ,   ,1100.00,M,M,M,M,M,M,M,M,M,M,41.79,KSLE 091400Z 04005KT 10SM OVC011 07/06 A3013 RMK OVC V BKN RB01E38 PCPN 0000 PRESRR; SLP202 T00720056,M
SLE,1996-02-09 14:12,M,M,M,40.00,5.00,M,30.13,1020.40,10.00,M,SCT,BKN,OVC,   ,1100.00,1900.00,3100.00,M,M,M,M,M,M,M,M,M,KSLE 091412Z 04005KT 10SM SCT011 BKN019 OVC031 A3013 RMK BKN V SCT; SLP204,M
SLE,1996-02-09 14:40,M,M,M,30.00,4.00,M,30.14,1020.80,10.00,M,SCT,OVC,   ,   ,1800.00,3100.00,M,M,M,M,M,M,M,M,M,M,KSLE 091440Z 03004KT 10SM SCT018 OVC031 A3014 RMK SLP208,M
SLE,1996-02-09 15:00,43.00,40.00,88.85,70.00,3.00,M,30.15,1021.00,10.00,M,SCT,BKN,   ,   ,1800.00,3500.00,M,M,M,M,M,M,M,M,M,41.24,KSLE 091500Z 07003KT 10SM SCT018 BKN035 06/04 A3015 RMK 6000/; SLP210 T00610044 55010,M
SLE,1996-02-09 16:00,42.00,38.00,85.13,40.00,4.00,M,30.19,1022.20,10.00,M,CLR,   ,   ,   ,M,M,M,M,M,M,M,M,M,M,M,39.19,KSLE 091600Z 04004KT 10SM CLR/// 06/03 A3019 RMK CLR BLO SLP222 T00560033 51020,M
SLE,1996-02-09 17:00,44.00,36.00,72.98,10.00,5.00,M,30.21,1023.00,10.00,M,CLR,   ,   ,   ,M,M,M,M,M,M,M,M,M,M,M,40.72,KSLE 091700Z 01005KT 10SM CLR/// 07/02 A3021 RMK CLR BLO SLP230 T00670022 51020,M
SLE,1996-02-09 18:00,46.00,33.00,60.35,30.00,8.00,M,30.22,1023.40,10.00,M,CLR,   ,   ,   ,M,M,M,M,M,M,M,M,M,M,M,41.41,KSLE 091800Z 03008KT 10SM CLR/// 08/01 A3022 RMK CLR BLO 51025 6000/ 10054 20042; SLP234 60000 T00780006 51020,M
SLE,1996-02-09 19:00,47.00,34.00,60.47,40.00,10.00,M,30.24,1024.20,10.00,17.00,CLR,   ,   ,   ,M,M,M,M,M,M,M,M,M,M,M,41.70,KSLE 091900Z 04010G17KT 10SM CLR/// 08/01 A3024 RMK CLR BLO SLP242 T00830011 51020,M
SLE,1996-02-09 20:00,48.00,35.00,60.62,50.00,8.00,M,30.25,1024.50,10.00,M,SCT,   ,   ,   ,3400.00,M,M,M,M,M,M,M,M,M,M,43.85,KSLE 092000Z 05008KT 10SM SCT034 09/02 A3025 RMK SLP245 T00890017,M
SLE,1996-02-09 21:00,50.00,36.00,58.34,20.00,9.00,M,30.24,1024.00,10.00,M,CLR,   ,   ,   ,M,M,M,M,M,M,M,M,M,M,M,45.90,KSLE 092100Z 02009KT 10SM CLR/// 10/02 A3024 RMK CLR BLO 50006; SLP240 T01000022 51020,M
SLE,1996-02-09 22:00,49.00,36.00,60.74,10.00,11.00,M,30.22,1023.30,10.00,M,CLR,   ,   ,   ,M,M,M,M,M,M,M,M,M,M,M,43.85,KSLE 092200Z 01011KT 10SM CLR/// 09/02 A3022 RMK CLR BLO SLP233 T00940022 51020,M
SLE,1996-02-09 23:00,50.00,36.00,58.34,10.00,13.00,M,30.19,1022.50,10.00,M,CLR,   ,   ,   ,M,M,M,M,M,M,M,M,M,M,M,44.63,KSLE 092300Z 01013KT 10SM CLR/// 10/02 A3019 RMK CLR BLO SLP225 T01000022 51020,M
SLE,1996-02-10 00:00,50.00,35.00,56.30,10.00,12.00,M,30.18,1022.10,10.00,M,CLR,   ,   ,   ,M,M,M,M,M,M,M,M,M,M,M,44.91,KSLE 100000Z 01012KT 10SM CLR/// 10/02 A//// RMK SLP221 T01000017,M
SLE,1996-02-10 01:00,49.00,34.00,56.14,10.00,13.00,M,30.17,1021.80,10.00,M,CLR,   ,   ,   ,M,M,M,M,M,M,M,M,M,M,M,43.25,KSLE 100100Z 01013KT 10SM CLR/// 09/01 A3017 RMK CLR BLO SLP218 T00940011 51020,M
SLE,1996-02-10 02:00,46.00,35.00,65.32,20.00,7.00,M,30.17,1021.80,10.00,M,CLR,   ,   ,   ,M,M,M,M,M,M,M,M,M,M,M,41.89,KSLE 100200Z 02007KT 10SM CLR/// 08/02 A3017 RMK CLR BLO SLP218 T00780017 51020,M
SLE,1996-02-10 03:00,45.00,36.00,70.52,30.00,8.00,M,30.16,1021.40,10.00,M,CLR,   ,   ,   ,M,M,M,M,M,M,M,M,M,M,M,40.08,KSLE 100300Z 03008KT 10SM CLR/// 07/02 A//// RMK SLP214 T00720022,M
SLE,1996-02-10 04:00,43.00,36.00,76.06,0.00,0.00,M,30.15,1021.10,10.00,M,CLR,   ,   ,   ,M,M,M,M,M,M,M,M,M,M,M,42.98,KSLE 100400Z 00000KT 10SM CLR/// 06/02 A3015 RMK CLR BLO SLP211 T00610022 51020,M
SLE,1996-02-10 05:00,43.00,35.00,73.39,360.00,6.00,M,30.14,1020.80,10.00,M,CLR,   ,   ,   ,M,M,M,M,M,M,M,M,M,M,M,38.75,KSLE 100500Z 36006KT 10SM CLR/// 06/02 A//// RMK SLP208 T00610017,M
SLE,1996-02-10 06:00,42.00,34.00,72.78,340.00,4.00,M,30.13,1020.50,10.00,M,CLR,   ,   ,   ,M,M,M,M,M,M,M,M,M,M,M,39.19,KSLE 100600Z 34004KT 10SM CLR/// 06/01 A3013 RMK CLR BLO 56009 10054 20042; SLP205 T00560011 51020,M
SLE,1996-02-10 07:00,38.00,32.00,78.96,290.00,4.00,M,30.12,1020.00,10.00,M,CLR,   ,   ,   ,M,M,M,M,M,M,M,M,M,M,M,34.36,KSLE 100700Z 29004KT 10SM CLR/// 03/00 A3012 RMK CLR BLO SLP200 T00330000 51020,M
SLE,1996-02-10 08:00,39.00,30.00,69.86,260.00,5.00,M,30.11,1019.80,10.00,M,CLR,   ,   ,   ,M,M,M,M,M,M,M,M,M,M,M,34.73,KSLE 100800Z 26005KT 10SM CLR/// 04/M01 A3011 RMK CLR BLO SLP198 T00391011 51020,M
SLE,1996-02-10 09:00,37.00,30.00,75.50,280.00,4.00,M,30.11,1019.80,10.00,M,CLR,   ,   ,   ,M,M,M,M,M,M,M,M,M,M,M,33.31,KSLE 100900Z 28004KT 10SM CLR/// 03/M01 A3011 RMK CLR BLO 56008; SLP198 T00281011 51020,M
SLE,1996-02-10 10:00,38.00,27.00,64.29,280.00,4.00,M,30.10,1019.50,10.00,M,CLR,   ,   ,   ,M,M,M,M,M,M,M,M,M,M,M,34.36,KSLE 101000Z 28004KT 10SM CLR/// 03/M03 A3010 RMK CLR BLO SLP195 T00331028 51020,M
SLE,1996-02-10 11:00,37.00,27.00,66.60,250.00,5.00,M,30.10,1019.30,10.00,M,CLR,   ,   ,   ,M,M,M,M,M,M,M,M,M,M,M,32.38,KSLE 101100Z 25005KT 10SM CLR/// 03/M03 A3010 RMK CLR BLO SLP193 T00281028 51020,M
SLE,1996-02-10 12:00,39.00,25.00,56.77,290.00,5.00,M,30.09,1019.00,10.00,M,CLR,   ,   ,   ,M,M,M,M,M,M,M,M,M,M,M,34.73,KSLE 101200Z 29005KT 10SM CLR/// 04/M04 A3009 RMK CLR BLO 58007 10050 20034; SLP190 T00391039 51020,M
SLE,1996-02-10 13:00,41.00,24.00,50.63,290.00,6.00,M,30.10,1019.30,10.00,M,CLR,   ,   ,   ,M,M,M,M,M,M,M,M,M,M,M,36.37,KSLE 101300Z 29006KT 10SM CLR/// 05/M04 A3010 RMK CLR BLO SLP193 T00501044 51020,M
SLE,1996-02-10 14:00,41.00,24.00,50.63,280.00,5.00,M,30.11,1019.50,10.00,M,CLR,   ,   ,   ,M,M,M,M,M,M,M,M,M,M,M,37.08,KSLE 101400Z 28005KT 10SM CLR/// 05/M04 A3011 RMK CLR BLO SLP195 T00501044 51020,M
SLE,1996-02-10 15:00,41.00,24.00,50.63,300.00,3.00,M,30.12,1019.90,10.00,M,CLR,   ,   ,   ,M,M,M,M,M,M,M,M,M,M,M,38.98,KSLE 101500Z 30003KT 10SM CLR/// 05/M04 A3012 RMK CLR BLO 53008; SLP199 T00501044 51020,M
SLE,1996-02-10 16:00,42.00,27.00,54.73,290.00,5.00,M,30.13,1020.50,10.00,M,CLR,   ,   ,   ,M,M,M,M,M,M,M,M,M,M,M,38.37,KSLE 101600Z 29005KT 10SM CLR/// 06/M03 A3013 RMK CLR BLO SLP205 T00561028 51020,M
SLE,1996-02-10 17:00,48.00,28.00,45.65,330.00,7.00,M,30.15,1021.00,10.00,M,CLR,   ,   ,   ,M,M,M,M,M,M,M,M,M,M,M,44.31,KSLE 101700Z 33007KT 10SM CLR/// 09/M02 A3015 RMK CLR BLO SLP210 T00891022 51020,M
SLE,1996-02-10 18:00,51.00,29.00,42.26,350.00,7.00,M,30.16,1021.20,10.00,M,CLR,   ,   ,   ,M,M,M,M,M,M,M,M,M,M,M,51.08,KSLE 101800Z 35007KT 10SM CLR/// 11/M02 A3016 RMK CLR BLO 51013 10051 20034; SLP212 T01061017 51020,M
SLE,1996-02-10 19:00,52.00,31.00,44.31,210.00,9.00,M,30.17,1021.60,10.00,M,CLR,   ,   ,   ,M,M,M,M,M,M,M,M,M,M,M,51.98,KSLE 101900Z 21009KT 10SM CLR/// 11/M01 A3017 RMK CLR BLO SLP216 T01111006 51020,M
SLE,1996-02-10 20:00,54.00,30.00,39.72,280.00,9.00,M,30.17,1021.70,10.00,M,CLR,   ,   ,   ,M,M,M,M,M,M,M,M,M,M,M,53.96,KSLE 102000Z 28009KT 10SM CLR/// 12/M01 A3017 RMK CLR BLO SLP217 T01221011 51020,M
SLE,1996-02-10 21:00,57.00,32.00,38.51,360.00,8.00,M,30.16,1021.20,10.00,M,CLR,   ,   ,   ,M,M,M,M,M,M,M,M,M,M,M,57.02,KSLE 102100Z 36008KT 10SM CLR/// 14/00 A3016 RMK CLR BLO 50000; SLP212 T01390000 51020,M
SLE,1996-02-10 22:00,57.00,31.00,36.87,340.00,10.00,M,30.14,1020.70,10.00,M,CLR,   ,   ,   ,M,M,M,M,M,M,M,M,M,M,M,57.02,KSLE 102200Z 34010KT 10SM CLR/// 14/M01 A3014 RMK CLR BLO SLP207 T01391006 51020,M
SLE,1996-02-10 23:00,57.00,33.00,40.22,360.00,9.00,M,30.14,1020.60,10.00,M,CLR,   ,   ,   ,M,M,M,M,M,M,M,M,M,M,M,57.02,KSLE 102300Z 36009KT 10SM CLR/// 14/01 A3014 RMK CLR BLO SLP206 T01390006 51020,M
SLE,1996-02-11 00:00,55.00,31.00,39.61,360.00,8.00,M,30.13,1020.50,10.00,M,CLR,   ,   ,   ,M,M,M,M,M,M,M,M,M,M,M,55.04,KSLE 110000Z 36008KT 10SM CLR/// 13/M01 A3013 RMK CLR BLO 56008 10059 20034; SLP205 T01281006 51020,M
SLE,1996-02-11 01:00,54.00,26.00,33.76,360.00,10.00,M,30.13,1020.50,10.00,M,CLR,   ,   ,   ,M,M,M,M,M,M,M,M,M,M,M,53.96,KSLE 110100Z 36010KT 10SM CLR/// 12/M03 A3013 RMK CLR BLO SLP205 T01221033 51020,M
SLE,1996-02-11 02:00,50.00,27.00,40.55,330.00,7.00,M,30.14,1020.90,10.00,M,SCT,   ,   ,   ,11000.00,M,M,M,M,M,M,M,M,M,M,46.72,KSLE 110200Z 33007KT 10SM SCT110 10/M03 A3014 RMK SLP209 T01001028,M
SLE,1996-02-11 03:00,49.00,28.00,44.14,330.00,7.00,M,30.16,1021.30,10.00,M,SCT,   ,   ,   ,11000.00,M,M,M,M,M,M,M,M,M,M,45.40,KSLE 110300Z 33007KT 10SM SCT110 09/M02 A3016 RMK 53007; SLP213 T00941022,M
SLE,1996-02-11 04:00,48.00,26.00,42.07,350.00,7.00,M,30.16,1021.50,10.00,M,CLR,   ,   ,   ,M,M,M,M,M,M,M,M,M,M,M,44.31,KSLE 110400Z 35007KT 10SM CLR/// 09/M03 A3016 RMK CLR BLO SLP215 T00891033 51020,M
SLE,1996-02-11 05:00,46.00,28.00,49.19,330.00,8.00,M,30.18,1022.10,10.00,M,CLR,   ,   ,   ,M,M,M,M,M,M,M,M,M,M,M,41.41,KSLE 110500Z 33008KT 10SM CLR/// 08/M02 A3018 RMK CLR BLO SLP221 T00781022 51020,M
SLE,1996-02-11 06:00,44.00,27.00,50.73,310.00,8.00,M,30.19,1022.20,10.00,M,CLR,   ,   ,   ,M,M,M,M,M,M,M,M,M,M,M,38.97,KSLE 110600Z 31008KT 10SM CLR/// 07/M03 A3019 RMK CLR BLO 51009 10059 20034; SLP222 T00671028 51020,M
SLE,1996-02-11 07:00,43.00,27.00,52.87,310.00,7.00,M,30.21,1023.20,10.00,M,CLR,   ,   ,   ,M,M,M,M,M,M,M,M,M,M,M,38.16,KSLE 110700Z 31007KT 10SM CLR/// 06/M03 A3021 RMK CLR BLO SLP232 T00611028 51020,M
SLE,1996-02-11 08:00,44.00,26.00,48.87,350.00,6.00,M,30.24,1024.10,10.00,M,CLR,   ,   ,   ,M,M,M,M,M,M,M,M,M,M,M,40.05,KSLE 110800Z 35006KT 10SM CLR/// 07/M03 A3024 RMK CLR BLO SLP241 T00671033 51020,M
SLE,1996-02-11 09:00,42.00,27.00,54.73,330.00,5.00,M,30.24,1024.10,10.00,M,CLR,   ,   ,   ,M,M,M,M,M,M,M,M,M,M,M,38.37,KSLE 110900Z 33005KT 10SM CLR/// 06/M03 A3024 RMK CLR BLO 50019; SLP241 T00561028 51020,M
SLE,1996-02-11 10:00,41.00,27.00,57.06,340.00,5.00,M,30.24,1024.00,10.00,M,CLR,   ,   ,   ,M,M,M,M,M,M,M,M,M,M,M,37.08,KSLE 111000Z 34005KT 10SM CLR/// 05/M03 A3024 RMK CLR BLO SLP240 T00501028 51020,M
SLE,1996-02-11 11:00,41.00,27.00,57.06,320.00,4.00,M,30.26,1024.60,10.00,M,CLR,   ,   ,   ,M,M,M,M,M,M,M,M,M,M,M,37.93,KSLE 111100Z 32004KT 10SM CLR/// 05/M03 A3026 RMK CLR BLO SLP246 T00501028 51020,M
SLE,1996-02-11 12:00,41.00,27.00,57.06,330.00,3.00,M,30.27,1025.00,10.00,M,CLR,   ,   ,   ,M,M,M,M,M,M,M,M,M,M,M,38.98,KSLE 111200Z 33003KT 10SM CLR/// 05/M03 A3027 RMK CLR BLO 53008 10059 20040; SLP250 T00501028 51020,M
SLE,1996-02-11 13:00,37.00,29.00,72.24,310.00,3.00,M,30.27,1025.10,10.00,M,CLR,   ,   ,   ,M,M,M,M,M,M,M,M,M,M,M,34.45,KSLE 111300Z 31003KT 10SM CLR/// 03/M02 A3027 RMK CLR BLO SLP251 T00281017 51020,M
SLE,1996-02-11 14:00,37.00,28.00,69.63,0.00,0.00,M,30.27,1025.00,10.00,M,CLR,   ,   ,   ,M,M,M,M,M,M,M,M,M,M,M,37.04,KSLE 111400Z 00000KT 10SM CLR/// 03/M02 A3027 RMK CLR BLO SLP250 T00281022 51020,M
SLE,1996-02-11 15:00,37.00,28.00,69.63,0.00,0.00,M,30.27,1025.30,10.00,M,CLR,   ,   ,   ,M,M,M,M,M,M,M,M,M,M,M,37.04,KSLE 111500Z 00000KT 10SM CLR/// 03/M02 A3027 RMK CLR BLO 53004; SLP253 T00281022 51020,M
SLE,1996-02-11 16:00,34.00,30.00,85.24,0.00,0.00,M,30.30,1026.00,10.00,M,CLR,   ,   ,   ,M,M,M,M,M,M,M,M,M,M,M,33.98,KSLE 111600Z 00000KT 10SM CLR/// 01/M01 A3030 RMK CLR BLO SLP260 T00111011 51020,M
SLE,1996-02-11 17:00,44.00,29.00,55.02,0.00,0.00,M,30.31,1026.30,10.00,M,CLR,   ,   ,   ,M,M,M,M,M,M,M,M,M,M,M,44.06,KSLE 111700Z 00000KT 10SM CLR/// 07/M02 A3031 RMK CLR BLO SLP263 T00671017 51020,M
SLE,1996-02-11 18:00,47.00,30.00,51.55,350.00,5.00,M,30.32,1026.60,10.00,M,CLR,   ,   ,   ,M,M,M,M,M,M,M,M,M,M,M,44.14,KSLE 111800Z 35005KT 10SM CLR/// 08/M01 A3032 RMK CLR BLO 51014 10047 20033; SLP266 T00831011 51020,M
SLE,1996-02-11 19:00,50.00,30.00,45.97,360.00,7.00,M,30.31,1026.50,10.00,M,CLR,   ,   ,   ,M,M,M,M,M,M,M,M,M,M,M,46.72,KSLE 111900Z 36007KT 10SM CLR/// 10/M01 A3031 RMK CLR BLO SLP265 T01001011 51020,M
SLE,1996-02-11 20:00,53.00,32.00,44.48,360.00,7.00,M,30.30,1026.10,10.00,M,CLR,   ,   ,   ,M,M,M,M,M,M,M,M,M,M,M,53.06,KSLE 112000Z 36007KT 10SM CLR/// 12/00 A3030 RMK CLR BLO SLP261 T01170000 51020,M
SLE,1996-02-11 21:00,54.00,33.00,44.95,360.00,4.00,M,30.28,1025.40,10.00,M,CLR,   ,   ,   ,M,M,M,M,M,M,M,M,M,M,M,53.96,KSLE 112100Z 36004KT 10SM CLR/// 12/01 A3028 RMK CLR BLO 58012; SLP254 T01220006 51020,M
SLE,1996-02-11 22:00,57.00,33.00,40.22,350.00,5.00,M,30.26,1024.60,10.00,M,CLR,   ,   ,   ,M,M,M,M,M,M,M,M,M,M,M,57.02,KSLE 112200Z 35005KT 10SM CLR/// 14/01 A3026 RMK CLR BLO SLP246 T01390006 51020,M
SLE,1996-02-11 23:00,58.00,35.00,42.14,350.00,8.00,M,30.24,1024.20,10.00,M,CLR,   ,   ,   ,M,M,M,M,M,M,M,M,M,M,M,57.92,KSLE 112300Z 35008KT 10SM CLR/// 14/02 A3024 RMK CLR BLO SLP242 T01440017 51020,M
SLE,1996-02-12 00:00,58.00,35.00,42.14,360.00,8.00,M,30.25,1024.40,10.00,M,CLR,   ,   ,   ,M,M,M,M,M,M,M,M,M,M,M,57.92,KSLE 120000Z 36008KT 10SM CLR/// 14/02 A3025 RMK CLR BLO 55010 10059 20033; SLP244 T01440017 51020,M
SLE,1996-02-12 01:00,55.00,35.00,46.77,360.00,6.00,M,30.25,1024.40,10.00,M,CLR,   ,   ,   ,M,M,M,M,M,M,M,M,M,M,M,55.04,KSLE 120100Z 36006KT 10SM CLR/// 13/02 A3025 RMK CLR BLO SLP244 T01280017 51020,M
SLE,1996-02-12 02:00,52.00,33.00,48.34,360.00,6.00,M,30.26,1024.90,10.00,M,CLR,   ,   ,   ,M,M,M,M,M,M,M,M,M,M,M,51.98,KSLE 120200Z 36006KT 10SM CLR/// 11/01 A3026 RMK CLR BLO SLP249 T01110006 51020,M
SLE,1996-02-12 03:00,50.00,32.00,49.81,360.00,4.00,M,30.28,1025.30,10.00,M,CLR,   ,   ,   ,M,M,M,M,M,M,M,M,M,M,M,48.44,KSLE 120300Z 36004KT 10SM CLR/// 10/00 A3028 RMK CLR BLO 53008; SLP253 T01000000 51020,M
SLE,1996-02-12 04:00,46.00,33.00,60.35,310.00,3.00,M,30.28,1025.60,10.00,M,CLR,   ,   ,   ,M,M,M,M,M,M,M,M,M,M,M,44.74,KSLE 120400Z 31003KT 10SM CLR/// 08/01 A3028 RMK CLR BLO SLP256 T00780006 51020,M
SLE,1996-02-12 05:00,43.00,35.00,73.39,280.00,3.00,M,30.30,1026.00,10.00,M,CLR,   ,   ,   ,M,M,M,M,M,M,M,M,M,M,M,41.24,KSLE 120500Z 28003KT 10SM CLR/// 06/02 A3030 RMK CLR BLO SLP260 T00610017 51020,M
SLE,1996-02-12 06:00,43.00,33.00,67.81,0.00,0.00,M,30.30,1026.20,10.00,M,CLR,   ,   ,   ,M,M,M,M,M,M,M,M,M,M,M,42.98,KSLE 120600Z 00000KT 10SM CLR/// 06/01 A3030 RMK CLR BLO 51009 10059 20033; SLP262 T00610006 51020,M
SLE,1996-02-12 07:00,42.00,33.00,70.20,0.00,0.00,M,30.31,1026.50,10.00,M,CLR,   ,   ,   ,M,M,M,M,M,M,M,M,M,M,M,42.08,KSLE 120700Z 00000KT 10SM CLR/// 06/01 A3031 RMK CLR BLO SLP265 T00560006 51020,M
SLE,1996-02-12 08:00,39.00,33.00,79.05,0.00,0.00,M,30.32,1026.70,10.00,M,CLR,   ,   ,   ,M,M,M,M,M,M,M,M,M,M,M,39.02,KSLE 120800Z 00000KT 10SM CLR/// 04/01 A3032 RMK CLR BLO SLP267 T00390006 51020,M
SLE,1996-02-12 09:00,37.00,33.00,85.43,0.00,0.00,M,30.31,1026.50,10.00,M,CLR,   ,   ,   ,M,M,M,M,M,M,M,M,M,M,M,37.04,KSLE 120900Z 00000KT 10SM CLR/// 03/01 A3031 RMK CLR BLO 50004; SLP265 T00280006 51020,M
SLE,1996-02-12 10:00,40.00,32.00,73.08,0.00,0.00,M,30.31,1026.50,10.00,M,CLR,   ,   ,   ,M,M,M,M,M,M,M,M,M,M,M,39.92,KSLE 121000Z 00000KT 10SM CLR/// 04/00 A3031 RMK CLR BLO SLP265 T00440000 51020,M
SLE,1996-02-12 11:00,35.00,32.00,88.47,0.00,0.00,M,30.30,1026.20,10.00,M,CLR,   ,   ,   ,M,M,M,M,M,M,M,M,M,M,M,35.06,KSLE 121100Z 00000KT 10SM CLR/// 02/00 A3030 RMK CLR BLO SLP262 T00170000 51020,M
SLE,1996-02-12 12:00,34.00,30.00,85.24,0.00,0.00,M,30.30,1026.00,10.00,M,CLR,   ,   ,   ,M,M,M,M,M,M,M,M,M,M,M,33.98,KSLE 121200Z 00000KT 10SM CLR/// 01/M01 A3030 RMK CLR BLO 58007 10059 20034; SLP260 T00111011 51020,M
SLE,1996-02-12 13:00,34.00,31.00,88.42,240.00,3.00,M,30.30,1026.20,10.00,M,CLR,   ,   ,   ,M,M,M,M,M,M,M,M,M,M,M,30.95,KSLE 121300Z 24003KT 10SM CLR/// 01/M01 A3030 RMK CLR BLO SLP262 T00111006 51020,M
SLE,1996-02-12 14:00,34.00,31.00,88.42,240.00,3.00,M,30.30,1026.10,10.00,M,CLR,   ,   ,   ,M,M,M,M,M,M,M,M,M,M,M,30.95,KSLE 121400Z 24003KT 10SM CLR/// 01/M01 A3030 RMK CLR BLO SLP261 T00111006 51020,M
SLE,1996-02-12 15:00,33.00,30.00,88.37,0.00,0.00,M,30.30,1026.10,10.00,M,CLR,   ,   ,   ,M,M,M,M,M,M,M,M,M,M,M,33.08,KSLE 121500Z 00000KT 10SM CLR/// 01/M01 A3030 RMK CLR BLO 50001; SLP261 T00061011 51020,M
SLE,1996-02-12 16:00,33.00,30.00,88.37,0.00,0.00,M,30.31,1026.50,10.00,M,CLR,   ,   ,   ,M,M,M,M,M,M,M,M,M,M,M,33.08,KSLE 121600Z 00000KT 10SM CLR/// 01/M01 A3031 RMK CLR BLO SLP265 T00061011 51020,M
SLE,1996-02-12 17:00,42.00,34.00,72.78,0.00,0.00,M,30.31,1026.50,10.00,M,CLR,   ,   ,   ,M,M,M,M,M,M,M,M,M,M,M,42.08,KSLE 121700Z 00000KT 10SM CLR/// 06/01 A3031 RMK CLR BLO SLP265 T00560011 51020,M
SLE,1996-02-12 18:00,47.00,31.00,53.47,10.00,6.00,M,30.32,1026.70,10.00,M,CLR,   ,   ,   ,M,M,M,M,M,M,M,M,M,M,M,43.52,KSLE 121800Z 01006KT 10SM CLR/// 08/M01 A3032 RMK CLR BLO 51006 10047 20031; SLP267 T00831006 51020,M
SLE,1996-02-12 19:00,49.00,32.00,51.85,10.00,6.00,M,30.32,1026.80,10.00,M,CLR,   ,   ,   ,M,M,M,M,M,M,M,M,M,M,M,45.91,KSLE 121900Z 01006KT 10SM CLR/// 09/00 A3032 RMK CLR BLO SLP268 T00940000 51020,M
SLE,1996-02-12 20:00,52.00,34.00,50.11,360.00,7.00,M,30.31,1026.40,10.00,M,CLR,   ,   ,   ,M,M,M,M,M,M,M,M,M,M,M,51.98,KSLE 122000Z 36007KT 10SM CLR/// 11/01 A3031 RMK CLR BLO SLP264 T01110011 51020,M
SLE,1996-02-12 21:00,55.00,36.00,48.47,10.00,4.00,M,30.27,1025.20,10.00,M,CLR,   ,   ,   ,M,M,M,M,M,M,M,M,M,M,M,55.04,KSLE 122100Z 01004KT 10SM CLR/// 13/02 A3027 RMK CLR BLO 58014; SLP252 T01280022 51020,M
SLE,1996-02-12 22:00,57.00,37.00,47.08,350.00,6.00,M,30.25,1024.30,10.00,M,CLR,   ,   ,   ,M,M,M,M,M,M,M,M,M,M,M,57.02,KSLE 122200Z 35006KT 10SM CLR/// 14/03 A3025 RMK CLR BLO SLP243 T01390028 51020,M
SLE,1996-02-12 23:00,59.00,37.00,43.85,360.00,7.00,M,30.23,1023.60,10.00,M,CLR,   ,   ,   ,M,M,M,M,M,M,M,M,M,M,M,59.00,KSLE 122300Z 36007KT 10SM CLR/// 15/03 A3023 RMK CLR BLO SLP236 T01500028 51020,M
SLE,1996-02-13 00:00,60.00,38.00,43.71,350.00,7.00,M,30.21,1023.10,10.00,M,CLR,   ,   ,   ,M,M,M,M,M,M,M,M,M,M,M,60.08,KSLE 130000Z 35007KT 10SM CLR/// 16/03 A3021 RMK CLR BLO 56022 10060 20031; SLP231 T01560033 51020,M
SLE,1996-02-13 01:00,58.00,39.00,49.26,340.00,6.00,M,30.19,1022.40,10.00,M,CLR,   ,   ,   ,M,M,M,M,M,M,M,M,M,M,M,57.92,KSLE 130100Z 34006KT 10SM CLR/// 14/04 A3019 RMK CLR BLO SLP224 T01440039 51020,M
SLE,1996-02-13 02:00,53.00,38.00,56.34,360.00,3.00,M,30.20,1022.60,10.00,M,CLR,   ,   ,   ,M,M,M,M,M,M,M,M,M,M,M,53.06,KSLE 130200Z 36003KT 10SM CLR/// 12/03 A3020 RMK CLR BLO SLP226 T01170033 51020,M
SLE,1996-02-13 03:00,48.00,38.00,67.92,0.00,0.00,M,30.20,1022.60,10.00,M,CLR,   ,   ,   ,M,M,M,M,M,M,M,M,M,M,M,48.02,KSLE 130300Z 00000KT 10SM CLR/// 09/03 A3020 RMK CLR BLO 56005; SLP226 T00890033 51020,M
SLE,1996-02-13 04:00,43.00,35.00,73.39,0.00,0.00,M,30.20,1022.70,10.00,M,CLR,   ,   ,   ,M,M,M,M,M,M,M,M,M,M,M,42.98,KSLE 130400Z 00000KT 10SM CLR/// 06/02 A3020 RMK CLR BLO SLP227 T00610017 51020,M
SLE,1996-02-13 05:00,46.00,34.00,62.56,0.00,0.00,M,30.21,1023.00,10.00,M,CLR,   ,   ,   ,M,M,M,M,M,M,M,M,M,M,M,46.04,KSLE 130500Z 00000KT 10SM CLR/// 08/01 A3021 RMK CLR BLO SLP230 T00780011 51020,M
SLE,1996-02-13 06:00,42.00,35.00,75.98,0.00,0.00,M,30.21,1023.20,10.00,M,CLR,   ,   ,   ,M,M,M,M,M,M,M,M,M,M,M,42.08,KSLE 130600Z 00000KT 10SM CLR/// 06/02 A3021 RMK CLR BLO 53006 10060 20031; SLP232 T00560017 51020,M
SLE,1996-02-13 07:00,39.00,35.00,85.55,220.00,3.00,M,30.23,1023.60,10.00,M,CLR,   ,   ,   ,M,M,M,M,M,M,M,M,M,M,M,36.71,KSLE 130700Z 22003KT 10SM CLR/// 04/02 A3023 RMK CLR BLO SLP236 T00390017 51020,M
SLE,1996-02-13 08:00,37.00,33.00,85.43,0.00,0.00,M,30.23,1023.90,10.00,M,CLR,   ,   ,   ,M,M,M,M,M,M,M,M,M,M,M,37.04,KSLE 130800Z 00000KT 10SM CLR/// 03/01 A3023 RMK CLR BLO SLP239 T00280006 51020,M
SLE,1996-02-13 09:00,35.00,33.00,92.40,0.00,0.00,M,30.23,1023.80,10.00,M,CLR,   ,   ,   ,M,M,M,M,M,M,M,M,M,M,M,35.06,KSLE 130900Z 00000KT 10SM CLR/// 02/01 A3023 RMK CLR BLO 51006; SLP238 T00170006 51020,M
SLE,1996-02-13 10:00,36.00,33.00,89.16,0.00,0.00,M,30.22,1023.60,10.00,M,CLR,   ,   ,   ,M,M,M,M,M,M,M,M,M,M,M,35.96,KSLE 131000Z 00000KT 10SM CLR/// 02/01 A3022 RMK CLR BLO SLP236 T00220006 51020,M
SLE,1996-02-13 11:00,37.00,33.00,85.43,0.00,0.00,M,30.22,1023.30,10.00,M,CLR,   ,   ,   ,M,M,M,M,M,M,M,M,M,M,M,37.04,KSLE 131100Z 00000KT 10SM CLR/// 03/01 A3022 RMK CLR BLO SLP233 T00280006 51020,M
SLE,1996-02-13 12:00,34.00,32.00,92.36,0.00,0.00,M,30.21,1023.00,10.00,M,CLR,   ,   ,   ,M,M,M,M,M,M,M,M,M,M,M,33.98,KSLE 131200Z 00000KT 10SM CLR/// 01/00 A3021 RMK CLR BLO 58007 10060 20034; SLP230 T00110000 51020,M
SLE,1996-02-13 13:00,33.00,31.00,91.66,0.00,0.00,M,30.20,1022.70,10.00,M,CLR,   ,   ,   ,M,M,M,M,M,M,M,M,M,M,M,33.08,KSLE 131300Z 00000KT 10SM CLR/// 01/M01 A3020 RMK CLR BLO SLP227 T00061006 51020,M
SLE,1996-02-13 14:00,35.00,31.00,84.69,0.00,0.00,M,30.19,1022.40,10.00,M,CLR,   ,   ,   ,M,M,M,M,M,M,M,M,M,M,M,35.06,KSLE 131400Z 00000KT 10SM CLR/// 02/M01 A3019 RMK CLR BLO SLP224 T00171006 51020,M
SLE,1996-02-13 15:00,37.00,32.00,81.80,0.00,0.00,M,30.20,1022.50,10.00,M,CLR,   ,   ,   ,M,M,M,M,M,M,M,M,M,M,M,37.04,KSLE 131500Z 00000KT 10SM CLR/// 03/00 A3020 RMK CLR BLO SLP225 T00280000 51020,M
SLE,1996-02-13 16:00,32.00,30.00,92.29,0.00,0.00,M,30.20,1022.70,10.00,M,CLR,   ,   ,   ,M,M,M,M,M,M,M,M,M,M,M,32.00,KSLE 131600Z 00000KT 10SM CLR/// 00/M01 A3020 RMK CLR BLO SLP227 T00001011 51020,M
SLE,1996-02-13 17:00,43.00,38.00,82.24,0.00,0.00,M,30.20,1022.80,10.00,M,CLR,   ,   ,   ,M,M,M,M,M,M,M,M,M,M,M,42.98,KSLE 131700Z 00000KT 10SM CLR/// 06/03 A3020 RMK CLR BLO SLP228 T00610033 51020,M
SLE,1996-02-13 18:00,47.00,35.00,63.13,340.00,3.00,M,30.21,1023.10,10.00,M,CLR,   ,   ,   ,M,M,M,M,M,M,M,M,M,M,M,45.77,KSLE 131800Z 34003KT 10SM CLR/// 08/02 A3021 RMK CLR BLO 53005 10047 20031; SLP231 T00830017 51020,M
SLE,1996-02-13 19:00,50.00,35.00,56.30,340.00,4.00,M,30.21,1023.10,10.00,M,CLR,   ,   ,   ,M,M,M,M,M,M,M,M,M,M,M,48.44,KSLE 131900Z 34004KT 10SM CLR/// 10/02 A3021 RMK CLR BLO SLP231 T01000017 51020,M
SLE,1996-02-13 20:00,54.00,35.00,48.65,350.00,3.00,M,30.19,1022.40,10.00,M,CLR,   ,   ,   ,M,M,M,M,M,M,M,M,M,M,M,53.96,KSLE 132000Z 35003KT 10SM CLR/// 12/02 A3019 RMK CLR BLO SLP224 T01220017 51020,M
SLE,1996-02-13 21:00,55.00,35.00,46.77,250.00,3.00,M,30.17,1021.60,10.00,M,CLR,   ,   ,   ,M,M,M,M,M,M,M,M,M,M,M,55.04,KSLE 132100Z 25003KT 10SM CLR/// 13/02 A3017 RMK CLR BLO 58013; SLP216 T01280017 51020,M
SLE,1996-02-13 22:00,58.00,36.00,43.67,0.00,0.00,M,30.15,1020.90,10.00,M,CLR,   ,   ,   ,M,M,M,M,M,M,M,M,M,M,M,57.92,KSLE 132200Z 00000KT 10SM CLR/// 14/02 A3015 RMK CLR BLO SLP209 T01440022 51020,M
SLE,1996-02-13 23:00,60.00,37.00,42.19,340.00,3.00,M,30.14,1020.70,10.00,M,CLR,   ,   ,   ,M,M,M,M,M,M,M,M,M,M,M,60.08,KSLE 132300Z 34003KT 10SM CLR/// 16/03 A//// RMK SLP207 T01560028,M
SLE,1996-02-14 00:00,61.00,37.00,40.86,0.00,0.00,M,30.13,1020.30,10.00,M,CLR,   ,   ,   ,M,M,M,M,M,M,M,M,M,M,M,60.98,KSLE 140000Z 00000KT 10SM CLR/// 16/03 A3013 RMK CLR BLO 56013 10061 20031; SLP203 T01610028 51020,M
SLE,1996-02-14 01:00,60.00,39.00,45.60,0.00,0.00,M,30.12,1020.00,10.00,M,CLR,   ,   ,   ,M,M,M,M,M,M,M,M,M,M,M,60.08,KSLE 140100Z 00000KT 10SM CLR/// 16/04 A3012 RMK CLR BLO SLP200 T01560039 51020,M
SLE,1996-02-14 02:00,56.00,41.00,57.14,40.00,4.00,M,30.12,1020.20,10.00,M,CLR,   ,   ,   ,M,M,M,M,M,M,M,M,M,M,M,55.94,KSLE 140200Z 04004KT 10SM CLR/// 13/05 A3012 RMK CLR BLO SLP202 T01330050 51020,M
SLE,1996-02-14 03:00,47.00,40.00,76.43,0.00,0.00,M,30.13,1020.40,10.00,M,CLR,   ,   ,   ,M,M,M,M,M,M,M,M,M,M,M,46.94,KSLE 140300Z 00000KT 10SM CLR/// 08/04 A3013 RMK CLR BLO 53000; SLP204 T00830044 51020,M
SLE,1996-02-14 04:00,44.00,39.00,82.31,0.00,0.00,M,30.13,1020.60,10.00,M,CLR,   ,   ,   ,M,M,M,M,M,M,M,M,M,M,M,44.06,KSLE 140400Z 00000KT 10SM CLR/// 07/04 A3013 RMK CLR BLO SLP206 T00670039 51020,M
SLE,1996-02-14 05:00,42.00,38.00,85.13,0.00,0.00,M,30.14,1020.60,10.00,M,CLR,   ,   ,   ,M,M,M,M,M,M,M,M,M,M,M,42.08,KSLE 140500Z 00000KT 10SM CLR/// 06/03 A3014 RMK CLR BLO SLP206 T00560033 51020,M
SLE,1996-02-14 06:00,39.00,37.00,92.53,160.00,5.00,M,30.15,1021.00,10.00,M,CLR,   ,   ,   ,M,M,M,M,M,M,M,M,M,M,M,34.73,KSLE 140600Z 16005KT 10SM CLR/// 04/03 A3015 RMK CLR BLO 53005 10062 20031; SLP210 T00390028 51020,M
SLE,1996-02-14 07:00,39.00,37.00,92.53,0.00,0.00,M,30.15,1020.90,10.00,M,CLR,   ,   ,   ,M,M,M,M,M,M,M,M,M,M,M,39.02,KSLE 140700Z 00000KT 10SM CLR/// 04/03 A3015 RMK CLR BLO SLP209 T00390028 51020,M
SLE,1996-02-14 08:00,39.00,37.00,92.53,160.00,3.00,M,30.16,1021.30,10.00,M,CLR,   ,   ,   ,M,M,M,M,M,M,M,M,M,M,M,36.71,KSLE 140800Z 16003KT 10SM CLR/// 04/03 A3016 RMK CLR BLO SLP213 T00390028 51020,M
SLE,1996-02-14 09:00,38.00,36.00,92.49,0.00,0.00,M,30.16,1021.50,10.00,M,CLR,   ,   ,   ,M,M,M,M,M,M,M,M,M,M,M,37.94,KSLE 140900Z 00000KT 10SM CLR/// 03/02 A3016 RMK CLR BLO F BNK VCNTY STN NW 53006; SLP215 T00330022 51020,M
SLE,1996-02-14 10:00,36.00,35.00,96.49,180.00,3.00,M,30.19,1022.30,10.00,M,CLR,   ,   ,   ,M,M,M,M,M,M,M,M,M,M,M,33.22,KSLE 141000Z 18003KT 10SM CLR/// 02/02 A3019 RMK CLR BLO SLP223 T00220017 51020,M
SLE,1996-02-14 11:00,37.00,36.00,95.82,0.00,0.00,M,30.19,1022.30,7.00,M,CLR,   ,   ,   ,M,M,M,M,M,M,M,M,M,M,M,37.04,KSLE 141100Z 00000KT 7SM CLR/// 03/02 A3019 RMK CLR BLO SLP223 T00280022 51020,M
SLE,1996-02-14 11:21,M,M,M,0.00,0.00,M,30.19,1022.30,7.00,M,CLR,   ,   ,   ,M,M,M,M,M,M,M,M,M,M,M,M,KSLE 141121Z 00000KT 7SM CLR A3019 RMK CLR BLO AO2A CLR BLO 120 7 223/34/34/0000/019 ; SLP223 51020,M
SLE,1996-02-14 12:00,33.00,33.00,100.00,190.00,3.00,M,30.19,1022.40,7.00,M,CLR,   ,   ,   ,M,M,M,M,M,M,M,M,M,M,M,29.92,KSLE 141200Z 19003KT 7SM CLR/// 01/01 A3019 RMK CLR BLO PTCHY GF OVR RWY 51008 10062 20032; SLP224 T00060006 51020,M
SLE,1996-02-14 13:00,35.00,35.00,100.00,0.00,0.00,M,30.18,1022.10,7.00,M,CLR,   ,   ,   ,M,M,M,M,M,M,M,M,M,M,M,35.06,KSLE 141300Z 00000KT 7SM CLR/// 02/02 A3018 RMK CLR BLO PTCHY GF OVR RWY; SLP221 T00170017 51020,M
SLE,1996-02-14 13:29,M,M,M,0.00,0.00,M,30.18,1022.10,5.00,M,SCT,   ,   ,   ,100.00,M,M,M,FG,M,M,M,M,M,M,M,KSLE 141329Z 00000KT 5SM FG SCT001 A3018 RMK SLP221,M
SLE,1996-02-14 14:00,34.00,34.00,100.00,0.00,0.00,M,30.17,1021.90,5.00,M,CLR,   ,   ,   ,M,M,M,M,FG,M,M,M,M,M,M,33.98,KSLE 141400Z 00000KT 5SM FG CLR/// 01/01 A3017 RMK CLR BLO SLP219 T00110011 51020,M
SLE,1996-02-14 14:01,M,M,M,0.00,0.00,M,30.17,1021.90,1.50,M,CLR,   ,   ,   ,M,M,M,M,FG,M,M,M,M,M,M,M,KSLE 141401Z 00000KT 11/2SM FG CLR A3017 RMK CLR BLO SLP219 51020,M
SLE,1996-02-14 14:03,M,M,M,0.00,0.00,M,30.18,1021.90,5.00,M,CLR,   ,   ,   ,M,M,M,M,FG,M,M,M,M,M,M,M,KSLE 141403Z 00000KT 5SM FG CLR A3018 RMK CLR BLO AO2A CLR BLO 120 5F 219/31/31/0000/018 ; SLP219 51020,M
SLE,1996-02-14 14:39,M,M,M,0.00,0.00,M,30.18,1022.10,3.00,M,SCT,   ,   ,   ,100.00,M,M,M,FG,M,M,M,M,M,M,M,KSLE 141439Z 00000KT 3SM FG SCT001 A3018 RMK SLP221,M
SLE,1996-02-14 15:00,32.00,32.00,100.00,0.00,0.00,M,30.18,1022.00,3.00,M,BKN,   ,   ,   ,100.00,M,M,M,FG,M,M,M,M,M,M,32.00,KSLE 141500Z 00000KT 3SM FG BKN001 00/00 A3018 RMK GF20DEP OVR RWY BKN V SCT; SLP220 T00000000 55050,M
SLE,1996-02-14 15:03,M,M,M,0.00,0.00,M,30.18,1022.10,3.00,M,SCT,   ,   ,   ,100.00,M,M,M,FG,M,M,M,M,M,M,M,KSLE 141503Z 00000KT 3SM FG SCT001 A3018 RMK SLP221,M
SLE,1996-02-14 16:00,32.00,32.00,100.00,0.00,0.00,M,30.20,1022.90,1.00,M,SCT,   ,   ,   ,100.00,M,M,M,FG,M,M,M,M,M,M,32.00,KSLE 141600Z 00000KT 1SM FG SCT001 00/00 A3020 RMK SLP229 T00000000,M
SLE,1996-02-14 16:03,M,M,M,0.00,0.00,M,30.20,1023.00,1.00,M,BKN,   ,   ,   ,100.00,M,M,M,FG,M,M,M,M,M,M,M,KSLE 141603Z 00000KT 1SM FG BKN001 A3020 RMK SLP230,M
SLE,1996-02-14 16:29,M,M,M,0.00,0.00,M,30.21,1023.10,0.50,M,BKN,   ,   ,   ,100.00,M,M,M,FG,M,M,M,M,M,M,M,KSLE 141629Z 00000KT 1/2SM FG BKN001 A3021 RMK SLP231,M
SLE,1996-02-14 16:37,M,M,M,0.00,0.00,M,30.21,1023.10,0.25,M,OVC,   ,   ,   ,100.00,M,M,M,FG,M,M,M,M,M,M,M,KSLE 141637Z 00000KT 1/4SM FG OVC001 A3021 RMK SLP231,M
SLE,1996-02-14 17:00,37.00,37.00,100.00,0.00,0.00,M,30.21,1023.20,0.25,M,OVC,   ,   ,   ,100.00,M,M,M,FG,M,M,M,M,M,M,37.04,KSLE 141700Z 00000KT 1/4SM FG OVC001 03/03 A3021 RMK SLP232 T00280028,M
SLE,1996-02-14 17:03,M,M,M,0.00,0.00,M,30.21,1023.20,0.00,M,OVC,   ,   ,   ,100.00,M,M,M,FG,M,M,M,M,M,M,M,KSLE 141703Z 00000KT 0SM FG OVC001 A3021 RMK SLP232,M
SLE,1996-02-14 18:00,39.00,39.00,100.00,0.00,0.00,M,30.22,1023.30,0.50,M,OVC,   ,   ,   ,100.00,M,M,M,FG,M,M,M,M,M,M,39.02,KSLE 141800Z 00000KT 1/2SM FG OVC001 04/04 A3022 RMK 10041 20030; SLP233 60012 T00390039 55010,M
SLE,1996-02-14 18:10,M,M,M,0.00,0.00,M,30.22,1023.30,3.00,M,SCT,   ,   ,   ,100.00,M,M,M,FG,M,M,M,M,M,M,M,KSLE 141810Z 00000KT 3SM FG SCT001 A3022 RMK SLP233,M
SLE,1996-02-14 19:00,46.00,41.00,82.45,0.00,0.00,M,30.22,1023.30,5.00,M,CLR,   ,   ,   ,M,M,M,M,FG,M,M,M,M,M,M,46.04,KSLE 141900Z 00000KT 5SM FG CLR 08/05 A3022 RMK SLP233 T00780050,M
SLE,1996-02-14 20:00,51.00,41.00,68.28,0.00,0.00,M,30.20,1022.60,6.00,M,CLR,   ,   ,   ,M,M,M,M,FG,M,M,M,M,M,M,51.08,KSLE 142000Z 00000KT 6SM FG CLR/// 11/05 A3020 RMK CLR BLO SLP226 T01060050 51020,M
SLE,1996-02-14 21:00,55.00,41.00,59.04,300.00,5.00,M,30.18,1022.00,10.00,M,CLR,   ,   ,   ,M,M,M,M,M,M,M,M,M,M,M,55.04,KSLE 142100Z 30005KT 10SM CLR/// 13/05 A3018 RMK CLR BLO 58011; SLP220 T01280050 51020,M
SLE,1996-02-14 22:00,58.00,41.00,53.20,0.00,0.00,M,30.15,1021.10,10.00,M,CLR,   ,   ,   ,M,M,M,M,M,M,M,M,M,M,M,57.92,KSLE 142200Z 00000KT 10SM CLR/// 14/05 A3015 RMK CLR BLO SLP211 T01440050 51020,M
SLE,1996-02-14 23:00,60.00,41.00,49.25,340.00,3.00,M,30.14,1020.70,10.00,M,CLR,   ,   ,   ,M,M,M,M,M,M,M,M,M,M,M,60.08,KSLE 142300Z 34003KT 10SM CLR/// 16/05 A3014 RMK CLR BLO SLP207 T01560050 51020,M
